<?xml version='1.0' encoding='UTF-8'?>
<gpx xmlns="http://www.topografix.com/GPX/1/1" xmlns:xsi="http://www.w3.org/2001/XMLSchema-instance" creator="RouteMaker reference fixture" version="1.1" xsi:schemaLocation="http://www.topografix.com/GPX/1/1 http://www.topografix.com/GPX/1/1/gpx.xsd">
 <metadata>
  <name>May 2025 DCBP Route BTR</name>
  <copyright author="OpenStreetMap contributors">
   <year>2020</year>
   <license>https://www.openstreetmap.org/copyright</license>
  </copyright>
  </metadata>
 <trk>
  <name>May 2025 DCBP Route BTR</name>
  <type>cycling</type>
  <trkseg>
   <trkpt lat="38.909380000000006" lon="-77.04272">
    <ele>26.7</ele>
   </trkpt>
   <trkpt lat="38.90955" lon="-77.04266000000001">
    <ele>26.79</ele>
   </trkpt>
   <trkpt lat="38.909760000000006" lon="-77.04267">
    <ele>27.080000000000002</ele>
   </trkpt>
   <trkpt lat="38.90992000000001" lon="-77.04276">
    <ele>27.080000000000002</ele>
   </trkpt>
   <trkpt lat="38.910050000000005" lon="-77.04286">
    <ele>27.240000000000002</ele>
   </trkpt>
   <trkpt lat="38.910140000000006" lon="-77.04297000000001">
    <ele>27.240000000000002</ele>
   </trkpt>
   <trkpt lat="38.91022" lon="-77.04313">
    <ele>27.470000000000002</ele>
   </trkpt>
   <trkpt lat="38.910250000000005" lon="-77.04331">
    <ele>27.790000000000003</ele>
   </trkpt>
   <trkpt lat="38.91026" lon="-77.04342000000001">
    <ele>27.790000000000003</ele>
   </trkpt>
   <trkpt lat="38.910250000000005" lon="-77.04366">
    <ele>27.94</ele>
   </trkpt>
   <trkpt lat="38.91015" lon="-77.04392">
    <ele>27.94</ele>
   </trkpt>
   <trkpt lat="38.91011" lon="-77.04397">
    <ele>27.94</ele>
   </trkpt>
   <trkpt lat="38.909960000000005" lon="-77.04413000000001">
    <ele>27.85</ele>
   </trkpt>
   <trkpt lat="38.90975" lon="-77.04423000000001">
    <ele>27.770000000000003</ele>
   </trkpt>
   <trkpt lat="38.909620000000004" lon="-77.04424">
    <ele>27.470000000000002</ele>
   </trkpt>
   <trkpt lat="38.909380000000006" lon="-77.04418000000001">
    <ele>27.380000000000003</ele>
   </trkpt>
   <trkpt lat="38.90921" lon="-77.04402">
    <ele>27.19</ele>
   </trkpt>
   <trkpt lat="38.90914" lon="-77.04392">
    <ele>27.19</ele>
   </trkpt>
   <trkpt lat="38.909090000000006" lon="-77.04381000000001">
    <ele>27.070000000000004</ele>
   </trkpt>
   <trkpt lat="38.90903" lon="-77.04353">
    <ele>26.910000000000004</ele>
   </trkpt>
   <trkpt lat="38.908910000000006" lon="-77.04346000000001">
    <ele>26.55</ele>
   </trkpt>
   <trkpt lat="38.90880000000001" lon="-77.04345">
    <ele>26.47</ele>
   </trkpt>
   <trkpt lat="38.908255000094734" lon="-77.04345">
    <ele>25.09</ele>
   </trkpt>
   <trkpt lat="38.90771" lon="-77.04345">
    <ele>24.48</ele>
   </trkpt>
   <trkpt lat="38.907680000000006" lon="-77.04345">
    <ele>24.44</ele>
   </trkpt>
   <trkpt lat="38.90689000002161" lon="-77.04345200008898">
    <ele>22.45</ele>
   </trkpt>
   <trkpt lat="38.90610000004319" lon="-77.04345400013344">
    <ele>19.430000000000003</ele>
   </trkpt>
   <trkpt lat="38.905310000064716" lon="-77.04345600013338">
    <ele>17.7</ele>
   </trkpt>
   <trkpt lat="38.90452000008624" lon="-77.04345800008882">
    <ele>17.080000000000002</ele>
   </trkpt>
   <trkpt lat="38.90373" lon="-77.04346000000001">
    <ele>16.78</ele>
   </trkpt>
   <trkpt lat="38.903731050762985" lon="-77.0423100001497">
    <ele>17.310000000000002</ele>
   </trkpt>
   <trkpt lat="38.90373209024531" lon="-77.0411600002655">
    <ele>17.84</ele>
   </trkpt>
   <trkpt lat="38.90373311844697" lon="-77.04001000034786">
    <ele>17.550000000000004</ele>
   </trkpt>
   <trkpt lat="38.903734135367976" lon="-77.03886000039707">
    <ele>17.14</ele>
   </trkpt>
   <trkpt lat="38.903735141008305" lon="-77.03771000041351">
    <ele>17.11</ele>
   </trkpt>
   <trkpt lat="38.903736135367986" lon="-77.03656000039756">
    <ele>17.53</ele>
   </trkpt>
   <trkpt lat="38.903737118446976" lon="-77.03541000034957">
    <ele>18.67</ele>
   </trkpt>
   <trkpt lat="38.90373809024531" lon="-77.03426000026994">
    <ele>21.060000000000002</ele>
   </trkpt>
   <trkpt lat="38.90373905076299" lon="-77.033110000159">
    <ele>21.900000000000002</ele>
   </trkpt>
   <trkpt lat="38.903740000000006" lon="-77.03196000000001">
    <ele>22.580000000000002</ele>
   </trkpt>
   <trkpt lat="38.90301400000685" lon="-77.03196000000001">
    <ele>21.32</ele>
   </trkpt>
   <trkpt lat="38.902288000013684" lon="-77.03196000000001">
    <ele>20.09</ele>
   </trkpt>
   <trkpt lat="38.901562000020526" lon="-77.03196000000001">
    <ele>19.000000000000004</ele>
   </trkpt>
   <trkpt lat="38.900836000027375" lon="-77.03196000000001">
    <ele>19.080000000000002</ele>
   </trkpt>
   <trkpt lat="38.900110000000005" lon="-77.03196000000001">
    <ele>18.56</ele>
   </trkpt>
   <trkpt lat="38.899260000000005" lon="-77.03195000000001">
    <ele>15.690000000000003</ele>
   </trkpt>
   <trkpt lat="38.89839000000415" lon="-77.031953333415">
    <ele>14.180000000000001</ele>
   </trkpt>
   <trkpt lat="38.897520000008186" lon="-77.03195666674833">
    <ele>12.68</ele>
   </trkpt>
   <trkpt lat="38.89665" lon="-77.03196000000001">
    <ele>8.09</ele>
   </trkpt>
   <trkpt lat="38.89696" lon="-77.03196000000001">
    <ele>10.24</ele>
   </trkpt>
   <trkpt lat="38.89623599998813" lon="-77.03196000000001">
    <ele>6.300000000000001</ele>
   </trkpt>
   <trkpt lat="38.89551199997626" lon="-77.03196000000001">
    <ele>4.91</ele>
   </trkpt>
   <trkpt lat="38.894787999964386" lon="-77.03196000000001">
    <ele>4.430000000000001</ele>
   </trkpt>
   <trkpt lat="38.89406399995253" lon="-77.03196000000001">
    <ele>3.8100000000000005</ele>
   </trkpt>
   <trkpt lat="38.89334" lon="-77.03196000000001">
    <ele>3.3800000000000003</ele>
   </trkpt>
   <trkpt lat="38.893350000000005" lon="-77.03196000000001">
    <ele>3.3800000000000003</ele>
   </trkpt>
   <trkpt lat="38.89265499993324" lon="-77.03196000000001">
    <ele>3.0</ele>
   </trkpt>
   <trkpt lat="38.891960000000005" lon="-77.03196000000001">
    <ele>2.6300000000000003</ele>
   </trkpt>
   <trkpt lat="38.89208" lon="-77.03196000000001">
    <ele>2.73</ele>
   </trkpt>
   <trkpt lat="38.89195" lon="-77.03196000000001">
    <ele>2.6300000000000003</ele>
   </trkpt>
   <trkpt lat="38.89111333333551" lon="-77.03196000000001">
    <ele>3.71</ele>
   </trkpt>
   <trkpt lat="38.890276666671035" lon="-77.03196000000001">
    <ele>5.9</ele>
   </trkpt>
   <trkpt lat="38.88944" lon="-77.03196000000001">
    <ele>7.710000000000001</ele>
   </trkpt>
   <trkpt lat="38.88942" lon="-77.03196000000001">
    <ele>7.73</ele>
   </trkpt>
   <trkpt lat="38.88897000013517" lon="-77.03196000000001">
    <ele>8.68</ele>
   </trkpt>
   <trkpt lat="38.88852" lon="-77.03196000000001">
    <ele>9.98</ele>
   </trkpt>
   <trkpt lat="38.88853" lon="-77.03196000000001">
    <ele>9.98</ele>
   </trkpt>
   <trkpt lat="38.88804999981476" lon="-77.03196500003573">
    <ele>11.46</ele>
   </trkpt>
   <trkpt lat="38.887570000000004" lon="-77.03197">
    <ele>12.010000000000002</ele>
   </trkpt>
   <trkpt lat="38.887570000000004" lon="-77.03196000000001">
    <ele>12.030000000000001</ele>
   </trkpt>
   <trkpt lat="38.887570025956116" lon="-77.03085666666456">
    <ele>11.79</ele>
   </trkpt>
   <trkpt lat="38.88757004152977" lon="-77.02975333332844">
    <ele>11.48</ele>
   </trkpt>
   <trkpt lat="38.887570046720995" lon="-77.02864999999201">
    <ele>10.530000000000001</ele>
   </trkpt>
   <trkpt lat="38.88757004152977" lon="-77.02754666665557">
    <ele>10.09</ele>
   </trkpt>
   <trkpt lat="38.887570025956116" lon="-77.02644333331946">
    <ele>9.540000000000001</ele>
   </trkpt>
   <trkpt lat="38.887570000000004" lon="-77.02534">
    <ele>9.030000000000001</ele>
   </trkpt>
   <trkpt lat="38.887570000000004" lon="-77.02531">
    <ele>9.02</ele>
   </trkpt>
   <trkpt lat="38.887570030718635" lon="-77.02421428571523">
    <ele>8.700000000000001</ele>
   </trkpt>
   <trkpt lat="38.88757005119773" lon="-77.02311857142969">
    <ele>8.290000000000001</ele>
   </trkpt>
   <trkpt lat="38.88757006143727" lon="-77.02202285714368">
    <ele>7.5200000000000005</ele>
   </trkpt>
   <trkpt lat="38.88757006143727" lon="-77.02092714285749">
    <ele>6.0</ele>
   </trkpt>
   <trkpt lat="38.887570051197734" lon="-77.01983142857146">
    <ele>5.15</ele>
   </trkpt>
   <trkpt lat="38.887570030718635" lon="-77.01873571428592">
    <ele>4.69</ele>
   </trkpt>
   <trkpt lat="38.887570000000004" lon="-77.01764">
    <ele>4.5600000000000005</ele>
   </trkpt>
   <trkpt lat="38.887240000000006" lon="-77.01764">
    <ele>4.69</ele>
   </trkpt>
   <trkpt lat="38.88723" lon="-77.01764">
    <ele>4.69</ele>
   </trkpt>
   <trkpt lat="38.88635999999976" lon="-77.01764111121997">
    <ele>5.49</ele>
   </trkpt>
   <trkpt lat="38.885489999999514" lon="-77.01764222241272">
    <ele>5.69</ele>
   </trkpt>
   <trkpt lat="38.884619999999266" lon="-77.01764333357823">
    <ele>5.85</ele>
   </trkpt>
   <trkpt lat="38.883749999999" lon="-77.01764444471655">
    <ele>5.710000000000001</ele>
   </trkpt>
   <trkpt lat="38.882879999998714" lon="-77.01764555582766">
    <ele>5.83</ele>
   </trkpt>
   <trkpt lat="38.88200999999843" lon="-77.01764666691156">
    <ele>6.07</ele>
   </trkpt>
   <trkpt lat="38.881139999998126" lon="-77.01764777796824">
    <ele>5.82</ele>
   </trkpt>
   <trkpt lat="38.88026999999782" lon="-77.01764888899774">
    <ele>5.99</ele>
   </trkpt>
   <trkpt lat="38.879400000000004" lon="-77.01765">
    <ele>6.090000000000001</ele>
   </trkpt>
   <trkpt lat="38.879290000000005" lon="-77.01764">
    <ele>5.970000000000001</ele>
   </trkpt>
   <trkpt lat="38.879288353462854" lon="-77.01666833321852">
    <ele>5.16</ele>
   </trkpt>
   <trkpt lat="38.87928669887389" lon="-77.01569666648219">
    <ele>4.260000000000001</ele>
   </trkpt>
   <trkpt lat="38.87928503623313" lon="-77.01472499979121">
    <ele>3.7600000000000002</ele>
   </trkpt>
   <trkpt lat="38.87928336554055" lon="-77.01375333314581">
    <ele>3.43</ele>
   </trkpt>
   <trkpt lat="38.87928168679618" lon="-77.01278166654622">
    <ele>3.45</ele>
   </trkpt>
   <trkpt lat="38.87928" lon="-77.01181000000001">
    <ele>3.4000000000000004</ele>
   </trkpt>
   <trkpt lat="38.87928" lon="-77.01182">
    <ele>3.4000000000000004</ele>
   </trkpt>
   <trkpt lat="38.87928251071001" lon="-77.01090500012073">
    <ele>3.94</ele>
   </trkpt>
   <trkpt lat="38.879285014279965" lon="-77.00999000017691">
    <ele>4.82</ele>
   </trkpt>
   <trkpt lat="38.87928751070989" lon="-77.00907500016868">
    <ele>5.0600000000000005</ele>
   </trkpt>
   <trkpt lat="38.879290000000005" lon="-77.00816">
    <ele>5.790000000000001</ele>
   </trkpt>
   <trkpt lat="38.87928" lon="-77.00818000000001">
    <ele>5.78</ele>
   </trkpt>
   <trkpt lat="38.87928000791429" lon="-77.0072166667683">
    <ele>6.7700000000000005</ele>
   </trkpt>
   <trkpt lat="38.879280007914296" lon="-77.00625333353646">
    <ele>7.65</ele>
   </trkpt>
   <trkpt lat="38.87928" lon="-77.00529">
    <ele>8.55</ele>
   </trkpt>
   <trkpt lat="38.87928" lon="-77.00516">
    <ele>8.610000000000001</ele>
   </trkpt>
   <trkpt lat="38.879200000000004" lon="-77.00514000000001">
    <ele>8.49</ele>
   </trkpt>
   <trkpt lat="38.879200000000004" lon="-77.00513000000001">
    <ele>8.48</ele>
   </trkpt>
   <trkpt lat="38.87833666751176" lon="-77.00481999247687">
    <ele>7.57</ele>
   </trkpt>
   <trkpt lat="38.87747333420395" lon="-77.00450999248616">
    <ele>6.24</ele>
   </trkpt>
   <trkpt lat="38.87661000000001" lon="-77.00420000000001">
    <ele>5.280000000000001</ele>
   </trkpt>
   <trkpt lat="38.877410000000005" lon="-77.00449">
    <ele>6.220000000000001</ele>
   </trkpt>
   <trkpt lat="38.87670666724291" lon="-77.004239995067">
    <ele>5.29</ele>
   </trkpt>
   <trkpt lat="38.876003333952795" lon="-77.00398999508242">
    <ele>5.2</ele>
   </trkpt>
   <trkpt lat="38.8753" lon="-77.00374000000001">
    <ele>4.87</ele>
   </trkpt>
   <trkpt lat="38.87464000000001" lon="-77.00374000000001">
    <ele>4.109999999999999</ele>
   </trkpt>
   <trkpt lat="38.87464000000001" lon="-77.00375000000001">
    <ele>4.12</ele>
   </trkpt>
   <trkpt lat="38.87464001485148" lon="-77.00482749999762">
    <ele>5.1000000000000005</ele>
   </trkpt>
   <trkpt lat="38.87464001980196" lon="-77.00590499999552">
    <ele>6.010000000000001</ele>
   </trkpt>
   <trkpt lat="38.87464001485148" lon="-77.00698249999344">
    <ele>8.280000000000001</ele>
   </trkpt>
   <trkpt lat="38.87464000000001" lon="-77.00806">
    <ele>9.74</ele>
   </trkpt>
  </trkseg>
 </trk>
</gpx>