<?xml version='1.0' encoding='UTF-8'?>
<gpx xmlns="http://www.topografix.com/GPX/1/1" xmlns:xsi="http://www.w3.org/2001/XMLSchema-instance" creator="RouteMaker reference fixture" version="1.1" xsi:schemaLocation="http://www.topografix.com/GPX/1/1 http://www.topografix.com/GPX/1/1/gpx.xsd">
 <metadata>
  <name>2025 December DCBP Route</name>
  <copyright author="OpenStreetMap contributors">
   <year>2020</year>
   <license>https://www.openstreetmap.org/copyright</license>
  </copyright>
  </metadata>
 <wpt lat="38.90133" lon="-77.03108">
  <name>Midpoint</name>
  <desc />
  <sym>Park</sym>
  <type>Park</type>
 </wpt>
 <trk>
  <name>2025 December DCBP Route</name>
  <type>cycling</type>
  <trkseg>
   <trkpt lat="38.909310000000005" lon="-77.04278000000001">
    <ele>26.72</ele>
   </trkpt>
   <trkpt lat="38.909380000000006" lon="-77.04272">
    <ele>26.7</ele>
   </trkpt>
   <trkpt lat="38.909490000000005" lon="-77.04268">
    <ele>26.79</ele>
   </trkpt>
   <trkpt lat="38.90955" lon="-77.04266000000001">
    <ele>26.79</ele>
   </trkpt>
   <trkpt lat="38.909760000000006" lon="-77.04267">
    <ele>27.080000000000002</ele>
   </trkpt>
   <trkpt lat="38.90992000000001" lon="-77.04276">
    <ele>27.080000000000002</ele>
   </trkpt>
   <trkpt lat="38.910050000000005" lon="-77.04286">
    <ele>27.240000000000002</ele>
   </trkpt>
   <trkpt lat="38.910140000000006" lon="-77.04297000000001">
    <ele>27.240000000000002</ele>
   </trkpt>
   <trkpt lat="38.91022" lon="-77.04313">
    <ele>27.470000000000002</ele>
   </trkpt>
   <trkpt lat="38.910250000000005" lon="-77.04331">
    <ele>27.790000000000003</ele>
   </trkpt>
   <trkpt lat="38.91026" lon="-77.04342000000001">
    <ele>27.790000000000003</ele>
   </trkpt>
   <trkpt lat="38.910250000000005" lon="-77.04366">
    <ele>27.94</ele>
   </trkpt>
   <trkpt lat="38.91015" lon="-77.04392">
    <ele>27.94</ele>
   </trkpt>
   <trkpt lat="38.91011" lon="-77.04397">
    <ele>27.94</ele>
   </trkpt>
   <trkpt lat="38.909960000000005" lon="-77.04413000000001">
    <ele>27.85</ele>
   </trkpt>
   <trkpt lat="38.9099" lon="-77.04417000000001">
    <ele>27.790000000000003</ele>
   </trkpt>
   <trkpt lat="38.90975" lon="-77.04423000000001">
    <ele>27.770000000000003</ele>
   </trkpt>
   <trkpt lat="38.909620000000004" lon="-77.04424">
    <ele>27.470000000000002</ele>
   </trkpt>
   <trkpt lat="38.909380000000006" lon="-77.04418000000001">
    <ele>27.380000000000003</ele>
   </trkpt>
   <trkpt lat="38.90921" lon="-77.04402">
    <ele>27.250000000000004</ele>
   </trkpt>
   <trkpt lat="38.909110000000005" lon="-77.04402">
    <ele>27.070000000000004</ele>
   </trkpt>
   <trkpt lat="38.90898" lon="-77.04407">
    <ele>26.92</ele>
   </trkpt>
   <trkpt lat="38.90837333612581" lon="-77.04464000972293">
    <ele>25.93</ele>
   </trkpt>
   <trkpt lat="38.90776666948017" lon="-77.04521000970303">
    <ele>24.64</ele>
   </trkpt>
   <trkpt lat="38.907160000000005" lon="-77.04578000000001">
    <ele>23.470000000000002</ele>
   </trkpt>
   <trkpt lat="38.90669000070549" lon="-77.0462100029229">
    <ele>22.310000000000002</ele>
   </trkpt>
   <trkpt lat="38.906220000000005" lon="-77.04664000000001">
    <ele>20.720000000000002</ele>
   </trkpt>
   <trkpt lat="38.90585" lon="-77.04701">
    <ele>19.540000000000003</ele>
   </trkpt>
   <trkpt lat="38.90541" lon="-77.04741">
    <ele>18.500000000000004</ele>
   </trkpt>
   <trkpt lat="38.90479750423801" lon="-77.0479875149742">
    <ele>17.740000000000002</ele>
   </trkpt>
   <trkpt lat="38.90418500563116" lon="-77.04856501998371">
    <ele>17.400000000000002</ele>
   </trkpt>
   <trkpt lat="38.903572504179564" lon="-77.04914251502888">
    <ele>18.400000000000002</ele>
   </trkpt>
   <trkpt lat="38.90296" lon="-77.04972000000001">
    <ele>20.69</ele>
   </trkpt>
   <trkpt lat="38.903000000000006" lon="-77.04979">
    <ele>20.82</ele>
   </trkpt>
   <trkpt lat="38.90307000000001" lon="-77.05003">
    <ele>20.720000000000002</ele>
   </trkpt>
   <trkpt lat="38.90307000000001" lon="-77.05022000000001">
    <ele>20.96</ele>
   </trkpt>
   <trkpt lat="38.903040000000004" lon="-77.05037">
    <ele>21.07</ele>
   </trkpt>
   <trkpt lat="38.90298000000001" lon="-77.0505">
    <ele>21.220000000000002</ele>
   </trkpt>
   <trkpt lat="38.902930000000005" lon="-77.0506">
    <ele>21.25</ele>
   </trkpt>
   <trkpt lat="38.90274" lon="-77.05073">
    <ele>20.970000000000002</ele>
   </trkpt>
   <trkpt lat="38.90263" lon="-77.05077">
    <ele>20.93</ele>
   </trkpt>
   <trkpt lat="38.902420000000006" lon="-77.05080000000001">
    <ele>20.740000000000002</ele>
   </trkpt>
   <trkpt lat="38.902330000000006" lon="-77.05077">
    <ele>20.55</ele>
   </trkpt>
   <trkpt lat="38.902190000000004" lon="-77.05066000000001">
    <ele>20.34</ele>
   </trkpt>
   <trkpt lat="38.90209" lon="-77.05053000000001">
    <ele>20.25</ele>
   </trkpt>
   <trkpt lat="38.90203" lon="-77.05038">
    <ele>20.28</ele>
   </trkpt>
   <trkpt lat="38.902010000000004" lon="-77.05015">
    <ele>20.32</ele>
   </trkpt>
   <trkpt lat="38.90203" lon="-77.04992">
    <ele>20.330000000000002</ele>
   </trkpt>
   <trkpt lat="38.902150000000006" lon="-77.04951000000001">
    <ele>21.130000000000003</ele>
   </trkpt>
   <trkpt lat="38.90216" lon="-77.04934">
    <ele>21.130000000000003</ele>
   </trkpt>
   <trkpt lat="38.90209" lon="-77.04894">
    <ele>21.61</ele>
   </trkpt>
   <trkpt lat="38.902080000000005" lon="-77.04883000000001">
    <ele>21.87</ele>
   </trkpt>
   <trkpt lat="38.901770003426" lon="-77.04793999625157">
    <ele>22.35</ele>
   </trkpt>
   <trkpt lat="38.90146" lon="-77.04705000000001">
    <ele>23.22</ele>
   </trkpt>
   <trkpt lat="38.90146" lon="-77.04706">
    <ele>23.21</ele>
   </trkpt>
   <trkpt lat="38.90111859592643" lon="-77.04608140032096">
    <ele>22.92</ele>
   </trkpt>
   <trkpt lat="38.90077718368447" lon="-77.04510281005255">
    <ele>22.46</ele>
   </trkpt>
   <trkpt lat="38.9004357632743" lon="-77.04412422919485">
    <ele>21.240000000000002</ele>
   </trkpt>
   <trkpt lat="38.90009433469611" lon="-77.04314565774786">
    <ele>20.57</ele>
   </trkpt>
   <trkpt lat="38.899752897950044" lon="-77.04216709571158">
    <ele>20.009999999999998</ele>
   </trkpt>
   <trkpt lat="38.899411453036315" lon="-77.04118854308605">
    <ele>19.15</ele>
   </trkpt>
   <trkpt lat="38.89907" lon="-77.04021">
    <ele>18.78</ele>
   </trkpt>
   <trkpt lat="38.898810000000005" lon="-77.03946">
    <ele>18.19</ele>
   </trkpt>
   <trkpt lat="38.89799124999107" lon="-77.03946375030269">
    <ele>16.330000000000002</ele>
   </trkpt>
   <trkpt lat="38.89717249998203" lon="-77.0394675005189">
    <ele>14.48</ele>
   </trkpt>
   <trkpt lat="38.89635374997285" lon="-77.03947125064865">
    <ele>12.08</ele>
   </trkpt>
   <trkpt lat="38.89553499996356" lon="-77.0394750006919">
    <ele>9.55</ele>
   </trkpt>
   <trkpt lat="38.89471624995414" lon="-77.03947875064868">
    <ele>7.670000000000001</ele>
   </trkpt>
   <trkpt lat="38.893897499944615" lon="-77.03948250051903">
    <ele>5.66</ele>
   </trkpt>
   <trkpt lat="38.893078749934965" lon="-77.03948625030291">
    <ele>4.79</ele>
   </trkpt>
   <trkpt lat="38.89226" lon="-77.03949">
    <ele>4.25</ele>
   </trkpt>
   <trkpt lat="38.892100000000006" lon="-77.03948000000001">
    <ele>4.180000000000001</ele>
   </trkpt>
   <trkpt lat="38.892100000000006" lon="-77.03934000000001">
    <ele>4.0200000000000005</ele>
   </trkpt>
   <trkpt lat="38.892100000000006" lon="-77.03948000000001">
    <ele>4.180000000000001</ele>
   </trkpt>
   <trkpt lat="38.89130500002384" lon="-77.03948250008386">
    <ele>3.19</ele>
   </trkpt>
   <trkpt lat="38.89051000004761" lon="-77.03948500011178">
    <ele>2.6300000000000003</ele>
   </trkpt>
   <trkpt lat="38.889715000071334" lon="-77.03948750008371">
    <ele>2.3000000000000003</ele>
   </trkpt>
   <trkpt lat="38.888920000000006" lon="-77.03949">
    <ele>2.12</ele>
   </trkpt>
   <trkpt lat="38.88853" lon="-77.03963">
    <ele>2.2800000000000002</ele>
   </trkpt>
   <trkpt lat="38.888310000000004" lon="-77.03976">
    <ele>2.2800000000000002</ele>
   </trkpt>
   <trkpt lat="38.88814" lon="-77.03992000000001">
    <ele>2.2800000000000002</ele>
   </trkpt>
   <trkpt lat="38.887980000000006" lon="-77.04018">
    <ele>1.77</ele>
   </trkpt>
   <trkpt lat="38.887980000000006" lon="-77.04019000000001">
    <ele>1.76</ele>
   </trkpt>
   <trkpt lat="38.88792" lon="-77.04031">
    <ele>1.67</ele>
   </trkpt>
   <trkpt lat="38.88781" lon="-77.04073000000001">
    <ele>1.7000000000000002</ele>
   </trkpt>
   <trkpt lat="38.88758" lon="-77.04124">
    <ele>1.8300000000000003</ele>
   </trkpt>
   <trkpt lat="38.88747" lon="-77.04137">
    <ele>1.8</ele>
   </trkpt>
   <trkpt lat="38.88740000000001" lon="-77.04142">
    <ele>1.8</ele>
   </trkpt>
   <trkpt lat="38.88732" lon="-77.04142">
    <ele>1.77</ele>
   </trkpt>
   <trkpt lat="38.88718" lon="-77.04141000000001">
    <ele>1.77</ele>
   </trkpt>
   <trkpt lat="38.88712" lon="-77.04137">
    <ele>1.77</ele>
   </trkpt>
   <trkpt lat="38.886990000000004" lon="-77.04119">
    <ele>1.81</ele>
   </trkpt>
   <trkpt lat="38.88694" lon="-77.04101">
    <ele>2.06</ele>
   </trkpt>
   <trkpt lat="38.88694000996333" lon="-77.04012749997833">
    <ele>2.4600000000000004</ele>
   </trkpt>
   <trkpt lat="38.88694001328445" lon="-77.03924499995651">
    <ele>2.52</ele>
   </trkpt>
   <trkpt lat="38.88694000996333" lon="-77.03836249993468">
    <ele>2.2900000000000005</ele>
   </trkpt>
   <trkpt lat="38.88694" lon="-77.03748">
    <ele>2.45</ele>
   </trkpt>
   <trkpt lat="38.88696" lon="-77.03634000000001">
    <ele>5.880000000000001</ele>
   </trkpt>
   <trkpt lat="38.88703" lon="-77.0356">
    <ele>7.21</ele>
   </trkpt>
   <trkpt lat="38.88714" lon="-77.03501">
    <ele>7.88</ele>
   </trkpt>
   <trkpt lat="38.88723" lon="-77.03471">
    <ele>7.88</ele>
   </trkpt>
   <trkpt lat="38.887530000000005" lon="-77.03415000000001">
    <ele>8.51</ele>
   </trkpt>
   <trkpt lat="38.88767" lon="-77.03382">
    <ele>8.64</ele>
   </trkpt>
   <trkpt lat="38.8877" lon="-77.03370000000001">
    <ele>8.860000000000001</ele>
   </trkpt>
   <trkpt lat="38.887730000000005" lon="-77.03353000000001">
    <ele>9.19</ele>
   </trkpt>
   <trkpt lat="38.88776" lon="-77.03327">
    <ele>9.510000000000002</ele>
   </trkpt>
   <trkpt lat="38.88774" lon="-77.03301">
    <ele>9.89</ele>
   </trkpt>
   <trkpt lat="38.8877" lon="-77.03287">
    <ele>10.24</ele>
   </trkpt>
   <trkpt lat="38.8877" lon="-77.03285000000001">
    <ele>10.26</ele>
   </trkpt>
   <trkpt lat="38.887550000000005" lon="-77.03216">
    <ele>11.63</ele>
   </trkpt>
   <trkpt lat="38.887570000000004" lon="-77.03196000000001">
    <ele>12.030000000000001</ele>
   </trkpt>
   <trkpt lat="38.887570000000004" lon="-77.03175">
    <ele>12.010000000000002</ele>
   </trkpt>
   <trkpt lat="38.887570036201446" lon="-77.03064874999791">
    <ele>11.79</ele>
   </trkpt>
   <trkpt lat="38.88757006205962" lon="-77.02954749999485">
    <ele>11.170000000000002</ele>
   </trkpt>
   <trkpt lat="38.88757007757453" lon="-77.02844624999115">
    <ele>10.530000000000001</ele>
   </trkpt>
   <trkpt lat="38.88757008274616" lon="-77.02734499998712">
    <ele>10.020000000000001</ele>
   </trkpt>
   <trkpt lat="38.88757007757453" lon="-77.02624374998311">
    <ele>9.540000000000001</ele>
   </trkpt>
   <trkpt lat="38.88757006205962" lon="-77.02514249997941">
    <ele>8.96</ele>
   </trkpt>
   <trkpt lat="38.887570036201446" lon="-77.02404124997635">
    <ele>8.5</ele>
   </trkpt>
   <trkpt lat="38.887570000000004" lon="-77.02294">
    <ele>8.07</ele>
   </trkpt>
   <trkpt lat="38.887570000000004" lon="-77.02295000000001">
    <ele>8.07</ele>
   </trkpt>
   <trkpt lat="38.88757001873435" lon="-77.02190199999481">
    <ele>7.3500000000000005</ele>
   </trkpt>
   <trkpt lat="38.88757002810153" lon="-77.0208539999892">
    <ele>6.0</ele>
   </trkpt>
   <trkpt lat="38.88757002810153" lon="-77.01980599998345">
    <ele>5.15</ele>
   </trkpt>
   <trkpt lat="38.88757001873435" lon="-77.01875799997784">
    <ele>4.69</ele>
   </trkpt>
   <trkpt lat="38.887570000000004" lon="-77.01771000000001">
    <ele>4.55</ele>
   </trkpt>
   <trkpt lat="38.887570000000004" lon="-77.01772000000001">
    <ele>4.55</ele>
   </trkpt>
   <trkpt lat="38.88757000185757" lon="-77.01705999997114">
    <ele>4.21</ele>
   </trkpt>
   <trkpt lat="38.887570000000004" lon="-77.0164">
    <ele>4.0200000000000005</ele>
   </trkpt>
   <trkpt lat="38.88778000000001" lon="-77.01621">
    <ele>3.74</ele>
   </trkpt>
   <trkpt lat="38.88788" lon="-77.01607000000001">
    <ele>3.6600000000000006</ele>
   </trkpt>
   <trkpt lat="38.88796" lon="-77.01588000000001">
    <ele>3.54</ele>
   </trkpt>
   <trkpt lat="38.88796" lon="-77.01589000000001">
    <ele>3.54</ele>
   </trkpt>
   <trkpt lat="38.88806" lon="-77.01565000000001">
    <ele>3.4400000000000004</ele>
   </trkpt>
   <trkpt lat="38.888330007736435" lon="-77.01469667396636">
    <ele>3.1500000000000004</ele>
   </trkpt>
   <trkpt lat="38.88860000772154" lon="-77.01374334068572">
    <ele>3.75</ele>
   </trkpt>
   <trkpt lat="38.888870000000004" lon="-77.01279000000001">
    <ele>3.920000000000001</ele>
   </trkpt>
   <trkpt lat="38.888850000000005" lon="-77.01243000000001">
    <ele>4.34</ele>
   </trkpt>
   <trkpt lat="38.88882" lon="-77.01231">
    <ele>4.34</ele>
   </trkpt>
   <trkpt lat="38.88889" lon="-77.01214">
    <ele>4.36</ele>
   </trkpt>
   <trkpt lat="38.888960000000004" lon="-77.01211">
    <ele>4.36</ele>
   </trkpt>
   <trkpt lat="38.88904" lon="-77.01212000000001">
    <ele>4.3</ele>
   </trkpt>
   <trkpt lat="38.889140000000005" lon="-77.01226000000001">
    <ele>4.24</ele>
   </trkpt>
   <trkpt lat="38.88915" lon="-77.01236">
    <ele>4.12</ele>
   </trkpt>
   <trkpt lat="38.889320000000005" lon="-77.01243000000001">
    <ele>3.86</ele>
   </trkpt>
   <trkpt lat="38.8896" lon="-77.01249">
    <ele>3.85</ele>
   </trkpt>
   <trkpt lat="38.88998" lon="-77.0125">
    <ele>3.75</ele>
   </trkpt>
   <trkpt lat="38.89049" lon="-77.01241">
    <ele>4.3500000000000005</ele>
   </trkpt>
   <trkpt lat="38.89047" lon="-77.01232">
    <ele>4.3500000000000005</ele>
   </trkpt>
   <trkpt lat="38.89049" lon="-77.01223">
    <ele>4.3500000000000005</ele>
   </trkpt>
   <trkpt lat="38.89054" lon="-77.01216000000001">
    <ele>4.4</ele>
   </trkpt>
   <trkpt lat="38.89061" lon="-77.01214">
    <ele>4.4</ele>
   </trkpt>
   <trkpt lat="38.890710000000006" lon="-77.01214">
    <ele>4.4</ele>
   </trkpt>
   <trkpt lat="38.89072" lon="-77.01214">
    <ele>4.390000000000001</ele>
   </trkpt>
   <trkpt lat="38.890800000000006" lon="-77.01227">
    <ele>4.3100000000000005</ele>
   </trkpt>
   <trkpt lat="38.89081" lon="-77.01236">
    <ele>4.3100000000000005</ele>
   </trkpt>
   <trkpt lat="38.89078000000001" lon="-77.01244000000001">
    <ele>4.17</ele>
   </trkpt>
   <trkpt lat="38.89085" lon="-77.01276">
    <ele>3.73</ele>
   </trkpt>
   <trkpt lat="38.89105667153633" lon="-77.01351332905666">
    <ele>3.2600000000000002</ele>
   </trkpt>
   <trkpt lat="38.89126333823239" lon="-77.01426666249708">
    <ele>3.39</ele>
   </trkpt>
   <trkpt lat="38.891470000000005" lon="-77.01502">
    <ele>3.3000000000000003</ele>
   </trkpt>
   <trkpt lat="38.891600000000004" lon="-77.01539000000001">
    <ele>3.49</ele>
   </trkpt>
   <trkpt lat="38.89188" lon="-77.01639">
    <ele>3.73</ele>
   </trkpt>
   <trkpt lat="38.891830000000006" lon="-77.01645">
    <ele>3.86</ele>
   </trkpt>
   <trkpt lat="38.892070000000004" lon="-77.01732000000001">
    <ele>3.94</ele>
   </trkpt>
   <trkpt lat="38.89213" lon="-77.01763000000001">
    <ele>4.03</ele>
   </trkpt>
   <trkpt lat="38.892290001340015" lon="-77.01818499884148">
    <ele>4.08</ele>
   </trkpt>
   <trkpt lat="38.892450000000004" lon="-77.01874000000001">
    <ele>4.07</ele>
   </trkpt>
   <trkpt lat="38.89264" lon="-77.01951000000001">
    <ele>3.87</ele>
   </trkpt>
   <trkpt lat="38.892921039384724" lon="-77.0205229639279">
    <ele>3.85</ele>
   </trkpt>
   <trkpt lat="38.89320207001769" lon="-77.02153593587208">
    <ele>3.98</ele>
   </trkpt>
   <trkpt lat="38.89348309189876" lon="-77.0225489158324">
    <ele>4.0200000000000005</ele>
   </trkpt>
   <trkpt lat="38.893764105027756" lon="-77.0235619038088">
    <ele>4.5600000000000005</ele>
   </trkpt>
   <trkpt lat="38.89404510940454" lon="-77.02457489980115">
    <ele>4.140000000000001</ele>
   </trkpt>
   <trkpt lat="38.89432610502894" lon="-77.02558790380935">
    <ele>4.2700000000000005</ele>
   </trkpt>
   <trkpt lat="38.894607091900795" lon="-77.0266009158333">
    <ele>4.710000000000001</ele>
   </trkpt>
   <trkpt lat="38.89488807001997" lon="-77.02761393587288">
    <ele>5.0600000000000005</ele>
   </trkpt>
   <trkpt lat="38.89516903938629" lon="-77.02862696392799">
    <ele>4.9</ele>
   </trkpt>
   <trkpt lat="38.895450000000004" lon="-77.02964">
    <ele>5.0</ele>
   </trkpt>
   <trkpt lat="38.895520000000005" lon="-77.02963000000001">
    <ele>5.04</ele>
   </trkpt>
   <trkpt lat="38.89553" lon="-77.02963000000001">
    <ele>5.04</ele>
   </trkpt>
   <trkpt lat="38.89633833334243" lon="-77.02963000000001">
    <ele>6.36</ele>
   </trkpt>
   <trkpt lat="38.89714666668485" lon="-77.02963000000001">
    <ele>12.020000000000001</ele>
   </trkpt>
   <trkpt lat="38.89795500002725" lon="-77.02963000000001">
    <ele>13.27</ele>
   </trkpt>
   <trkpt lat="38.89876333336968" lon="-77.02963000000001">
    <ele>13.8</ele>
   </trkpt>
   <trkpt lat="38.89957166671209" lon="-77.02963000000001">
    <ele>15.950000000000003</ele>
   </trkpt>
   <trkpt lat="38.900380000000006" lon="-77.02963000000001">
    <ele>16.740000000000002</ele>
   </trkpt>
   <trkpt lat="38.900490000000005" lon="-77.02963000000001">
    <ele>16.91</ele>
   </trkpt>
   <trkpt lat="38.90133" lon="-77.02963000000001">
    <ele>18.1</ele>
   </trkpt>
   <trkpt lat="38.90133500227385" lon="-77.03036000011438">
    <ele>17.910000000000004</ele>
   </trkpt>
   <trkpt lat="38.901340000000005" lon="-77.03109">
    <ele>18.04</ele>
   </trkpt>
   <trkpt lat="38.901340000000005" lon="-77.03107">
    <ele>18.03</ele>
   </trkpt>
   <trkpt lat="38.901340000000005" lon="-77.03179">
    <ele>18.53</ele>
   </trkpt>
   <trkpt lat="38.901340000000005" lon="-77.03178000000001">
    <ele>18.53</ele>
   </trkpt>
   <trkpt lat="38.90133" lon="-77.03196000000001">
    <ele>18.85</ele>
   </trkpt>
   <trkpt lat="38.90216333337646" lon="-77.03196000000001">
    <ele>20.09</ele>
   </trkpt>
   <trkpt lat="38.90299666675291" lon="-77.03196000000001">
    <ele>21.32</ele>
   </trkpt>
   <trkpt lat="38.903830000000006" lon="-77.03196000000001">
    <ele>22.680000000000003</ele>
   </trkpt>
   <trkpt lat="38.904250000000005" lon="-77.03196000000001">
    <ele>23.450000000000003</ele>
   </trkpt>
   <trkpt lat="38.904360000000004" lon="-77.03193">
    <ele>23.590000000000003</ele>
   </trkpt>
   <trkpt lat="38.90485" lon="-77.03191000000001">
    <ele>24.42</ele>
   </trkpt>
   <trkpt lat="38.90507" lon="-77.03191000000001">
    <ele>24.78</ele>
   </trkpt>
   <trkpt lat="38.90514" lon="-77.03192">
    <ele>24.98</ele>
   </trkpt>
   <trkpt lat="38.905280000000005" lon="-77.03183">
    <ele>24.98</ele>
   </trkpt>
   <trkpt lat="38.905370000000005" lon="-77.03169000000001">
    <ele>25.470000000000002</ele>
   </trkpt>
   <trkpt lat="38.90545" lon="-77.03161">
    <ele>25.76</ele>
   </trkpt>
   <trkpt lat="38.905550000000005" lon="-77.03154">
    <ele>25.76</ele>
   </trkpt>
   <trkpt lat="38.90567" lon="-77.03151000000001">
    <ele>25.970000000000002</ele>
   </trkpt>
   <trkpt lat="38.905820000000006" lon="-77.03157">
    <ele>26.140000000000004</ele>
   </trkpt>
   <trkpt lat="38.90641" lon="-77.03192">
    <ele>26.900000000000002</ele>
   </trkpt>
   <trkpt lat="38.90654" lon="-77.03194">
    <ele>27.110000000000003</ele>
   </trkpt>
   <trkpt lat="38.906530000000004" lon="-77.03194">
    <ele>27.110000000000003</ele>
   </trkpt>
   <trkpt lat="38.906650000000006" lon="-77.03196000000001">
    <ele>27.3</ele>
   </trkpt>
   <trkpt lat="38.907230000000006" lon="-77.03196000000001">
    <ele>28.0</ele>
   </trkpt>
   <trkpt lat="38.90724" lon="-77.03196000000001">
    <ele>28.020000000000003</ele>
   </trkpt>
   <trkpt lat="38.90786499992296" lon="-77.03196000000001">
    <ele>28.150000000000002</ele>
   </trkpt>
   <trkpt lat="38.90849" lon="-77.03196000000001">
    <ele>27.610000000000003</ele>
   </trkpt>
  </trkseg>
 </trk>
</gpx>