<?xml version='1.0' encoding='UTF-8'?>
<gpx xmlns="http://www.topografix.com/GPX/1/1" xmlns:xsi="http://www.w3.org/2001/XMLSchema-instance" creator="RouteMaker reference fixture" version="1.1" xsi:schemaLocation="http://www.topografix.com/GPX/1/1 http://www.topografix.com/GPX/1/1/gpx.xsd">
 <metadata>
  <name>2026 July DCBP</name>
  <copyright author="OpenStreetMap contributors">
   <year>2020</year>
   <license>https://www.openstreetmap.org/copyright</license>
  </copyright>
  </metadata>
 <trk>
  <name>2026 July DCBP</name>
  <type>cycling</type>
  <trkseg>
   <trkpt lat="38.90928" lon="-77.04296000000001">
    <ele>26.79</ele>
   </trkpt>
   <trkpt lat="38.909310000000005" lon="-77.04278000000001">
    <ele>26.72</ele>
   </trkpt>
   <trkpt lat="38.909380000000006" lon="-77.04272">
    <ele>26.7</ele>
   </trkpt>
   <trkpt lat="38.90955" lon="-77.04266000000001">
    <ele>26.79</ele>
   </trkpt>
   <trkpt lat="38.909760000000006" lon="-77.04267">
    <ele>27.080000000000002</ele>
   </trkpt>
   <trkpt lat="38.90992000000001" lon="-77.04276">
    <ele>27.080000000000002</ele>
   </trkpt>
   <trkpt lat="38.910050000000005" lon="-77.04286">
    <ele>27.240000000000002</ele>
   </trkpt>
   <trkpt lat="38.910140000000006" lon="-77.04297000000001">
    <ele>27.240000000000002</ele>
   </trkpt>
   <trkpt lat="38.91022" lon="-77.04313">
    <ele>27.470000000000002</ele>
   </trkpt>
   <trkpt lat="38.910250000000005" lon="-77.04331">
    <ele>27.790000000000003</ele>
   </trkpt>
   <trkpt lat="38.91026" lon="-77.04342000000001">
    <ele>27.790000000000003</ele>
   </trkpt>
   <trkpt lat="38.910250000000005" lon="-77.04366">
    <ele>27.94</ele>
   </trkpt>
   <trkpt lat="38.91015" lon="-77.04392">
    <ele>27.94</ele>
   </trkpt>
   <trkpt lat="38.91011" lon="-77.04397">
    <ele>27.94</ele>
   </trkpt>
   <trkpt lat="38.909960000000005" lon="-77.04413000000001">
    <ele>27.85</ele>
   </trkpt>
   <trkpt lat="38.9099" lon="-77.04417000000001">
    <ele>27.790000000000003</ele>
   </trkpt>
   <trkpt lat="38.90975" lon="-77.04423000000001">
    <ele>27.770000000000003</ele>
   </trkpt>
   <trkpt lat="38.909620000000004" lon="-77.04424">
    <ele>27.470000000000002</ele>
   </trkpt>
   <trkpt lat="38.909380000000006" lon="-77.04418000000001">
    <ele>27.380000000000003</ele>
   </trkpt>
   <trkpt lat="38.90921" lon="-77.04402">
    <ele>27.250000000000004</ele>
   </trkpt>
   <trkpt lat="38.909110000000005" lon="-77.04402">
    <ele>27.070000000000004</ele>
   </trkpt>
   <trkpt lat="38.90898" lon="-77.04407">
    <ele>26.92</ele>
   </trkpt>
   <trkpt lat="38.90837333612581" lon="-77.04464000972293">
    <ele>25.93</ele>
   </trkpt>
   <trkpt lat="38.90776666948017" lon="-77.04521000970303">
    <ele>24.64</ele>
   </trkpt>
   <trkpt lat="38.907160000000005" lon="-77.04578000000001">
    <ele>23.470000000000002</ele>
   </trkpt>
   <trkpt lat="38.90669000070549" lon="-77.0462100029229">
    <ele>22.310000000000002</ele>
   </trkpt>
   <trkpt lat="38.906220000000005" lon="-77.04664000000001">
    <ele>20.48</ele>
   </trkpt>
   <trkpt lat="38.90539000004262" lon="-77.04664666682221">
    <ele>18.42</ele>
   </trkpt>
   <trkpt lat="38.904560000084864" lon="-77.04665333348854">
    <ele>17.63</ele>
   </trkpt>
   <trkpt lat="38.90373" lon="-77.04666">
    <ele>16.150000000000002</ele>
   </trkpt>
   <trkpt lat="38.9037309595933" lon="-77.04557181832385">
    <ele>15.84</ele>
   </trkpt>
   <trkpt lat="38.90373190908612" lon="-77.04448363661845">
    <ele>15.99</ele>
   </trkpt>
   <trkpt lat="38.90373284847847" lon="-77.04339545488408">
    <ele>16.78</ele>
   </trkpt>
   <trkpt lat="38.90373377777032" lon="-77.04230727312108">
    <ele>17.310000000000002</ele>
   </trkpt>
   <trkpt lat="38.90373469696172" lon="-77.04121909132975">
    <ele>17.84</ele>
   </trkpt>
   <trkpt lat="38.903735606052635" lon="-77.0401309095104">
    <ele>17.550000000000004</ele>
   </trkpt>
   <trkpt lat="38.90373650504307" lon="-77.03904272766333">
    <ele>17.14</ele>
   </trkpt>
   <trkpt lat="38.90373739393302" lon="-77.03795454578885">
    <ele>17.01</ele>
   </trkpt>
   <trkpt lat="38.90373827272249" lon="-77.03686636388728">
    <ele>17.29</ele>
   </trkpt>
   <trkpt lat="38.903739141411506" lon="-77.03577818195893">
    <ele>18.48</ele>
   </trkpt>
   <trkpt lat="38.903740000000006" lon="-77.03469000000001">
    <ele>20.310000000000002</ele>
   </trkpt>
   <trkpt lat="38.90379" lon="-77.03469000000001">
    <ele>20.400000000000002</ele>
   </trkpt>
   <trkpt lat="38.90379" lon="-77.03458">
    <ele>20.48</ele>
   </trkpt>
   <trkpt lat="38.90434499982564" lon="-77.03458">
    <ele>21.27</ele>
   </trkpt>
   <trkpt lat="38.904900000000005" lon="-77.03458">
    <ele>22.240000000000002</ele>
   </trkpt>
   <trkpt lat="38.90491" lon="-77.03458">
    <ele>22.240000000000002</ele>
   </trkpt>
   <trkpt lat="38.905740000050024" lon="-77.03457500005817">
    <ele>23.66</ele>
   </trkpt>
   <trkpt lat="38.90657" lon="-77.03457">
    <ele>24.560000000000002</ele>
   </trkpt>
   <trkpt lat="38.90648" lon="-77.03441000000001">
    <ele>24.68</ele>
   </trkpt>
   <trkpt lat="38.90643" lon="-77.03434">
    <ele>24.68</ele>
   </trkpt>
   <trkpt lat="38.90614500305232" lon="-77.03348999650076">
    <ele>25.76</ele>
   </trkpt>
   <trkpt lat="38.905860000000004" lon="-77.03264">
    <ele>22.67</ele>
   </trkpt>
   <trkpt lat="38.90556333940424" lon="-77.03179665963077">
    <ele>22.0</ele>
   </trkpt>
   <trkpt lat="38.90526667274185" lon="-77.03095332630971">
    <ele>24.03</ele>
   </trkpt>
   <trkpt lat="38.904970000000006" lon="-77.03011000000001">
    <ele>26.490000000000002</ele>
   </trkpt>
   <trkpt lat="38.90485" lon="-77.02980000000001">
    <ele>26.78</ele>
   </trkpt>
   <trkpt lat="38.90485" lon="-77.02963000000001">
    <ele>27.080000000000002</ele>
   </trkpt>
   <trkpt lat="38.904790000000006" lon="-77.02946">
    <ele>27.21</ele>
   </trkpt>
   <trkpt lat="38.90451000555005" lon="-77.02865332696932">
    <ele>28.130000000000003</ele>
   </trkpt>
   <trkpt lat="38.90423000554958" lon="-77.02784666030139">
    <ele>27.430000000000003</ele>
   </trkpt>
   <trkpt lat="38.90395" lon="-77.02704">
    <ele>26.0</ele>
   </trkpt>
   <trkpt lat="38.90479999995115" lon="-77.02703999999999">
    <ele>27.070000000000004</ele>
   </trkpt>
   <trkpt lat="38.90565" lon="-77.02704">
    <ele>28.180000000000003</ele>
   </trkpt>
   <trkpt lat="38.905650017749075" lon="-77.02602000001644">
    <ele>27.070000000000004</ele>
   </trkpt>
   <trkpt lat="38.90565002662362" lon="-77.02500000003252">
    <ele>26.060000000000002</ele>
   </trkpt>
   <trkpt lat="38.90565002662362" lon="-77.02398000004847">
    <ele>25.630000000000003</ele>
   </trkpt>
   <trkpt lat="38.90565001774908" lon="-77.02296000006453">
    <ele>25.96</ele>
   </trkpt>
   <trkpt lat="38.90565" lon="-77.02194">
    <ele>26.930000000000003</ele>
   </trkpt>
   <trkpt lat="38.905640000000005" lon="-77.02192000000001">
    <ele>26.94</ele>
   </trkpt>
   <trkpt lat="38.90651666666866" lon="-77.02192000000001">
    <ele>27.450000000000003</ele>
   </trkpt>
   <trkpt lat="38.90739333333732" lon="-77.02192000000001">
    <ele>27.96</ele>
   </trkpt>
   <trkpt lat="38.908270000005956" lon="-77.02192000000001">
    <ele>28.16</ele>
   </trkpt>
   <trkpt lat="38.909146666674616" lon="-77.02192000000001">
    <ele>27.630000000000003</ele>
   </trkpt>
   <trkpt lat="38.91002333334326" lon="-77.02192000000001">
    <ele>26.97</ele>
   </trkpt>
   <trkpt lat="38.910900000011914" lon="-77.02192000000001">
    <ele>25.880000000000003</ele>
   </trkpt>
   <trkpt lat="38.91177666668058" lon="-77.02192000000001">
    <ele>24.700000000000003</ele>
   </trkpt>
   <trkpt lat="38.91265333334923" lon="-77.02192000000001">
    <ele>24.07</ele>
   </trkpt>
   <trkpt lat="38.913530000017886" lon="-77.02192000000001">
    <ele>24.520000000000003</ele>
   </trkpt>
   <trkpt lat="38.91440666668653" lon="-77.02192000000001">
    <ele>25.220000000000002</ele>
   </trkpt>
   <trkpt lat="38.91528333335519" lon="-77.02192000000001">
    <ele>26.62</ele>
   </trkpt>
   <trkpt lat="38.916160000000005" lon="-77.02192000000001">
    <ele>27.89</ele>
   </trkpt>
   <trkpt lat="38.91639" lon="-77.0219">
    <ele>28.37</ele>
   </trkpt>
   <trkpt lat="38.917260000046895" lon="-77.0219">
    <ele>30.160000000000004</ele>
   </trkpt>
   <trkpt lat="38.918130000093775" lon="-77.0219">
    <ele>30.92</ele>
   </trkpt>
   <trkpt lat="38.919000000000004" lon="-77.0219">
    <ele>32.080000000000005</ele>
   </trkpt>
   <trkpt lat="38.919495000228174" lon="-77.02190999993485">
    <ele>32.68</ele>
   </trkpt>
   <trkpt lat="38.919990000000006" lon="-77.02192000000001">
    <ele>33.400000000000006</ele>
   </trkpt>
   <trkpt lat="38.920088018242765" lon="-77.02088600570026">
    <ele>33.13</ele>
   </trkpt>
   <trkpt lat="38.92018602736479" lon="-77.01985200854395">
    <ele>33.95</ele>
   </trkpt>
   <trkpt lat="38.92028402736602" lon="-77.01881800853134">
    <ele>34.95</ele>
   </trkpt>
   <trkpt lat="38.92038201824639" lon="-77.01778400566268">
    <ele>35.9</ele>
   </trkpt>
   <trkpt lat="38.920480000000005" lon="-77.01675">
    <ele>36.83</ele>
   </trkpt>
   <trkpt lat="38.920570003490205" lon="-77.01584500118112">
    <ele>36.99</ele>
   </trkpt>
   <trkpt lat="38.920660000000005" lon="-77.01494000000001">
    <ele>35.69</ele>
   </trkpt>
   <trkpt lat="38.92081" lon="-77.01407">
    <ele>37.27</ele>
   </trkpt>
   <trkpt lat="38.92092" lon="-77.01366">
    <ele>38.760000000000005</ele>
   </trkpt>
   <trkpt lat="38.92107" lon="-77.01322">
    <ele>40.21</ele>
   </trkpt>
   <trkpt lat="38.92128" lon="-77.01276">
    <ele>41.13</ele>
   </trkpt>
   <trkpt lat="38.9213" lon="-77.01265000000001">
    <ele>41.370000000000005</ele>
   </trkpt>
   <trkpt lat="38.9213" lon="-77.01217000000001">
    <ele>42.14</ele>
   </trkpt>
   <trkpt lat="38.9213" lon="-77.01216000000001">
    <ele>42.120000000000005</ele>
   </trkpt>
   <trkpt lat="38.921835000073074" lon="-77.01216">
    <ele>44.99</ele>
   </trkpt>
   <trkpt lat="38.92237" lon="-77.01216000000001">
    <ele>47.440000000000005</ele>
   </trkpt>
   <trkpt lat="38.92237" lon="-77.01206">
    <ele>47.470000000000006</ele>
   </trkpt>
   <trkpt lat="38.922885000156626" lon="-77.01206499996523">
    <ele>48.35</ele>
   </trkpt>
   <trkpt lat="38.9234" lon="-77.01207000000001">
    <ele>49.49</ele>
   </trkpt>
   <trkpt lat="38.923390000000005" lon="-77.01142">
    <ele>50.93</ele>
   </trkpt>
   <trkpt lat="38.923010000000005" lon="-77.01142">
    <ele>51.53000000000001</ele>
   </trkpt>
   <trkpt lat="38.923010000000005" lon="-77.01176000000001">
    <ele>51.58</ele>
   </trkpt>
   <trkpt lat="38.922900000000006" lon="-77.01177000000001">
    <ele>51.56</ele>
   </trkpt>
   <trkpt lat="38.923010000000005" lon="-77.01176000000001">
    <ele>51.58</ele>
   </trkpt>
   <trkpt lat="38.923010000000005" lon="-77.01142">
    <ele>51.53000000000001</ele>
   </trkpt>
   <trkpt lat="38.923410000000004" lon="-77.01142">
    <ele>50.77</ele>
   </trkpt>
   <trkpt lat="38.92342" lon="-77.01187">
    <ele>50.14</ele>
   </trkpt>
   <trkpt lat="38.92345" lon="-77.01196">
    <ele>49.67</ele>
   </trkpt>
   <trkpt lat="38.92351" lon="-77.012">
    <ele>49.67</ele>
   </trkpt>
   <trkpt lat="38.92351" lon="-77.01205">
    <ele>49.580000000000005</ele>
   </trkpt>
   <trkpt lat="38.924113333309585" lon="-77.01205000000002">
    <ele>50.60000000000001</ele>
   </trkpt>
   <trkpt lat="38.92471666661917" lon="-77.01205000000002">
    <ele>51.72</ele>
   </trkpt>
   <trkpt lat="38.925320000000006" lon="-77.01205">
    <ele>52.83</ele>
   </trkpt>
   <trkpt lat="38.92548" lon="-77.01207000000001">
    <ele>53.15</ele>
   </trkpt>
   <trkpt lat="38.926140000000004" lon="-77.01207000000001">
    <ele>55.010000000000005</ele>
   </trkpt>
   <trkpt lat="38.92613" lon="-77.01207000000001">
    <ele>55.010000000000005</ele>
   </trkpt>
   <trkpt lat="38.926170000000006" lon="-77.01202">
    <ele>55.13</ele>
   </trkpt>
   <trkpt lat="38.926290007389355" lon="-77.01109000306357">
    <ele>54.52</ele>
   </trkpt>
   <trkpt lat="38.926410007400044" lon="-77.01016000298075">
    <ele>53.720000000000006</ele>
   </trkpt>
   <trkpt lat="38.92653" lon="-77.00923">
    <ele>53.01</ele>
   </trkpt>
   <trkpt lat="38.92651" lon="-77.0092">
    <ele>52.9</ele>
   </trkpt>
   <trkpt lat="38.92653" lon="-77.00888">
    <ele>52.92</ele>
   </trkpt>
   <trkpt lat="38.92656" lon="-77.00883">
    <ele>52.99</ele>
   </trkpt>
   <trkpt lat="38.92669500439359" lon="-77.00781500193891">
    <ele>53.78</ele>
   </trkpt>
   <trkpt lat="38.92683" lon="-77.00680000000001">
    <ele>54.50000000000001</ele>
   </trkpt>
   <trkpt lat="38.92685" lon="-77.00647000000001">
    <ele>54.790000000000006</ele>
   </trkpt>
   <trkpt lat="38.92689" lon="-77.00631000000001">
    <ele>54.98</ele>
   </trkpt>
   <trkpt lat="38.92692" lon="-77.00607000000001">
    <ele>55.11000000000001</ele>
   </trkpt>
   <trkpt lat="38.92712" lon="-77.00578">
    <ele>55.540000000000006</ele>
   </trkpt>
   <trkpt lat="38.9273" lon="-77.00559000000001">
    <ele>55.650000000000006</ele>
   </trkpt>
   <trkpt lat="38.927980002745976" lon="-77.00502334419218">
    <ele>55.56</ele>
   </trkpt>
   <trkpt lat="38.92866000275249" lon="-77.00445667752028">
    <ele>54.78</ele>
   </trkpt>
   <trkpt lat="38.92934" lon="-77.00389000000001">
    <ele>53.7</ele>
   </trkpt>
   <trkpt lat="38.929500000000004" lon="-77.00372">
    <ele>53.62</ele>
   </trkpt>
   <trkpt lat="38.92971" lon="-77.00345">
    <ele>53.77</ele>
   </trkpt>
   <trkpt lat="38.9299" lon="-77.00318">
    <ele>54.400000000000006</ele>
   </trkpt>
   <trkpt lat="38.93019" lon="-77.00266">
    <ele>54.970000000000006</ele>
   </trkpt>
   <trkpt lat="38.93065500319357" lon="-77.00179500566738">
    <ele>56.050000000000004</ele>
   </trkpt>
   <trkpt lat="38.93112" lon="-77.00093000000001">
    <ele>56.67</ele>
   </trkpt>
   <trkpt lat="38.93113" lon="-77.00093000000001">
    <ele>56.68</ele>
   </trkpt>
   <trkpt lat="38.93081" lon="-77.00069">
    <ele>57.150000000000006</ele>
   </trkpt>
   <trkpt lat="38.930690000000006" lon="-77.00057000000001">
    <ele>57.260000000000005</ele>
   </trkpt>
   <trkpt lat="38.92984499999105" lon="-77.00057500005961">
    <ele>56.45</ele>
   </trkpt>
   <trkpt lat="38.929" lon="-77.00058">
    <ele>54.62</ele>
   </trkpt>
   <trkpt lat="38.92819500001605" lon="-77.00056499983006">
    <ele>53.96</ele>
   </trkpt>
   <trkpt lat="38.92739" lon="-77.00055">
    <ele>53.22</ele>
   </trkpt>
   <trkpt lat="38.92698" lon="-77.00058">
    <ele>52.61</ele>
   </trkpt>
   <trkpt lat="38.92612428571855" lon="-77.00058">
    <ele>51.63</ele>
   </trkpt>
   <trkpt lat="38.92526857143711" lon="-77.00058">
    <ele>48.6</ele>
   </trkpt>
   <trkpt lat="38.92441285715567" lon="-77.00058">
    <ele>45.36000000000001</ele>
   </trkpt>
   <trkpt lat="38.92355714287423" lon="-77.00058">
    <ele>41.03</ele>
   </trkpt>
   <trkpt lat="38.922701428592795" lon="-77.00058">
    <ele>37.37</ele>
   </trkpt>
   <trkpt lat="38.921845714311345" lon="-77.00058">
    <ele>34.03</ele>
   </trkpt>
   <trkpt lat="38.92099" lon="-77.00058">
    <ele>32.080000000000005</ele>
   </trkpt>
   <trkpt lat="38.92099500177349" lon="-76.99993500018168">
    <ele>33.160000000000004</ele>
   </trkpt>
   <trkpt lat="38.92100000000001" lon="-76.99929">
    <ele>34.57</ele>
   </trkpt>
   <trkpt lat="38.921020000000006" lon="-76.9992">
    <ele>34.550000000000004</ele>
   </trkpt>
   <trkpt lat="38.92112" lon="-76.99925">
    <ele>35.15</ele>
   </trkpt>
   <trkpt lat="38.92121" lon="-76.99925">
    <ele>35.36</ele>
   </trkpt>
   <trkpt lat="38.92147000133532" lon="-76.9987000019202">
    <ele>36.050000000000004</ele>
   </trkpt>
   <trkpt lat="38.921730000000004" lon="-76.99815000000001">
    <ele>36.53</ele>
   </trkpt>
   <trkpt lat="38.921780000000005" lon="-76.99816000000001">
    <ele>36.64000000000001</ele>
   </trkpt>
   <trkpt lat="38.92186" lon="-76.99802000000001">
    <ele>36.480000000000004</ele>
   </trkpt>
   <trkpt lat="38.921890000000005" lon="-76.99781">
    <ele>35.730000000000004</ele>
   </trkpt>
   <trkpt lat="38.921890000000005" lon="-76.99734000000001">
    <ele>35.52</ele>
   </trkpt>
  </trkseg>
 </trk>
</gpx>