<?xml version='1.0' encoding='UTF-8'?>
<gpx xmlns="http://www.topografix.com/GPX/1/1" xmlns:xsi="http://www.w3.org/2001/XMLSchema-instance" creator="RouteMaker reference fixture" version="1.1" xsi:schemaLocation="http://www.topografix.com/GPX/1/1 http://www.topografix.com/GPX/1/1/gpx.xsd">
 <metadata>
  <name>DCBP April 2026 Ride</name>
  <copyright author="OpenStreetMap contributors">
   <year>2020</year>
   <license>https://www.openstreetmap.org/copyright</license>
  </copyright>
  </metadata>
 <trk>
  <name>DCBP April 2026 Ride</name>
  <type>cycling</type>
  <trkseg>
   <trkpt lat="38.909380000000006" lon="-77.04272">
    <ele>26.7</ele>
   </trkpt>
   <trkpt lat="38.90955" lon="-77.04266000000001">
    <ele>26.79</ele>
   </trkpt>
   <trkpt lat="38.909760000000006" lon="-77.04267">
    <ele>27.080000000000002</ele>
   </trkpt>
   <trkpt lat="38.90992000000001" lon="-77.04276">
    <ele>27.080000000000002</ele>
   </trkpt>
   <trkpt lat="38.910050000000005" lon="-77.04286">
    <ele>27.240000000000002</ele>
   </trkpt>
   <trkpt lat="38.910140000000006" lon="-77.04297000000001">
    <ele>27.240000000000002</ele>
   </trkpt>
   <trkpt lat="38.91022" lon="-77.04313">
    <ele>27.470000000000002</ele>
   </trkpt>
   <trkpt lat="38.910250000000005" lon="-77.04331">
    <ele>27.790000000000003</ele>
   </trkpt>
   <trkpt lat="38.91026" lon="-77.04342000000001">
    <ele>27.790000000000003</ele>
   </trkpt>
   <trkpt lat="38.910250000000005" lon="-77.04366">
    <ele>27.94</ele>
   </trkpt>
   <trkpt lat="38.91015" lon="-77.04392">
    <ele>27.94</ele>
   </trkpt>
   <trkpt lat="38.91011" lon="-77.04397">
    <ele>27.94</ele>
   </trkpt>
   <trkpt lat="38.909960000000005" lon="-77.04413000000001">
    <ele>27.85</ele>
   </trkpt>
   <trkpt lat="38.9099" lon="-77.04417000000001">
    <ele>27.790000000000003</ele>
   </trkpt>
   <trkpt lat="38.90975" lon="-77.04423000000001">
    <ele>27.770000000000003</ele>
   </trkpt>
   <trkpt lat="38.909620000000004" lon="-77.04424">
    <ele>27.470000000000002</ele>
   </trkpt>
   <trkpt lat="38.909380000000006" lon="-77.04418000000001">
    <ele>27.380000000000003</ele>
   </trkpt>
   <trkpt lat="38.90921" lon="-77.04402">
    <ele>27.250000000000004</ele>
   </trkpt>
   <trkpt lat="38.909110000000005" lon="-77.04402">
    <ele>27.070000000000004</ele>
   </trkpt>
   <trkpt lat="38.90898" lon="-77.04407">
    <ele>26.92</ele>
   </trkpt>
   <trkpt lat="38.90837333612581" lon="-77.04464000972293">
    <ele>25.93</ele>
   </trkpt>
   <trkpt lat="38.90776666948017" lon="-77.04521000970303">
    <ele>24.64</ele>
   </trkpt>
   <trkpt lat="38.907160000000005" lon="-77.04578000000001">
    <ele>23.06</ele>
   </trkpt>
   <trkpt lat="38.90669000070549" lon="-77.0462100029229">
    <ele>22.310000000000002</ele>
   </trkpt>
   <trkpt lat="38.906220000000005" lon="-77.04664000000001">
    <ele>20.48</ele>
   </trkpt>
   <trkpt lat="38.90562000006634" lon="-77.04664666677864">
    <ele>18.65</ele>
   </trkpt>
   <trkpt lat="38.905020000132296" lon="-77.04665333344455">
    <ele>17.8</ele>
   </trkpt>
   <trkpt lat="38.90442" lon="-77.04666">
    <ele>16.68</ele>
   </trkpt>
   <trkpt lat="38.9035340000276" lon="-77.04666">
    <ele>16.48</ele>
   </trkpt>
   <trkpt lat="38.9026480000552" lon="-77.04666">
    <ele>18.520000000000003</ele>
   </trkpt>
   <trkpt lat="38.9017620000828" lon="-77.04666">
    <ele>22.750000000000004</ele>
   </trkpt>
   <trkpt lat="38.90087600011039" lon="-77.04666">
    <ele>21.990000000000002</ele>
   </trkpt>
   <trkpt lat="38.89999" lon="-77.04666">
    <ele>20.93</ele>
   </trkpt>
   <trkpt lat="38.89917000009093" lon="-77.04666500005717">
    <ele>20.91</ele>
   </trkpt>
   <trkpt lat="38.89835" lon="-77.04667">
    <ele>21.05</ele>
   </trkpt>
   <trkpt lat="38.898250000000004" lon="-77.04669000000001">
    <ele>21.05</ele>
   </trkpt>
   <trkpt lat="38.89751749999723" lon="-77.0466925000774">
    <ele>20.48</ele>
   </trkpt>
   <trkpt lat="38.8967849999944" lon="-77.04669500010318">
    <ele>18.830000000000002</ele>
   </trkpt>
   <trkpt lat="38.89605249999151" lon="-77.0466975000774">
    <ele>16.990000000000002</ele>
   </trkpt>
   <trkpt lat="38.895320000000005" lon="-77.0467">
    <ele>14.06</ele>
   </trkpt>
   <trkpt lat="38.89522" lon="-77.04651000000001">
    <ele>13.88</ele>
   </trkpt>
   <trkpt lat="38.895250000000004" lon="-77.04656">
    <ele>13.88</ele>
   </trkpt>
   <trkpt lat="38.89522" lon="-77.04651000000001">
    <ele>13.73</ele>
   </trkpt>
   <trkpt lat="38.89506" lon="-77.04621">
    <ele>12.74</ele>
   </trkpt>
   <trkpt lat="38.895010000000006" lon="-77.04606000000001">
    <ele>12.24</ele>
   </trkpt>
   <trkpt lat="38.89462" lon="-77.04530000000001">
    <ele>10.58</ele>
   </trkpt>
   <trkpt lat="38.89412" lon="-77.04454000000001">
    <ele>8.870000000000001</ele>
   </trkpt>
   <trkpt lat="38.89383500116526" lon="-77.04400999781247">
    <ele>8.040000000000001</ele>
   </trkpt>
   <trkpt lat="38.893550000000005" lon="-77.04348">
    <ele>7.280000000000001</ele>
   </trkpt>
   <trkpt lat="38.89282500012233" lon="-77.04348">
    <ele>6.53</ele>
   </trkpt>
   <trkpt lat="38.892100000000006" lon="-77.04348">
    <ele>5.87</ele>
   </trkpt>
   <trkpt lat="38.892100000000006" lon="-77.04321">
    <ele>5.85</ele>
   </trkpt>
   <trkpt lat="38.892100000000006" lon="-77.04320000000001">
    <ele>5.85</ele>
   </trkpt>
   <trkpt lat="38.892100011005766" lon="-77.04227249998313">
    <ele>5.59</ele>
   </trkpt>
   <trkpt lat="38.89210001467434" lon="-77.04134499996604">
    <ele>5.38</ele>
   </trkpt>
   <trkpt lat="38.892100011005766" lon="-77.04041749994897">
    <ele>4.94</ele>
   </trkpt>
   <trkpt lat="38.892100000000006" lon="-77.03949">
    <ele>4.17</ele>
   </trkpt>
   <trkpt lat="38.892100000000006" lon="-77.03948000000001">
    <ele>4.17</ele>
   </trkpt>
   <trkpt lat="38.89130500002384" lon="-77.03948250008386">
    <ele>3.12</ele>
   </trkpt>
   <trkpt lat="38.89051000004761" lon="-77.03948500011178">
    <ele>2.6300000000000003</ele>
   </trkpt>
   <trkpt lat="38.889715000071334" lon="-77.03948750008371">
    <ele>2.23</ele>
   </trkpt>
   <trkpt lat="38.888920000000006" lon="-77.03949">
    <ele>2.12</ele>
   </trkpt>
   <trkpt lat="38.88853" lon="-77.03963">
    <ele>2.2800000000000002</ele>
   </trkpt>
   <trkpt lat="38.888310000000004" lon="-77.03976">
    <ele>2.2800000000000002</ele>
   </trkpt>
   <trkpt lat="38.88814" lon="-77.03992000000001">
    <ele>2.2800000000000002</ele>
   </trkpt>
   <trkpt lat="38.88801" lon="-77.04012">
    <ele>1.78</ele>
   </trkpt>
   <trkpt lat="38.88792" lon="-77.04031">
    <ele>1.67</ele>
   </trkpt>
   <trkpt lat="38.88781" lon="-77.04073000000001">
    <ele>1.7000000000000002</ele>
   </trkpt>
   <trkpt lat="38.88758" lon="-77.04124">
    <ele>1.8300000000000003</ele>
   </trkpt>
   <trkpt lat="38.88747" lon="-77.04137">
    <ele>1.8</ele>
   </trkpt>
   <trkpt lat="38.88740000000001" lon="-77.04142">
    <ele>1.8</ele>
   </trkpt>
   <trkpt lat="38.88732" lon="-77.04142">
    <ele>1.77</ele>
   </trkpt>
   <trkpt lat="38.88718" lon="-77.04141000000001">
    <ele>1.77</ele>
   </trkpt>
   <trkpt lat="38.88712" lon="-77.04137">
    <ele>1.77</ele>
   </trkpt>
   <trkpt lat="38.886990000000004" lon="-77.04119">
    <ele>2.0500000000000003</ele>
   </trkpt>
   <trkpt lat="38.88694" lon="-77.04101">
    <ele>2.0500000000000003</ele>
   </trkpt>
   <trkpt lat="38.88694" lon="-77.04102">
    <ele>2.06</ele>
   </trkpt>
   <trkpt lat="38.886940013638146" lon="-77.03998750002084">
    <ele>2.4600000000000004</ele>
   </trkpt>
   <trkpt lat="38.8869400181842" lon="-77.03895500004143">
    <ele>2.41</ele>
   </trkpt>
   <trkpt lat="38.88694001363814" lon="-77.03792250006201">
    <ele>2.14</ele>
   </trkpt>
   <trkpt lat="38.88694" lon="-77.03689">
    <ele>3.7800000000000002</ele>
   </trkpt>
   <trkpt lat="38.88696" lon="-77.03634000000001">
    <ele>5.880000000000001</ele>
   </trkpt>
   <trkpt lat="38.88703" lon="-77.0356">
    <ele>7.21</ele>
   </trkpt>
   <trkpt lat="38.88714" lon="-77.03501">
    <ele>7.88</ele>
   </trkpt>
   <trkpt lat="38.88723" lon="-77.03471">
    <ele>7.88</ele>
   </trkpt>
   <trkpt lat="38.887530000000005" lon="-77.03415000000001">
    <ele>8.51</ele>
   </trkpt>
   <trkpt lat="38.88767" lon="-77.03382">
    <ele>8.64</ele>
   </trkpt>
   <trkpt lat="38.8877" lon="-77.03371">
    <ele>8.93</ele>
   </trkpt>
   <trkpt lat="38.8877" lon="-77.03370000000001">
    <ele>8.950000000000001</ele>
   </trkpt>
   <trkpt lat="38.88794" lon="-77.03368">
    <ele>8.66</ele>
   </trkpt>
   <trkpt lat="38.88812" lon="-77.03362000000001">
    <ele>8.59</ele>
   </trkpt>
   <trkpt lat="38.888310000000004" lon="-77.03344000000001">
    <ele>8.21</ele>
   </trkpt>
   <trkpt lat="38.88832" lon="-77.03344000000001">
    <ele>8.200000000000001</ele>
   </trkpt>
   <trkpt lat="38.88862" lon="-77.03315">
    <ele>7.7</ele>
   </trkpt>
   <trkpt lat="38.888760000000005" lon="-77.03306">
    <ele>7.580000000000001</ele>
   </trkpt>
   <trkpt lat="38.888920000000006" lon="-77.03298000000001">
    <ele>7.44</ele>
   </trkpt>
   <trkpt lat="38.88908" lon="-77.03294000000001">
    <ele>6.930000000000001</ele>
   </trkpt>
   <trkpt lat="38.889070000000004" lon="-77.03294000000001">
    <ele>6.930000000000001</ele>
   </trkpt>
   <trkpt lat="38.88951" lon="-77.03287">
    <ele>6.04</ele>
   </trkpt>
   <trkpt lat="38.8898" lon="-77.03291">
    <ele>5.66</ele>
   </trkpt>
   <trkpt lat="38.89012" lon="-77.03303000000001">
    <ele>5.410000000000001</ele>
   </trkpt>
   <trkpt lat="38.890460000000004" lon="-77.03326000000001">
    <ele>4.760000000000001</ele>
   </trkpt>
   <trkpt lat="38.89083" lon="-77.03354">
    <ele>3.8100000000000005</ele>
   </trkpt>
   <trkpt lat="38.89103" lon="-77.03362000000001">
    <ele>3.8100000000000005</ele>
   </trkpt>
   <trkpt lat="38.891310000000004" lon="-77.03365000000001">
    <ele>3.22</ele>
   </trkpt>
   <trkpt lat="38.892045000052754" lon="-77.03364500005138">
    <ele>2.41</ele>
   </trkpt>
   <trkpt lat="38.89278" lon="-77.03364">
    <ele>2.75</ele>
   </trkpt>
   <trkpt lat="38.892770000000006" lon="-77.03364">
    <ele>2.75</ele>
   </trkpt>
   <trkpt lat="38.89366333336197" lon="-77.03363666675043">
    <ele>3.7800000000000002</ele>
   </trkpt>
   <trkpt lat="38.894556666723844" lon="-77.03363333341699">
    <ele>4.62</ele>
   </trkpt>
   <trkpt lat="38.895450000000004" lon="-77.03363">
    <ele>5.91</ele>
   </trkpt>
   <trkpt lat="38.89546" lon="-77.03286">
    <ele>4.91</ele>
   </trkpt>
   <trkpt lat="38.8954500041802" lon="-77.0318699999029">
    <ele>4.91</ele>
   </trkpt>
   <trkpt lat="38.89544" lon="-77.03088000000001">
    <ele>4.95</ele>
   </trkpt>
   <trkpt lat="38.89546" lon="-77.03022">
    <ele>4.99</ele>
   </trkpt>
   <trkpt lat="38.895410000000005" lon="-77.02979">
    <ele>5.010000000000001</ele>
   </trkpt>
   <trkpt lat="38.89537" lon="-77.02965">
    <ele>5.0</ele>
   </trkpt>
   <trkpt lat="38.89509334168428" lon="-77.02865999225601">
    <ele>5.050000000000001</ele>
   </trkpt>
   <trkpt lat="38.89481667500899" lon="-77.02766999222528">
    <ele>5.010000000000001</ele>
   </trkpt>
   <trkpt lat="38.894540000000006" lon="-77.02668000000001">
    <ele>4.580000000000001</ele>
   </trkpt>
   <trkpt lat="38.894256675654525" lon="-77.02565332513353">
    <ele>4.36</ele>
   </trkpt>
   <trkpt lat="38.89397334231882" lon="-77.02462665845844">
    <ele>4.08</ele>
   </trkpt>
   <trkpt lat="38.89369000000001" lon="-77.0236">
    <ele>4.540000000000001</ele>
   </trkpt>
   <trkpt lat="38.8937" lon="-77.0236">
    <ele>4.540000000000001</ele>
   </trkpt>
   <trkpt lat="38.89340000984025" lon="-77.0225266576505">
    <ele>4.12</ele>
   </trkpt>
   <trkpt lat="38.89310000985448" lon="-77.02145332436821">
    <ele>3.91</ele>
   </trkpt>
   <trkpt lat="38.8928" lon="-77.02038">
    <ele>3.920000000000001</ele>
   </trkpt>
   <trkpt lat="38.8928" lon="-77.02037">
    <ele>3.920000000000001</ele>
   </trkpt>
   <trkpt lat="38.892546673582224" lon="-77.0194699936047">
    <ele>3.75</ele>
   </trkpt>
   <trkpt lat="38.89229334025583" lon="-77.01856999362951">
    <ele>4.0600000000000005</ele>
   </trkpt>
   <trkpt lat="38.89204" lon="-77.01767000000001">
    <ele>3.91</ele>
   </trkpt>
   <trkpt lat="38.8919" lon="-77.01715">
    <ele>3.86</ele>
   </trkpt>
   <trkpt lat="38.89171" lon="-77.01645">
    <ele>3.73</ele>
   </trkpt>
   <trkpt lat="38.891780000000004" lon="-77.01632000000001">
    <ele>3.9000000000000004</ele>
   </trkpt>
   <trkpt lat="38.89179" lon="-77.01631">
    <ele>3.8800000000000003</ele>
   </trkpt>
   <trkpt lat="38.89188" lon="-77.01609">
    <ele>3.54</ele>
   </trkpt>
   <trkpt lat="38.89199" lon="-77.01576">
    <ele>3.54</ele>
   </trkpt>
   <trkpt lat="38.89204" lon="-77.01539000000001">
    <ele>4.090000000000001</ele>
   </trkpt>
   <trkpt lat="38.89209" lon="-77.01523">
    <ele>4.37</ele>
   </trkpt>
   <trkpt lat="38.892085003848514" lon="-77.01427999989228">
    <ele>4.59</ele>
   </trkpt>
   <trkpt lat="38.89208" lon="-77.01333000000001">
    <ele>4.83</ele>
   </trkpt>
   <trkpt lat="38.89215" lon="-77.01317">
    <ele>4.95</ele>
   </trkpt>
   <trkpt lat="38.892250000000004" lon="-77.013">
    <ele>4.99</ele>
   </trkpt>
   <trkpt lat="38.89249" lon="-77.01270000000001">
    <ele>5.15</ele>
   </trkpt>
   <trkpt lat="38.89306250808147" lon="-77.01190501923071">
    <ele>6.130000000000001</ele>
   </trkpt>
   <trkpt lat="38.8936350107725" lon="-77.01111002564524">
    <ele>8.350000000000001</ele>
   </trkpt>
   <trkpt lat="38.89420750807288" lon="-77.01031501924327">
    <ele>9.88</ele>
   </trkpt>
   <trkpt lat="38.894780000000004" lon="-77.00952000000001">
    <ele>12.47</ele>
   </trkpt>
   <trkpt lat="38.89479" lon="-77.00952000000001">
    <ele>12.49</ele>
   </trkpt>
   <trkpt lat="38.89513" lon="-77.00904000000001">
    <ele>13.520000000000001</ele>
   </trkpt>
   <trkpt lat="38.89519000000001" lon="-77.00887">
    <ele>13.920000000000002</ele>
   </trkpt>
   <trkpt lat="38.895630001546024" lon="-77.00826500376887">
    <ele>14.93</ele>
   </trkpt>
   <trkpt lat="38.89607" lon="-77.00766">
    <ele>16.19</ele>
   </trkpt>
   <trkpt lat="38.89614" lon="-77.0074">
    <ele>16.450000000000003</ele>
   </trkpt>
   <trkpt lat="38.895970000000005" lon="-77.00712">
    <ele>16.360000000000003</ele>
   </trkpt>
   <trkpt lat="38.89589" lon="-77.00692000000001">
    <ele>16.37</ele>
   </trkpt>
   <trkpt lat="38.895830000000004" lon="-77.00667">
    <ele>16.450000000000003</ele>
   </trkpt>
   <trkpt lat="38.89582" lon="-77.0064">
    <ele>16.450000000000003</ele>
   </trkpt>
   <trkpt lat="38.89587" lon="-77.00589000000001">
    <ele>16.98</ele>
   </trkpt>
   <trkpt lat="38.89589" lon="-77.00561">
    <ele>16.990000000000002</ele>
   </trkpt>
   <trkpt lat="38.895860000000006" lon="-77.00529">
    <ele>16.880000000000003</ele>
   </trkpt>
   <trkpt lat="38.89574" lon="-77.00483000000001">
    <ele>16.98</ele>
   </trkpt>
   <trkpt lat="38.89536001130613" lon="-77.00388998491474">
    <ele>18.54</ele>
   </trkpt>
   <trkpt lat="38.89498001507565" lon="-77.00294997988863">
    <ele>20.37</ele>
   </trkpt>
   <trkpt lat="38.894600011308725" lon="-77.00200998492163">
    <ele>22.53</ele>
   </trkpt>
   <trkpt lat="38.894220000000004" lon="-77.00107000000001">
    <ele>23.770000000000003</ele>
   </trkpt>
   <trkpt lat="38.89412" lon="-77.00091">
    <ele>24.03</ele>
   </trkpt>
   <trkpt lat="38.89403" lon="-77.00071000000001">
    <ele>24.240000000000002</ele>
   </trkpt>
   <trkpt lat="38.893930000000005" lon="-77.00058">
    <ele>24.360000000000003</ele>
   </trkpt>
   <trkpt lat="38.893390000000004" lon="-77.00058">
    <ele>25.200000000000003</ele>
   </trkpt>
   <trkpt lat="38.893280000000004" lon="-77.00054">
    <ele>25.52</ele>
   </trkpt>
   <trkpt lat="38.89318" lon="-77.00045">
    <ele>25.52</ele>
   </trkpt>
   <trkpt lat="38.893130000000006" lon="-77.00036">
    <ele>25.560000000000002</ele>
   </trkpt>
   <trkpt lat="38.89309" lon="-77.00007000000001">
    <ele>25.66</ele>
   </trkpt>
   <trkpt lat="38.89309000145944" lon="-76.99948499970411">
    <ele>25.85</ele>
   </trkpt>
   <trkpt lat="38.89309" lon="-76.9989">
    <ele>25.730000000000004</ele>
   </trkpt>
   <trkpt lat="38.89307" lon="-76.99856000000001">
    <ele>25.69</ele>
   </trkpt>
   <trkpt lat="38.893060000000006" lon="-76.99835">
    <ele>25.61</ele>
   </trkpt>
   <trkpt lat="38.892970000000005" lon="-76.99803">
    <ele>25.380000000000003</ele>
   </trkpt>
   <trkpt lat="38.89260501707331" lon="-76.99713497698683">
    <ele>24.700000000000003</ele>
   </trkpt>
   <trkpt lat="38.892240027314315" lon="-76.9962399631722">
    <ele>24.290000000000003</ele>
   </trkpt>
   <trkpt lat="38.891875030723206" lon="-76.99534495855612">
    <ele>24.44</ele>
   </trkpt>
   <trkpt lat="38.89151002730011" lon="-76.99444996313849">
    <ele>24.490000000000002</ele>
   </trkpt>
   <trkpt lat="38.89114501704519" lon="-76.99355497691933">
    <ele>24.92</ele>
   </trkpt>
   <trkpt lat="38.89078000000001" lon="-76.99266">
    <ele>25.470000000000002</ele>
   </trkpt>
   <trkpt lat="38.89038" lon="-76.99164">
    <ele>26.12</ele>
   </trkpt>
   <trkpt lat="38.89036" lon="-76.99153000000001">
    <ele>26.12</ele>
   </trkpt>
   <trkpt lat="38.889799999979225" lon="-76.99153000000001">
    <ele>26.28</ele>
   </trkpt>
   <trkpt lat="38.88924" lon="-76.99153000000001">
    <ele>26.580000000000002</ele>
   </trkpt>
   <trkpt lat="38.88924000650506" lon="-76.99065666664265">
    <ele>26.990000000000002</ele>
   </trkpt>
   <trkpt lat="38.88924000650506" lon="-76.9897833332852">
    <ele>27.12</ele>
   </trkpt>
   <trkpt lat="38.88924" lon="-76.98891">
    <ele>27.37</ele>
   </trkpt>
   <trkpt lat="38.889050000000005" lon="-76.98842">
    <ele>27.17</ele>
   </trkpt>
   <trkpt lat="38.88897" lon="-76.98819">
    <ele>27.03</ele>
   </trkpt>
   <trkpt lat="38.88863500286151" lon="-76.98736999611857">
    <ele>26.47</ele>
   </trkpt>
   <trkpt lat="38.8883" lon="-76.98655000000001">
    <ele>26.03</ele>
   </trkpt>
   <trkpt lat="38.888160000000006" lon="-76.98626">
    <ele>25.95</ele>
   </trkpt>
   <trkpt lat="38.88780333974466" lon="-76.98539332464347">
    <ele>25.290000000000003</ele>
   </trkpt>
   <trkpt lat="38.887446673083176" lon="-76.98452665798953">
    <ele>24.57</ele>
   </trkpt>
   <trkpt lat="38.88709" lon="-76.98366">
    <ele>23.930000000000003</ele>
   </trkpt>
   <trkpt lat="38.886970000000005" lon="-76.98327">
    <ele>23.790000000000003</ele>
   </trkpt>
   <trkpt lat="38.88663000597379" lon="-76.98243332533374">
    <ele>23.3</ele>
   </trkpt>
   <trkpt lat="38.886290005977344" lon="-76.98159665867594">
    <ele>22.7</ele>
   </trkpt>
   <trkpt lat="38.88595" lon="-76.98076">
    <ele>22.150000000000002</ele>
   </trkpt>
   <trkpt lat="38.88522799999709" lon="-76.98076000000002">
    <ele>21.800000000000004</ele>
   </trkpt>
   <trkpt lat="38.88450599999416" lon="-76.98076000000002">
    <ele>21.300000000000004</ele>
   </trkpt>
   <trkpt lat="38.883783999991245" lon="-76.98076000000002">
    <ele>20.68</ele>
   </trkpt>
   <trkpt lat="38.88306199998833" lon="-76.98076000000002">
    <ele>20.360000000000003</ele>
   </trkpt>
   <trkpt lat="38.882340000000006" lon="-76.98076">
    <ele>19.87</ele>
   </trkpt>
   <trkpt lat="38.882270000000005" lon="-76.98076">
    <ele>19.85</ele>
   </trkpt>
   <trkpt lat="38.8818750120891" lon="-76.98173251624253">
    <ele>20.12</ele>
   </trkpt>
   <trkpt lat="38.88148001611222" lon="-76.98270502167252">
    <ele>19.790000000000003</ele>
   </trkpt>
   <trkpt lat="38.881085012069576" lon="-76.98367751629002">
    <ele>19.76</ele>
   </trkpt>
   <trkpt lat="38.88069" lon="-76.98465">
    <ele>20.009999999999998</ele>
   </trkpt>
   <trkpt lat="38.880570000000006" lon="-76.985">
    <ele>19.950000000000003</ele>
   </trkpt>
   <trkpt lat="38.88056" lon="-76.98581">
    <ele>19.970000000000002</ele>
   </trkpt>
   <trkpt lat="38.88053" lon="-76.98594">
    <ele>20.220000000000002</ele>
   </trkpt>
   <trkpt lat="38.880430000000004" lon="-76.98605">
    <ele>20.290000000000003</ele>
   </trkpt>
   <trkpt lat="38.88035" lon="-76.98610000000001">
    <ele>19.94</ele>
   </trkpt>
   <trkpt lat="38.880210000000005" lon="-76.98614">
    <ele>20.060000000000002</ele>
   </trkpt>
   <trkpt lat="38.88011" lon="-76.98621">
    <ele>19.970000000000002</ele>
   </trkpt>
   <trkpt lat="38.87993" lon="-76.98651000000001">
    <ele>19.87</ele>
   </trkpt>
   <trkpt lat="38.87953" lon="-76.98746000000001">
    <ele>19.610000000000003</ele>
   </trkpt>
   <trkpt lat="38.879070000000006" lon="-76.98715">
    <ele>19.16</ele>
   </trkpt>
   <trkpt lat="38.87901" lon="-76.98703">
    <ele>19.16</ele>
   </trkpt>
   <trkpt lat="38.87901000143444" lon="-76.98644999964247">
    <ele>18.98</ele>
   </trkpt>
   <trkpt lat="38.87901" lon="-76.98587">
    <ele>18.3</ele>
   </trkpt>
   <trkpt lat="38.87901" lon="-76.98588000000001">
    <ele>18.3</ele>
   </trkpt>
   <trkpt lat="38.87901" lon="-76.98551">
    <ele>17.54</ele>
   </trkpt>
   <trkpt lat="38.879830000000005" lon="-76.98551">
    <ele>19.250000000000004</ele>
   </trkpt>
  </trkseg>
 </trk>
</gpx>