<?xml version='1.0' encoding='UTF-8'?>
<gpx xmlns="http://www.topografix.com/GPX/1/1" xmlns:xsi="http://www.w3.org/2001/XMLSchema-instance" creator="RouteMaker reference fixture" version="1.1" xsi:schemaLocation="http://www.topografix.com/GPX/1/1 http://www.topografix.com/GPX/1/1/gpx.xsd">
 <metadata>
  <name>Possible Feb Crit Mass</name>
  <copyright author="OpenStreetMap contributors">
   <year>2020</year>
   <license>https://www.openstreetmap.org/copyright</license>
  </copyright>
  </metadata>
 <trk>
  <name>Possible Feb Crit Mass</name>
  <type>cycling</type>
  <trkseg>
   <trkpt lat="38.9099" lon="-77.04417000000001">
    <ele>27.790000000000003</ele>
   </trkpt>
   <trkpt lat="38.90975" lon="-77.04423000000001">
    <ele>27.700000000000003</ele>
   </trkpt>
   <trkpt lat="38.909690000000005" lon="-77.04435000000001">
    <ele>27.470000000000002</ele>
   </trkpt>
   <trkpt lat="38.90964" lon="-77.04463000000001">
    <ele>27.22</ele>
   </trkpt>
   <trkpt lat="38.909650000000006" lon="-77.04487">
    <ele>26.950000000000003</ele>
   </trkpt>
   <trkpt lat="38.91001" lon="-77.04487">
    <ele>27.17</ele>
   </trkpt>
   <trkpt lat="38.910140000000006" lon="-77.04488">
    <ele>27.37</ele>
   </trkpt>
   <trkpt lat="38.91049001734044" lon="-77.04588798013557">
    <ele>25.980000000000004</ele>
   </trkpt>
   <trkpt lat="38.91084002601389" lon="-77.04689597021208">
    <ele>24.87</ele>
   </trkpt>
   <trkpt lat="38.91119002602011" lon="-77.04790397022948">
    <ele>23.520000000000003</ele>
   </trkpt>
   <trkpt lat="38.911540017358945" lon="-77.04891198018778">
    <ele>23.080000000000002</ele>
   </trkpt>
   <trkpt lat="38.91189" lon="-77.04992">
    <ele>25.23</ele>
   </trkpt>
   <trkpt lat="38.91207" lon="-77.05021">
    <ele>25.550000000000004</ele>
   </trkpt>
   <trkpt lat="38.912330000000004" lon="-77.05036000000001">
    <ele>25.86</ele>
   </trkpt>
   <trkpt lat="38.91241" lon="-77.05046">
    <ele>26.46</ele>
   </trkpt>
   <trkpt lat="38.912440000000004" lon="-77.05057000000001">
    <ele>26.46</ele>
   </trkpt>
   <trkpt lat="38.912510000000005" lon="-77.05099000000001">
    <ele>26.590000000000003</ele>
   </trkpt>
   <trkpt lat="38.91263" lon="-77.05132">
    <ele>27.19</ele>
   </trkpt>
   <trkpt lat="38.91323146604683" lon="-77.05214205228124">
    <ele>29.1</ele>
   </trkpt>
   <trkpt lat="38.91383292632896" lon="-77.05296411849541">
    <ele>30.400000000000002</ele>
   </trkpt>
   <trkpt lat="38.914434380846174" lon="-77.05378619864297">
    <ele>29.93</ele>
   </trkpt>
   <trkpt lat="38.91503582959824" lon="-77.05460829272428">
    <ele>30.740000000000002</ele>
   </trkpt>
   <trkpt lat="38.915637272584966" lon="-77.05543040073978">
    <ele>31.44</ele>
   </trkpt>
   <trkpt lat="38.91623870980609" lon="-77.05625252268985">
    <ele>31.94</ele>
   </trkpt>
   <trkpt lat="38.91684014126144" lon="-77.05707465857489">
    <ele>32.53</ele>
   </trkpt>
   <trkpt lat="38.917441566950735" lon="-77.0578968083953">
    <ele>33.690000000000005</ele>
   </trkpt>
   <trkpt lat="38.91804298687381" lon="-77.05871897215148">
    <ele>35.79</ele>
   </trkpt>
   <trkpt lat="38.918644401030384" lon="-77.05954114984385">
    <ele>40.17</ele>
   </trkpt>
   <trkpt lat="38.9192458094203" lon="-77.0603633414728">
    <ele>45.57000000000001</ele>
   </trkpt>
   <trkpt lat="38.919847212043294" lon="-77.06118554703873">
    <ele>49.95</ele>
   </trkpt>
   <trkpt lat="38.92044860889916" lon="-77.06200776654205">
    <ele>54.02</ele>
   </trkpt>
   <trkpt lat="38.92105" lon="-77.06283">
    <ele>58.480000000000004</ele>
   </trkpt>
   <trkpt lat="38.92127" lon="-77.06306000000001">
    <ele>59.67000000000001</ele>
   </trkpt>
   <trkpt lat="38.921510000000005" lon="-77.06320000000001">
    <ele>60.07000000000001</ele>
   </trkpt>
   <trkpt lat="38.92165" lon="-77.06326">
    <ele>60.72</ele>
   </trkpt>
   <trkpt lat="38.92202" lon="-77.06335">
    <ele>62.690000000000005</ele>
   </trkpt>
   <trkpt lat="38.92235" lon="-77.06349">
    <ele>62.690000000000005</ele>
   </trkpt>
   <trkpt lat="38.922720000000005" lon="-77.06367">
    <ele>64.51</ele>
   </trkpt>
   <trkpt lat="38.923190000000005" lon="-77.06403">
    <ele>66.41000000000001</ele>
   </trkpt>
   <trkpt lat="38.92367" lon="-77.06461">
    <ele>69.42</ele>
   </trkpt>
   <trkpt lat="38.923860000000005" lon="-77.06493">
    <ele>70.64</ele>
   </trkpt>
   <trkpt lat="38.92407" lon="-77.06540000000001">
    <ele>71.60000000000001</ele>
   </trkpt>
   <trkpt lat="38.92416" lon="-77.06563000000001">
    <ele>72.78000000000002</ele>
   </trkpt>
   <trkpt lat="38.924260000000004" lon="-77.06607000000001">
    <ele>74.18</ele>
   </trkpt>
   <trkpt lat="38.92443" lon="-77.06717">
    <ele>78.86</ele>
   </trkpt>
   <trkpt lat="38.924350000000004" lon="-77.06727000000001">
    <ele>78.86</ele>
   </trkpt>
   <trkpt lat="38.9243" lon="-77.06738">
    <ele>79.32</ele>
   </trkpt>
   <trkpt lat="38.92421" lon="-77.06796">
    <ele>80.23</ele>
   </trkpt>
   <trkpt lat="38.92412" lon="-77.06832">
    <ele>80.98</ele>
   </trkpt>
   <trkpt lat="38.92394" lon="-77.06882">
    <ele>81.52000000000001</ele>
   </trkpt>
   <trkpt lat="38.923930000000006" lon="-77.06884000000001">
    <ele>81.56</ele>
   </trkpt>
   <trkpt lat="38.92385" lon="-77.06901">
    <ele>81.83</ele>
   </trkpt>
   <trkpt lat="38.92363" lon="-77.0694">
    <ele>82.28</ele>
   </trkpt>
   <trkpt lat="38.923280000000005" lon="-77.06989">
    <ele>82.33</ele>
   </trkpt>
   <trkpt lat="38.923080000000006" lon="-77.07007">
    <ele>82.0</ele>
   </trkpt>
   <trkpt lat="38.92258" lon="-77.07043">
    <ele>80.73</ele>
   </trkpt>
   <trkpt lat="38.92255" lon="-77.07047">
    <ele>80.82000000000001</ele>
   </trkpt>
   <trkpt lat="38.92254751431059" lon="-77.07152750004713">
    <ele>84.74000000000001</ele>
   </trkpt>
   <trkpt lat="38.92254501908088" lon="-77.07258500002">
    <ele>89.28000000000002</ele>
   </trkpt>
   <trkpt lat="38.92254251431089" lon="-77.07364249991836">
    <ele>91.94000000000001</ele>
   </trkpt>
   <trkpt lat="38.922540000000005" lon="-77.0747">
    <ele>93.80000000000001</ele>
   </trkpt>
   <trkpt lat="38.921792502341376" lon="-77.07427498658477">
    <ele>88.53000000000002</ele>
   </trkpt>
   <trkpt lat="38.921045003141785" lon="-77.07384998212466">
    <ele>82.87</ele>
   </trkpt>
   <trkpt lat="38.92029750240129" lon="-77.07342498661927">
    <ele>79.32</ele>
   </trkpt>
   <trkpt lat="38.91955" lon="-77.07300000000001">
    <ele>73.55</ele>
   </trkpt>
   <trkpt lat="38.91933" lon="-77.07297000000001">
    <ele>72.74</ele>
   </trkpt>
   <trkpt lat="38.91913" lon="-77.07298">
    <ele>71.95</ele>
   </trkpt>
   <trkpt lat="38.91859999989314" lon="-77.07295999984653">
    <ele>69.99000000000001</ele>
   </trkpt>
   <trkpt lat="38.91807" lon="-77.07294">
    <ele>66.58</ele>
   </trkpt>
   <trkpt lat="38.91723833335264" lon="-77.07290499794885">
    <ele>61.74</ele>
   </trkpt>
   <trkpt lat="38.91640666669483" lon="-77.0728699967181">
    <ele>59.830000000000005</ele>
   </trkpt>
   <trkpt lat="38.91557500002658" lon="-77.07283499630769">
    <ele>57.06</ele>
   </trkpt>
   <trkpt lat="38.91474333334787" lon="-77.07279999671763">
    <ele>55.00000000000001</ele>
   </trkpt>
   <trkpt lat="38.91391166665872" lon="-77.07276499794784">
    <ele>52.7</ele>
   </trkpt>
   <trkpt lat="38.91308" lon="-77.07273">
    <ele>51.910000000000004</ele>
   </trkpt>
   <trkpt lat="38.91259" lon="-77.07269000000001">
    <ele>51.47</ele>
   </trkpt>
   <trkpt lat="38.912605002797825" lon="-77.07188000020149">
    <ele>53.49</ele>
   </trkpt>
   <trkpt lat="38.912620000000004" lon="-77.07107">
    <ele>55.730000000000004</ele>
   </trkpt>
   <trkpt lat="38.91265000952699" lon="-77.07001333414064">
    <ele>54.910000000000004</ele>
   </trkpt>
   <trkpt lat="38.91268000952943" lon="-77.06895666738787">
    <ele>54.56</ele>
   </trkpt>
   <trkpt lat="38.912710000000004" lon="-77.06790000000001">
    <ele>54.86000000000001</ele>
   </trkpt>
   <trkpt lat="38.91264" lon="-77.06790000000001">
    <ele>54.59</ele>
   </trkpt>
   <trkpt lat="38.911792857155575" lon="-77.0678871419366">
    <ele>51.800000000000004</ele>
   </trkpt>
   <trkpt lat="38.91094571430972" lon="-77.06787428418008">
    <ele>49.71</ele>
   </trkpt>
   <trkpt lat="38.91009857146247" lon="-77.06786142673049">
    <ele>44.6</ele>
   </trkpt>
   <trkpt lat="38.909251428613814" lon="-77.0678485695878">
    <ele>41.010000000000005</ele>
   </trkpt>
   <trkpt lat="38.90840428576373" lon="-77.06783571275199">
    <ele>37.540000000000006</ele>
   </trkpt>
   <trkpt lat="38.90755714291224" lon="-77.06782285622302">
    <ele>34.36</ele>
   </trkpt>
   <trkpt lat="38.906710000000004" lon="-77.06781000000001">
    <ele>31.060000000000002</ele>
   </trkpt>
   <trkpt lat="38.90598000000001" lon="-77.06781000000001">
    <ele>32.080000000000005</ele>
   </trkpt>
   <trkpt lat="38.905860000000004" lon="-77.06786000000001">
    <ele>31.970000000000006</ele>
   </trkpt>
   <trkpt lat="38.90507" lon="-77.06784">
    <ele>23.48</ele>
   </trkpt>
   <trkpt lat="38.90509201823919" lon="-77.06680600129911">
    <ele>22.520000000000003</ele>
   </trkpt>
   <trkpt lat="38.905114027358614" lon="-77.06577200195703">
    <ele>20.720000000000002</ele>
   </trkpt>
   <trkpt lat="38.90513602735827" lon="-77.06473800197394">
    <ele>20.450000000000003</ele>
   </trkpt>
   <trkpt lat="38.90515801823812" lon="-77.06370400135015">
    <ele>21.310000000000002</ele>
   </trkpt>
   <trkpt lat="38.90518" lon="-77.06267000000001">
    <ele>21.53</ele>
   </trkpt>
   <trkpt lat="38.905195016482416" lon="-77.0615350007372">
    <ele>18.750000000000004</ele>
   </trkpt>
   <trkpt lat="38.90521002197641" lon="-77.0604000009944">
    <ele>16.28</ele>
   </trkpt>
   <trkpt lat="38.90522501648195" lon="-77.05926500077202">
    <ele>15.05</ele>
   </trkpt>
   <trkpt lat="38.905240000000006" lon="-77.05813">
    <ele>13.9</ele>
   </trkpt>
   <trkpt lat="38.90518" lon="-77.05802000000001">
    <ele>13.680000000000001</ele>
   </trkpt>
   <trkpt lat="38.90493" lon="-77.05716000000001">
    <ele>13.760000000000002</ele>
   </trkpt>
   <trkpt lat="38.90493" lon="-77.05703000000001">
    <ele>13.760000000000002</ele>
   </trkpt>
   <trkpt lat="38.90489" lon="-77.05692">
    <ele>13.64</ele>
   </trkpt>
   <trkpt lat="38.904562015339955" lon="-77.0559719825051">
    <ele>14.13</ele>
   </trkpt>
   <trkpt lat="38.904234023013885" lon="-77.0550239737695">
    <ele>14.68</ele>
   </trkpt>
   <trkpt lat="38.90390602302195" lon="-77.05407597379323">
    <ele>16.67</ele>
   </trkpt>
   <trkpt lat="38.90357801536429" lon="-77.05312798257631">
    <ele>19.340000000000003</ele>
   </trkpt>
   <trkpt lat="38.90325" lon="-77.05218">
    <ele>19.84</ele>
   </trkpt>
   <trkpt lat="38.90298000000001" lon="-77.05142000000001">
    <ele>20.78</ele>
   </trkpt>
   <trkpt lat="38.90288" lon="-77.05131">
    <ele>20.64</ele>
   </trkpt>
   <trkpt lat="38.90279" lon="-77.05109">
    <ele>20.810000000000002</ele>
   </trkpt>
   <trkpt lat="38.902710000000006" lon="-77.05098000000001">
    <ele>20.810000000000002</ele>
   </trkpt>
   <trkpt lat="38.902570000000004" lon="-77.05087">
    <ele>20.78</ele>
   </trkpt>
   <trkpt lat="38.902330000000006" lon="-77.05077">
    <ele>20.55</ele>
   </trkpt>
   <trkpt lat="38.902190000000004" lon="-77.05066000000001">
    <ele>20.34</ele>
   </trkpt>
   <trkpt lat="38.90209" lon="-77.05053000000001">
    <ele>20.25</ele>
   </trkpt>
   <trkpt lat="38.902010000000004" lon="-77.05034">
    <ele>20.28</ele>
   </trkpt>
   <trkpt lat="38.90195000000001" lon="-77.0502">
    <ele>19.98</ele>
   </trkpt>
   <trkpt lat="38.901880000000006" lon="-77.05011">
    <ele>19.98</ele>
   </trkpt>
   <trkpt lat="38.901430000000005" lon="-77.05012">
    <ele>19.020000000000003</ele>
   </trkpt>
   <trkpt lat="38.90061600000616" lon="-77.0501260002751">
    <ele>17.380000000000003</ele>
   </trkpt>
   <trkpt lat="38.89980200001198" lon="-77.05013200041262">
    <ele>17.94</ele>
   </trkpt>
   <trkpt lat="38.89898800001752" lon="-77.05013800041256">
    <ele>18.930000000000003</ele>
   </trkpt>
   <trkpt lat="38.89817400002274" lon="-77.05014400027495">
    <ele>19.5</ele>
   </trkpt>
   <trkpt lat="38.897360000000006" lon="-77.05015">
    <ele>19.75</ele>
   </trkpt>
   <trkpt lat="38.897360001774224" lon="-77.04950499998202">
    <ele>20.270000000000003</ele>
   </trkpt>
   <trkpt lat="38.897360000000006" lon="-77.04886">
    <ele>20.93</ele>
   </trkpt>
   <trkpt lat="38.89735667436437" lon="-77.04790999988947">
    <ele>20.830000000000002</ele>
   </trkpt>
   <trkpt lat="38.897353341030964" lon="-77.04695999986802">
    <ele>20.34</ele>
   </trkpt>
   <trkpt lat="38.89735" lon="-77.04601000000001">
    <ele>20.110000000000003</ele>
   </trkpt>
   <trkpt lat="38.89735" lon="-77.04603">
    <ele>20.110000000000003</ele>
   </trkpt>
   <trkpt lat="38.89735202248183" lon="-77.0448820001336">
    <ele>19.6</ele>
   </trkpt>
   <trkpt lat="38.89735403372275" lon="-77.04373400020198">
    <ele>19.35</ele>
   </trkpt>
   <trkpt lat="38.897356033722744" lon="-77.0425860002055">
    <ele>18.62</ele>
   </trkpt>
   <trkpt lat="38.89735802248182" lon="-77.04143800014455">
    <ele>17.890000000000004</ele>
   </trkpt>
   <trkpt lat="38.897360000000006" lon="-77.04029000000001">
    <ele>15.99</ele>
   </trkpt>
   <trkpt lat="38.897360000000006" lon="-77.04028000000001">
    <ele>15.99</ele>
   </trkpt>
   <trkpt lat="38.897360000000006" lon="-77.03947000000001">
    <ele>15.01</ele>
   </trkpt>
   <trkpt lat="38.89648333334506" lon="-77.03947166676951">
    <ele>12.08</ele>
   </trkpt>
   <trkpt lat="38.895606666690085" lon="-77.03947333349788">
    <ele>9.55</ele>
   </trkpt>
   <trkpt lat="38.89473000003509" lon="-77.0394750001851">
    <ele>7.670000000000001</ele>
   </trkpt>
   <trkpt lat="38.893853333380065" lon="-77.03947666683118">
    <ele>5.66</ele>
   </trkpt>
   <trkpt lat="38.892976666725026" lon="-77.0394783334361">
    <ele>4.79</ele>
   </trkpt>
   <trkpt lat="38.892100000000006" lon="-77.03948000000001">
    <ele>4.180000000000001</ele>
   </trkpt>
   <trkpt lat="38.892100017886726" lon="-77.03845599997643">
    <ele>3.25</ele>
   </trkpt>
   <trkpt lat="38.89210002683009" lon="-77.03743199995246">
    <ele>2.97</ele>
   </trkpt>
   <trkpt lat="38.89210002683009" lon="-77.03640799992837">
    <ele>2.52</ele>
   </trkpt>
   <trkpt lat="38.892100017886726" lon="-77.03538399990441">
    <ele>2.5900000000000003</ele>
   </trkpt>
   <trkpt lat="38.892100000000006" lon="-77.03436">
    <ele>2.4200000000000004</ele>
   </trkpt>
   <trkpt lat="38.892100000000006" lon="-77.03435">
    <ele>2.4200000000000004</ele>
   </trkpt>
   <trkpt lat="38.892097815073164" lon="-77.03330444418394">
    <ele>2.25</ele>
   </trkpt>
   <trkpt lat="38.89209562082249" lon="-77.03225888843234">
    <ele>2.6300000000000003</ele>
   </trkpt>
   <trkpt lat="38.89209341724794" lon="-77.03121333274548">
    <ele>2.74</ele>
   </trkpt>
   <trkpt lat="38.892091204349555" lon="-77.03016777712362">
    <ele>2.82</ele>
   </trkpt>
   <trkpt lat="38.89208898212735" lon="-77.02912222156706">
    <ele>2.65</ele>
   </trkpt>
   <trkpt lat="38.89208675058127" lon="-77.02807666607605">
    <ele>2.54</ele>
   </trkpt>
   <trkpt lat="38.89208450971135" lon="-77.0270311106509">
    <ele>2.7800000000000002</ele>
   </trkpt>
   <trkpt lat="38.89208225951759" lon="-77.02598555529183">
    <ele>2.87</ele>
   </trkpt>
   <trkpt lat="38.89208" lon="-77.02494">
    <ele>2.9800000000000004</ele>
   </trkpt>
   <trkpt lat="38.89208" lon="-77.02493000000001">
    <ele>2.9899999999999998</ele>
   </trkpt>
   <trkpt lat="38.89207802004422" lon="-77.02384599987236">
    <ele>2.8100000000000005</ele>
   </trkpt>
   <trkpt lat="38.89207603006633" lon="-77.02276199980528">
    <ele>2.82</ele>
   </trkpt>
   <trkpt lat="38.892074030066304" lon="-77.02167799979911">
    <ele>2.84</ele>
   </trkpt>
   <trkpt lat="38.89207202004418" lon="-77.02059399985414">
    <ele>3.68</ele>
   </trkpt>
   <trkpt lat="38.892070000000004" lon="-77.01951000000001">
    <ele>3.7900000000000005</ele>
   </trkpt>
   <trkpt lat="38.89209" lon="-77.01916">
    <ele>3.93</ele>
   </trkpt>
   <trkpt lat="38.89215" lon="-77.01892000000001">
    <ele>3.97</ele>
   </trkpt>
   <trkpt lat="38.89218" lon="-77.01871000000001">
    <ele>3.9000000000000004</ele>
   </trkpt>
   <trkpt lat="38.89228000000001" lon="-77.01855">
    <ele>4.0600000000000005</ele>
   </trkpt>
   <trkpt lat="38.892" lon="-77.01752">
    <ele>3.91</ele>
   </trkpt>
   <trkpt lat="38.892070000000004" lon="-77.01749000000001">
    <ele>4.090000000000001</ele>
   </trkpt>
   <trkpt lat="38.89192500144834" lon="-77.01691499897835">
    <ele>3.98</ele>
   </trkpt>
   <trkpt lat="38.891780000000004" lon="-77.01634">
    <ele>3.94</ele>
   </trkpt>
   <trkpt lat="38.89188" lon="-77.01609">
    <ele>3.54</ele>
   </trkpt>
   <trkpt lat="38.89199" lon="-77.01576">
    <ele>4.090000000000001</ele>
   </trkpt>
   <trkpt lat="38.89204" lon="-77.01539000000001">
    <ele>4.090000000000001</ele>
   </trkpt>
   <trkpt lat="38.89209" lon="-77.01523">
    <ele>4.37</ele>
   </trkpt>
   <trkpt lat="38.89285499987443" lon="-77.01522500005467">
    <ele>6.91</ele>
   </trkpt>
   <trkpt lat="38.893620000000006" lon="-77.01522">
    <ele>8.950000000000001</ele>
   </trkpt>
   <trkpt lat="38.89413000007748" lon="-77.01520500010545">
    <ele>9.56</ele>
   </trkpt>
   <trkpt lat="38.89464" lon="-77.01519">
    <ele>9.61</ele>
   </trkpt>
   <trkpt lat="38.89532500008058" lon="-77.0151800000953">
    <ele>9.92</ele>
   </trkpt>
   <trkpt lat="38.896010000000004" lon="-77.01517000000001">
    <ele>10.74</ele>
   </trkpt>
   <trkpt lat="38.896619999937506" lon="-77.01517333327574">
    <ele>11.250000000000002</ele>
   </trkpt>
   <trkpt lat="38.897229999874924" lon="-77.01517666660872">
    <ele>12.200000000000001</ele>
   </trkpt>
   <trkpt lat="38.89784" lon="-77.01518">
    <ele>12.730000000000002</ele>
   </trkpt>
   <trkpt lat="38.897830000000006" lon="-77.01518">
    <ele>12.730000000000002</ele>
   </trkpt>
   <trkpt lat="38.898439999877425" lon="-77.01518">
    <ele>13.030000000000001</ele>
   </trkpt>
   <trkpt lat="38.89904999975486" lon="-77.01518">
    <ele>13.65</ele>
   </trkpt>
   <trkpt lat="38.899660000000004" lon="-77.01518">
    <ele>13.99</ele>
   </trkpt>
   <trkpt lat="38.899980000000006" lon="-77.01516000000001">
    <ele>13.98</ele>
   </trkpt>
   <trkpt lat="38.900240000000004" lon="-77.01519">
    <ele>14.180000000000001</ele>
   </trkpt>
   <trkpt lat="38.900240000000004" lon="-77.01514">
    <ele>14.110000000000001</ele>
   </trkpt>
   <trkpt lat="38.90078000000538" lon="-77.01513500003797">
    <ele>15.580000000000002</ele>
   </trkpt>
   <trkpt lat="38.901320000000005" lon="-77.01513">
    <ele>16.450000000000003</ele>
   </trkpt>
   <trkpt lat="38.90133" lon="-77.01513">
    <ele>16.450000000000003</ele>
   </trkpt>
   <trkpt lat="38.90185499998694" lon="-77.01513">
    <ele>16.110000000000003</ele>
   </trkpt>
   <trkpt lat="38.90238" lon="-77.01513">
    <ele>15.13</ele>
   </trkpt>
   <trkpt lat="38.902460000000005" lon="-77.01516000000001">
    <ele>15.260000000000002</ele>
   </trkpt>
   <trkpt lat="38.90246003896865" lon="-77.014017499998">
    <ele>14.440000000000001</ele>
   </trkpt>
   <trkpt lat="38.902460066803386" lon="-77.01287499999492">
    <ele>13.14</ele>
   </trkpt>
   <trkpt lat="38.90246008350424" lon="-77.01173249999114">
    <ele>12.39</ele>
   </trkpt>
   <trkpt lat="38.90246008907119" lon="-77.01058999998698">
    <ele>11.82</ele>
   </trkpt>
   <trkpt lat="38.90246008350425" lon="-77.00944749998281">
    <ele>10.94</ele>
   </trkpt>
   <trkpt lat="38.9024600668034" lon="-77.00830499997902">
    <ele>10.22</ele>
   </trkpt>
   <trkpt lat="38.90246003896865" lon="-77.00716249997592">
    <ele>10.05</ele>
   </trkpt>
   <trkpt lat="38.902460000000005" lon="-77.00602">
    <ele>11.57</ele>
   </trkpt>
   <trkpt lat="38.90251000000001" lon="-77.00602">
    <ele>11.53</ele>
   </trkpt>
   <trkpt lat="38.902510012666966" lon="-77.00502500002366">
    <ele>11.240000000000002</ele>
   </trkpt>
   <trkpt lat="38.90251001688929" lon="-77.0040300000471">
    <ele>11.46</ele>
   </trkpt>
   <trkpt lat="38.902510012666966" lon="-77.00303500007051">
    <ele>12.42</ele>
   </trkpt>
   <trkpt lat="38.90251000000001" lon="-77.00204000000001">
    <ele>14.97</ele>
   </trkpt>
   <trkpt lat="38.902370000000005" lon="-77.00204000000001">
    <ele>14.860000000000001</ele>
   </trkpt>
   <trkpt lat="38.902390000000004" lon="-77.00204000000001">
    <ele>14.870000000000001</ele>
   </trkpt>
   <trkpt lat="38.90251000000001" lon="-77.00204000000001">
    <ele>14.97</ele>
   </trkpt>
   <trkpt lat="38.902510002272756" lon="-77.00131000008068">
    <ele>14.46</ele>
   </trkpt>
   <trkpt lat="38.90251000000001" lon="-77.00058">
    <ele>14.0</ele>
   </trkpt>
   <trkpt lat="38.90176000004101" lon="-77.00057666659643">
    <ele>12.83</ele>
   </trkpt>
   <trkpt lat="38.90101000008191" lon="-77.00057333326329">
    <ele>12.51</ele>
   </trkpt>
   <trkpt lat="38.90026" lon="-77.00057000000001">
    <ele>13.420000000000002</ele>
   </trkpt>
   <trkpt lat="38.8995566666279" lon="-77.00057333339954">
    <ele>13.15</ele>
   </trkpt>
   <trkpt lat="38.8988533332557" lon="-77.00057666673307">
    <ele>12.05</ele>
   </trkpt>
   <trkpt lat="38.89815" lon="-77.00058">
    <ele>12.730000000000002</ele>
   </trkpt>
   <trkpt lat="38.89747500003731" lon="-77.00057749992884">
    <ele>13.63</ele>
   </trkpt>
   <trkpt lat="38.89680000007456" lon="-77.00057499990523">
    <ele>15.81</ele>
   </trkpt>
   <trkpt lat="38.89612500011176" lon="-77.00057249992913">
    <ele>19.770000000000003</ele>
   </trkpt>
   <trkpt lat="38.895450000000004" lon="-77.00057000000001">
    <ele>21.240000000000002</ele>
   </trkpt>
   <trkpt lat="38.89476333329922" lon="-77.00057333339797">
    <ele>22.340000000000003</ele>
   </trkpt>
   <trkpt lat="38.894076666598345" lon="-77.00057666673145">
    <ele>24.1</ele>
   </trkpt>
   <trkpt lat="38.893390000000004" lon="-77.00058">
    <ele>25.200000000000003</ele>
   </trkpt>
   <trkpt lat="38.893280000000004" lon="-77.00054">
    <ele>25.52</ele>
   </trkpt>
   <trkpt lat="38.89318" lon="-77.00045">
    <ele>25.52</ele>
   </trkpt>
   <trkpt lat="38.893130000000006" lon="-77.00036">
    <ele>25.560000000000002</ele>
   </trkpt>
   <trkpt lat="38.89309" lon="-77.00007000000001">
    <ele>25.66</ele>
   </trkpt>
   <trkpt lat="38.89309000145944" lon="-76.99948499970411">
    <ele>25.85</ele>
   </trkpt>
   <trkpt lat="38.89309" lon="-76.9989">
    <ele>25.730000000000004</ele>
   </trkpt>
   <trkpt lat="38.89307" lon="-76.99846000000001">
    <ele>25.710000000000004</ele>
   </trkpt>
   <trkpt lat="38.893060000000006" lon="-76.99835">
    <ele>25.61</ele>
   </trkpt>
   <trkpt lat="38.892970000000005" lon="-76.99803">
    <ele>25.380000000000003</ele>
   </trkpt>
   <trkpt lat="38.89260501707331" lon="-76.99713497698683">
    <ele>24.700000000000003</ele>
   </trkpt>
   <trkpt lat="38.892240027314315" lon="-76.9962399631722">
    <ele>24.290000000000003</ele>
   </trkpt>
   <trkpt lat="38.891875030723206" lon="-76.99534495855612">
    <ele>24.44</ele>
   </trkpt>
   <trkpt lat="38.89151002730011" lon="-76.99444996313849">
    <ele>24.490000000000002</ele>
   </trkpt>
   <trkpt lat="38.89114501704519" lon="-76.99355497691933">
    <ele>24.92</ele>
   </trkpt>
   <trkpt lat="38.89078000000001" lon="-76.99266">
    <ele>25.470000000000002</ele>
   </trkpt>
   <trkpt lat="38.89038" lon="-76.99164">
    <ele>26.12</ele>
   </trkpt>
   <trkpt lat="38.89036" lon="-76.99153000000001">
    <ele>26.12</ele>
   </trkpt>
   <trkpt lat="38.88964" lon="-76.99152000000001">
    <ele>26.42</ele>
   </trkpt>
   <trkpt lat="38.88904" lon="-76.99154">
    <ele>26.490000000000002</ele>
   </trkpt>
   <trkpt lat="38.88924" lon="-76.99153000000001">
    <ele>26.580000000000002</ele>
   </trkpt>
   <trkpt lat="38.88922" lon="-76.99166000000001">
    <ele>26.560000000000002</ele>
   </trkpt>
   <trkpt lat="38.88901000127465" lon="-76.99220000151634">
    <ele>26.650000000000002</ele>
   </trkpt>
   <trkpt lat="38.8888" lon="-76.99274000000001">
    <ele>26.85</ele>
   </trkpt>
   <trkpt lat="38.888401278668454" lon="-76.9937200385076">
    <ele>26.62</ele>
   </trkpt>
   <trkpt lat="38.88800254914528" lon="-76.99470006601348">
    <ele>26.8</ele>
   </trkpt>
   <trkpt lat="38.88760381143068" lon="-76.99568008251765">
    <ele>26.64</ele>
   </trkpt>
   <trkpt lat="38.88720506552487" lon="-76.99666008802023">
    <ele>26.27</ele>
   </trkpt>
   <trkpt lat="38.88680631142807" lon="-76.99764008252124">
    <ele>25.810000000000002</ele>
   </trkpt>
   <trkpt lat="38.88640754914047" lon="-76.99862006602073">
    <ele>25.310000000000002</ele>
   </trkpt>
   <trkpt lat="38.88600877866229" lon="-76.99960003851875">
    <ele>23.700000000000003</ele>
   </trkpt>
   <trkpt lat="38.88561" lon="-77.00058">
    <ele>22.820000000000004</ele>
   </trkpt>
   <trkpt lat="38.88480111110838" lon="-77.00058">
    <ele>22.64</ele>
   </trkpt>
   <trkpt lat="38.883992222216754" lon="-77.00058">
    <ele>22.150000000000002</ele>
   </trkpt>
   <trkpt lat="38.88318333332514" lon="-77.00058">
    <ele>21.48</ele>
   </trkpt>
   <trkpt lat="38.88237444443353" lon="-77.00058">
    <ele>20.32</ele>
   </trkpt>
   <trkpt lat="38.8815655555419" lon="-77.00058">
    <ele>18.590000000000003</ele>
   </trkpt>
   <trkpt lat="38.880756666650285" lon="-77.00058">
    <ele>15.580000000000002</ele>
   </trkpt>
   <trkpt lat="38.879947777758666" lon="-77.00058">
    <ele>12.440000000000001</ele>
   </trkpt>
   <trkpt lat="38.879138888867054" lon="-77.00058">
    <ele>9.99</ele>
   </trkpt>
   <trkpt lat="38.878330000000005" lon="-77.00058">
    <ele>9.170000000000002</ele>
   </trkpt>
   <trkpt lat="38.877470000003036" lon="-77.00057249972774">
    <ele>7.490000000000001</ele>
   </trkpt>
   <trkpt lat="38.87661000000559" lon="-77.00056499963699">
    <ele>5.53</ele>
   </trkpt>
   <trkpt lat="38.87575000000766" lon="-77.00055749972779">
    <ele>4.73</ele>
   </trkpt>
   <trkpt lat="38.87489" lon="-77.00055">
    <ele>4.04</ele>
   </trkpt>
   <trkpt lat="38.87489667630886" lon="-77.00161333310565">
    <ele>3.95</ele>
   </trkpt>
   <trkpt lat="38.87490334297533" lon="-77.00267666641092">
    <ele>4.2700000000000005</ele>
   </trkpt>
   <trkpt lat="38.87491" lon="-77.00374000000001">
    <ele>4.6000000000000005</ele>
   </trkpt>
   <trkpt lat="38.87464000000001" lon="-77.00374000000001">
    <ele>4.2</ele>
   </trkpt>
   <trkpt lat="38.87464000534872" lon="-77.00485999992208">
    <ele>5.17</ele>
   </trkpt>
   <trkpt lat="38.87464000000001" lon="-77.00598000000001">
    <ele>5.91</ele>
   </trkpt>
   <trkpt lat="38.874500000000005" lon="-77.00599000000001">
    <ele>5.91</ele>
   </trkpt>
   <trkpt lat="38.87445" lon="-77.00601">
    <ele>5.91</ele>
   </trkpt>
   <trkpt lat="38.87380999997625" lon="-77.00601">
    <ele>5.280000000000001</ele>
   </trkpt>
   <trkpt lat="38.87317" lon="-77.00601">
    <ele>4.59</ele>
   </trkpt>
   <trkpt lat="38.873070000000006" lon="-77.00599000000001">
    <ele>4.59</ele>
   </trkpt>
   <trkpt lat="38.87285" lon="-77.00598000000001">
    <ele>4.33</ele>
   </trkpt>
   <trkpt lat="38.87277" lon="-77.00601">
    <ele>4.33</ele>
   </trkpt>
   <trkpt lat="38.87221" lon="-77.00604000000001">
    <ele>3.93</ele>
   </trkpt>
   <trkpt lat="38.8721" lon="-77.00599000000001">
    <ele>3.7700000000000005</ele>
   </trkpt>
   <trkpt lat="38.87203" lon="-77.006">
    <ele>3.7700000000000005</ele>
   </trkpt>
   <trkpt lat="38.871990000000004" lon="-77.00603000000001">
    <ele>3.7700000000000005</ele>
   </trkpt>
   <trkpt lat="38.871750000000006" lon="-77.00664">
    <ele>4.46</ele>
   </trkpt>
   <trkpt lat="38.87174" lon="-77.00673">
    <ele>4.46</ele>
   </trkpt>
   <trkpt lat="38.87143500239403" lon="-77.0074700030318">
    <ele>5.55</ele>
   </trkpt>
   <trkpt lat="38.87113" lon="-77.00821">
    <ele>6.51</ele>
   </trkpt>
   <trkpt lat="38.87113" lon="-77.00834">
    <ele>6.87</ele>
   </trkpt>
   <trkpt lat="38.871080000000006" lon="-77.00846">
    <ele>6.87</ele>
   </trkpt>
   <trkpt lat="38.871120000000005" lon="-77.00864">
    <ele>7.390000000000001</ele>
   </trkpt>
   <trkpt lat="38.871230000000004" lon="-77.00885000000001">
    <ele>7.51</ele>
   </trkpt>
   <trkpt lat="38.871170000000006" lon="-77.00899000000001">
    <ele>7.540000000000001</ele>
   </trkpt>
   <trkpt lat="38.871170000000006" lon="-77.00907000000001">
    <ele>7.540000000000001</ele>
   </trkpt>
   <trkpt lat="38.871230000000004" lon="-77.00933">
    <ele>7.710000000000001</ele>
   </trkpt>
   <trkpt lat="38.87113" lon="-77.00942">
    <ele>7.680000000000001</ele>
   </trkpt>
   <trkpt lat="38.87102" lon="-77.00958">
    <ele>7.680000000000001</ele>
   </trkpt>
   <trkpt lat="38.87086" lon="-77.00972">
    <ele>7.580000000000001</ele>
   </trkpt>
   <trkpt lat="38.87084" lon="-77.00970000000001">
    <ele>7.580000000000001</ele>
   </trkpt>
   <trkpt lat="38.87070000000001" lon="-77.00973">
    <ele>7.630000000000001</ele>
   </trkpt>
   <trkpt lat="38.87024999985939" lon="-77.00974000006646">
    <ele>7.48</ele>
   </trkpt>
   <trkpt lat="38.869800000000005" lon="-77.00975000000001">
    <ele>7.220000000000001</ele>
   </trkpt>
   <trkpt lat="38.869670000000006" lon="-77.00971000000001">
    <ele>7.220000000000001</ele>
   </trkpt>
   <trkpt lat="38.86959" lon="-77.00964">
    <ele>7.220000000000001</ele>
   </trkpt>
   <trkpt lat="38.86938000000001" lon="-77.00934000000001">
    <ele>7.29</ele>
   </trkpt>
   <trkpt lat="38.86936" lon="-77.00914">
    <ele>7.38</ele>
   </trkpt>
   <trkpt lat="38.86937" lon="-77.00890000000001">
    <ele>7.5200000000000005</ele>
   </trkpt>
   <trkpt lat="38.86945" lon="-77.00864">
    <ele>7.800000000000001</ele>
   </trkpt>
   <trkpt lat="38.86945" lon="-77.00851">
    <ele>7.800000000000001</ele>
   </trkpt>
   <trkpt lat="38.86943" lon="-77.00837">
    <ele>8.100000000000001</ele>
   </trkpt>
   <trkpt lat="38.869030016844526" lon="-77.00737597761089">
    <ele>11.590000000000002</ele>
   </trkpt>
   <trkpt lat="38.86863002526322" lon="-77.00638196640806">
    <ele>14.690000000000001</ele>
   </trkpt>
   <trkpt lat="38.86823002525631" lon="-77.00538796639148">
    <ele>15.360000000000001</ele>
   </trkpt>
   <trkpt lat="38.867830016824" lon="-77.00439397756107">
    <ele>13.01</ele>
   </trkpt>
   <trkpt lat="38.867430000000006" lon="-77.00340000000001">
    <ele>9.200000000000001</ele>
   </trkpt>
   <trkpt lat="38.86726" lon="-77.003">
    <ele>8.24</ele>
   </trkpt>
   <trkpt lat="38.86719" lon="-77.00290000000001">
    <ele>7.69</ele>
   </trkpt>
   <trkpt lat="38.867110000000004" lon="-77.00283">
    <ele>7.42</ele>
   </trkpt>
   <trkpt lat="38.86721" lon="-77.00267000000001">
    <ele>7.470000000000001</ele>
   </trkpt>
   <trkpt lat="38.86726" lon="-77.00261">
    <ele>7.470000000000001</ele>
   </trkpt>
   <trkpt lat="38.8675" lon="-77.00261">
    <ele>7.7700000000000005</ele>
   </trkpt>
   <trkpt lat="38.86753" lon="-77.00250000000001">
    <ele>7.7700000000000005</ele>
   </trkpt>
   <trkpt lat="38.86762" lon="-77.00225">
    <ele>7.5</ele>
   </trkpt>
   <trkpt lat="38.86764" lon="-77.00214000000001">
    <ele>7.050000000000001</ele>
   </trkpt>
   <trkpt lat="38.867630000000005" lon="-77.00199">
    <ele>7.050000000000001</ele>
   </trkpt>
   <trkpt lat="38.867490000000004" lon="-77.00166">
    <ele>6.750000000000001</ele>
   </trkpt>
   <trkpt lat="38.867470000000004" lon="-77.00155000000001">
    <ele>6.5200000000000005</ele>
   </trkpt>
   <trkpt lat="38.86748" lon="-77.00144">
    <ele>6.5200000000000005</ele>
   </trkpt>
   <trkpt lat="38.86751" lon="-77.00134000000001">
    <ele>5.21</ele>
   </trkpt>
   <trkpt lat="38.86762" lon="-77.00121">
    <ele>4.74</ele>
   </trkpt>
   <trkpt lat="38.86773" lon="-77.00116000000001">
    <ele>4.2</ele>
   </trkpt>
   <trkpt lat="38.86850000062968" lon="-77.00077500417139">
    <ele>3.2800000000000002</ele>
   </trkpt>
   <trkpt lat="38.86927" lon="-77.00039000000001">
    <ele>2.85</ele>
   </trkpt>
   <trkpt lat="38.86910000138758" lon="-76.99981999864448">
    <ele>2.0300000000000002</ele>
   </trkpt>
   <trkpt lat="38.868930000000006" lon="-76.99925">
    <ele>1.9600000000000004</ele>
   </trkpt>
   <trkpt lat="38.86870667377116" lon="-76.998336660891">
    <ele>2.32</ele>
   </trkpt>
   <trkpt lat="38.86848334042877" lon="-76.99742332752075">
    <ele>2.95</ele>
   </trkpt>
   <trkpt lat="38.86826000000001" lon="-76.99651">
    <ele>2.56</ele>
   </trkpt>
   <trkpt lat="38.868140000000004" lon="-76.99588">
    <ele>2.25</ele>
   </trkpt>
   <trkpt lat="38.868050000000004" lon="-76.99485">
    <ele>1.67</ele>
   </trkpt>
   <trkpt lat="38.86804" lon="-76.99422000000001">
    <ele>1.75</ele>
   </trkpt>
   <trkpt lat="38.86806" lon="-76.99377000000001">
    <ele>1.76</ele>
   </trkpt>
   <trkpt lat="38.868140000000004" lon="-76.99323000000001">
    <ele>1.59</ele>
   </trkpt>
   <trkpt lat="38.868300000000005" lon="-76.99266">
    <ele>1.51</ele>
   </trkpt>
   <trkpt lat="38.86849" lon="-76.99212">
    <ele>1.36</ele>
   </trkpt>
   <trkpt lat="38.868840000000006" lon="-76.99146">
    <ele>1.6300000000000001</ele>
   </trkpt>
   <trkpt lat="38.869130000000006" lon="-76.99106">
    <ele>1.8900000000000001</ele>
   </trkpt>
   <trkpt lat="38.86937" lon="-76.99081000000001">
    <ele>1.85</ele>
   </trkpt>
   <trkpt lat="38.86883" lon="-76.99009000000001">
    <ele>2.24</ele>
   </trkpt>
   <trkpt lat="38.86885" lon="-76.99004000000001">
    <ele>2.23</ele>
   </trkpt>
   <trkpt lat="38.86901" lon="-76.98988">
    <ele>2.9400000000000004</ele>
   </trkpt>
   <trkpt lat="38.8691" lon="-76.98966">
    <ele>3.3200000000000003</ele>
   </trkpt>
   <trkpt lat="38.86916" lon="-76.98962">
    <ele>3.3200000000000003</ele>
   </trkpt>
   <trkpt lat="38.86923" lon="-76.98962">
    <ele>5.3500000000000005</ele>
   </trkpt>
   <trkpt lat="38.86954" lon="-76.98970000000001">
    <ele>6.04</ele>
   </trkpt>
   <trkpt lat="38.869620000000005" lon="-76.98966">
    <ele>6.04</ele>
   </trkpt>
   <trkpt lat="38.869640000000004" lon="-76.98962">
    <ele>6.04</ele>
   </trkpt>
   <trkpt lat="38.869670000000006" lon="-76.98938000000001">
    <ele>7.620000000000001</ele>
   </trkpt>
   <trkpt lat="38.8697" lon="-76.98935">
    <ele>7.620000000000001</ele>
   </trkpt>
   <trkpt lat="38.869890000000005" lon="-76.9893">
    <ele>9.030000000000001</ele>
   </trkpt>
   <trkpt lat="38.869980000000005" lon="-76.98914">
    <ele>9.47</ele>
   </trkpt>
   <trkpt lat="38.870595000916225" lon="-76.98960499597251">
    <ele>10.23</ele>
   </trkpt>
   <trkpt lat="38.871210000000005" lon="-76.99007">
    <ele>12.24</ele>
   </trkpt>
   <trkpt lat="38.871715000586185" lon="-76.99046999708203">
    <ele>12.23</ele>
   </trkpt>
   <trkpt lat="38.872220000000006" lon="-76.99087">
    <ele>9.56</ele>
   </trkpt>
   <trkpt lat="38.872580000000006" lon="-76.99111">
    <ele>7.180000000000001</ele>
   </trkpt>
   <trkpt lat="38.872890000000005" lon="-76.99127">
    <ele>6.010000000000001</ele>
   </trkpt>
   <trkpt lat="38.87321" lon="-76.99141">
    <ele>5.7700000000000005</ele>
   </trkpt>
   <trkpt lat="38.87321" lon="-76.99126000000001">
    <ele>5.5600000000000005</ele>
   </trkpt>
   <trkpt lat="38.8733" lon="-76.99129">
    <ele>5.800000000000001</ele>
   </trkpt>
   <trkpt lat="38.873380000000004" lon="-76.99125000000001">
    <ele>5.86</ele>
   </trkpt>
   <trkpt lat="38.87388" lon="-76.99137">
    <ele>6.2700000000000005</ele>
   </trkpt>
   <trkpt lat="38.87417000000001" lon="-76.99141">
    <ele>7.07</ele>
   </trkpt>
   <trkpt lat="38.874903333343504" lon="-76.99141999979376">
    <ele>9.91</ele>
   </trkpt>
   <trkpt lat="38.87563666668616" lon="-76.9914299997939">
    <ele>11.74</ele>
   </trkpt>
   <trkpt lat="38.87637" lon="-76.99144000000001">
    <ele>14.72</ele>
   </trkpt>
   <trkpt lat="38.876450000000006" lon="-76.99145">
    <ele>14.900000000000002</ele>
   </trkpt>
   <trkpt lat="38.876540000000006" lon="-76.99151">
    <ele>14.910000000000002</ele>
   </trkpt>
   <trkpt lat="38.87709500006056" lon="-76.991519999923">
    <ele>16.05</ele>
   </trkpt>
   <trkpt lat="38.87765" lon="-76.99153000000001">
    <ele>17.69</ele>
   </trkpt>
   <trkpt lat="38.87821" lon="-76.99152000000001">
    <ele>17.87</ele>
   </trkpt>
   <trkpt lat="38.878400000000006" lon="-76.99154">
    <ele>17.890000000000004</ele>
   </trkpt>
   <trkpt lat="38.87840000177397" lon="-76.99089500005846">
    <ele>16.34</ele>
   </trkpt>
   <trkpt lat="38.878400000000006" lon="-76.99025">
    <ele>15.680000000000003</ele>
   </trkpt>
   <trkpt lat="38.878736672640215" lon="-76.98941334125182">
    <ele>16.84</ele>
   </trkpt>
   <trkpt lat="38.879073339310665" lon="-76.98857667457588">
    <ele>18.150000000000002</ele>
   </trkpt>
   <trkpt lat="38.87941" lon="-76.98774">
    <ele>19.290000000000003</ele>
   </trkpt>
   <trkpt lat="38.879670001548114" lon="-76.98712500240325">
    <ele>19.96</ele>
   </trkpt>
   <trkpt lat="38.87993" lon="-76.98651000000001">
    <ele>19.87</ele>
   </trkpt>
   <trkpt lat="38.88004" lon="-76.98613">
    <ele>19.880000000000003</ele>
   </trkpt>
   <trkpt lat="38.88006" lon="-76.98603">
    <ele>19.970000000000002</ele>
   </trkpt>
   <trkpt lat="38.88006" lon="-76.98536">
    <ele>19.380000000000003</ele>
   </trkpt>
  </trkseg>
 </trk>
</gpx>