<?xml version='1.0' encoding='UTF-8'?>
<gpx xmlns="http://www.topografix.com/GPX/1/1" xmlns:xsi="http://www.w3.org/2001/XMLSchema-instance" creator="RouteMaker reference fixture" version="1.1" xsi:schemaLocation="http://www.topografix.com/GPX/1/1 http://www.topografix.com/GPX/1/1/gpx.xsd">
 <metadata>
  <name>Blow off steam ride</name>
  <desc>DZHOY RIDES!</desc>
  <copyright author="OpenStreetMap contributors">
   <year>2020</year>
   <license>https://www.openstreetmap.org/copyright</license>
  </copyright>
  </metadata>
 <trk>
  <name>Blow off steam ride</name>
  <desc>DZHOY RIDES!</desc>
  <type>cycling</type>
  <trkseg>
   <trkpt lat="38.909960000000005" lon="-77.04414000000001">
    <ele>27.840000000000003</ele>
   </trkpt>
   <trkpt lat="38.909960000000005" lon="-77.04424">
    <ele>27.700000000000003</ele>
   </trkpt>
   <trkpt lat="38.910070000000005" lon="-77.04468">
    <ele>27.55</ele>
   </trkpt>
   <trkpt lat="38.910434018742635" lon="-77.04572797851738">
    <ele>26.500000000000004</ele>
   </trkpt>
   <trkpt lat="38.91079802811676" lon="-77.04677596778356">
    <ele>24.87</ele>
   </trkpt>
   <trkpt lat="38.91116202812216" lon="-77.04782396779854">
    <ele>23.520000000000003</ele>
   </trkpt>
   <trkpt lat="38.91152601875864" lon="-77.04887197856227">
    <ele>22.92</ele>
   </trkpt>
   <trkpt lat="38.91189" lon="-77.04992">
    <ele>25.23</ele>
   </trkpt>
   <trkpt lat="38.91207" lon="-77.05021">
    <ele>25.550000000000004</ele>
   </trkpt>
   <trkpt lat="38.912330000000004" lon="-77.05036000000001">
    <ele>25.86</ele>
   </trkpt>
   <trkpt lat="38.91241" lon="-77.05046">
    <ele>26.46</ele>
   </trkpt>
   <trkpt lat="38.912440000000004" lon="-77.05057000000001">
    <ele>26.46</ele>
   </trkpt>
   <trkpt lat="38.912510000000005" lon="-77.05099000000001">
    <ele>26.590000000000003</ele>
   </trkpt>
   <trkpt lat="38.91261" lon="-77.05124">
    <ele>26.96</ele>
   </trkpt>
   <trkpt lat="38.91263" lon="-77.05132">
    <ele>27.19</ele>
   </trkpt>
   <trkpt lat="38.91312000192904" lon="-77.05198999539404">
    <ele>28.810000000000002</ele>
   </trkpt>
   <trkpt lat="38.913610000000006" lon="-77.05266">
    <ele>30.46</ele>
   </trkpt>
   <trkpt lat="38.91371" lon="-77.05261">
    <ele>31.01</ele>
   </trkpt>
   <trkpt lat="38.91433333337678" lon="-77.05260999999999">
    <ele>33.510000000000005</ele>
   </trkpt>
   <trkpt lat="38.91495666675356" lon="-77.05260999999999">
    <ele>34.480000000000004</ele>
   </trkpt>
   <trkpt lat="38.915580000000006" lon="-77.05261">
    <ele>35.46000000000001</ele>
   </trkpt>
   <trkpt lat="38.91558000203071" lon="-77.05191999962629">
    <ele>38.510000000000005</ele>
   </trkpt>
   <trkpt lat="38.915580000000006" lon="-77.05123">
    <ele>42.190000000000005</ele>
   </trkpt>
   <trkpt lat="38.91563" lon="-77.05063000000001">
    <ele>44.9</ele>
   </trkpt>
   <trkpt lat="38.916319999926564" lon="-77.05063000000001">
    <ele>47.910000000000004</ele>
   </trkpt>
   <trkpt lat="38.917010000000005" lon="-77.05063000000001">
    <ele>49.730000000000004</ele>
   </trkpt>
   <trkpt lat="38.9172" lon="-77.05064">
    <ele>49.910000000000004</ele>
   </trkpt>
   <trkpt lat="38.91756" lon="-77.05075000000001">
    <ele>49.910000000000004</ele>
   </trkpt>
   <trkpt lat="38.917770000000004" lon="-77.05085000000001">
    <ele>49.510000000000005</ele>
   </trkpt>
   <trkpt lat="38.91781" lon="-77.05059">
    <ele>49.480000000000004</ele>
   </trkpt>
   <trkpt lat="38.91806333911697" lon="-77.04976667254252">
    <ele>49.300000000000004</ele>
   </trkpt>
   <trkpt lat="38.9183166724512" lon="-77.04894333920637">
    <ele>48.660000000000004</ele>
   </trkpt>
   <trkpt lat="38.91857" lon="-77.04812000000001">
    <ele>48.82</ele>
   </trkpt>
   <trkpt lat="38.91857" lon="-77.04813">
    <ele>48.82</ele>
   </trkpt>
   <trkpt lat="38.918620000000004" lon="-77.04797">
    <ele>48.88</ele>
   </trkpt>
   <trkpt lat="38.918870000000005" lon="-77.04876">
    <ele>47.49</ele>
   </trkpt>
   <trkpt lat="38.918940000000006" lon="-77.04883000000001">
    <ele>47.21</ele>
   </trkpt>
   <trkpt lat="38.91970500429453" lon="-77.04927830916971">
    <ele>46.14</ele>
   </trkpt>
   <trkpt lat="38.920470006874474" lon="-77.0497266280061">
    <ele>46.13</ele>
   </trkpt>
   <trkpt lat="38.92123500773977" lon="-77.05017495650961">
    <ele>46.19</ele>
   </trkpt>
   <trkpt lat="38.922000006890315" lon="-77.05062329468072">
    <ele>46.1</ele>
   </trkpt>
   <trkpt lat="38.922765004326045" lon="-77.05107164251984">
    <ele>46.18000000000001</ele>
   </trkpt>
   <trkpt lat="38.92353000000001" lon="-77.05152000000001">
    <ele>47.830000000000005</ele>
   </trkpt>
   <trkpt lat="38.92353000000001" lon="-77.05171">
    <ele>47.720000000000006</ele>
   </trkpt>
   <trkpt lat="38.92347001534361" lon="-77.05280500277543">
    <ele>45.64000000000001</ele>
   </trkpt>
   <trkpt lat="38.923410020458206" lon="-77.05390000369911">
    <ele>43.39</ele>
   </trkpt>
   <trkpt lat="38.923350015343836" lon="-77.05499500277071">
    <ele>41.74</ele>
   </trkpt>
   <trkpt lat="38.92329" lon="-77.05609000000001">
    <ele>40.13</ele>
   </trkpt>
   <trkpt lat="38.923300000000005" lon="-77.05621000000001">
    <ele>40.120000000000005</ele>
   </trkpt>
   <trkpt lat="38.923300000000005" lon="-77.05622000000001">
    <ele>40.120000000000005</ele>
   </trkpt>
   <trkpt lat="38.92327000188678" lon="-77.05688500027118">
    <ele>41.84</ele>
   </trkpt>
   <trkpt lat="38.92324" lon="-77.05755">
    <ele>44.58</ele>
   </trkpt>
   <trkpt lat="38.92327" lon="-77.05769000000001">
    <ele>44.97</ele>
   </trkpt>
   <trkpt lat="38.923320000000004" lon="-77.05779000000001">
    <ele>45.15</ele>
   </trkpt>
   <trkpt lat="38.923922010122446" lon="-77.05855997387323">
    <ele>49.160000000000004</ele>
   </trkpt>
   <trkpt lat="38.92452401518706" lon="-77.05932996081353">
    <ele>54.84</ele>
   </trkpt>
   <trkpt lat="38.925126015193655" lon="-77.06009996082132">
    <ele>59.5</ele>
   </trkpt>
   <trkpt lat="38.92572801014201" lon="-77.06086997389698">
    <ele>65.41000000000001</ele>
   </trkpt>
   <trkpt lat="38.92633" lon="-77.06164000000001">
    <ele>70.99000000000001</ele>
   </trkpt>
   <trkpt lat="38.926875002164294" lon="-77.06234499464088">
    <ele>75.15</ele>
   </trkpt>
   <trkpt lat="38.927420000000005" lon="-77.06305">
    <ele>80.62</ele>
   </trkpt>
   <trkpt lat="38.927530000000004" lon="-77.06326">
    <ele>81.82000000000001</ele>
   </trkpt>
   <trkpt lat="38.928142507861025" lon="-77.06404497963368">
    <ele>84.65</ele>
   </trkpt>
   <trkpt lat="38.928755010464975" lon="-77.06482997282346">
    <ele>85.43</ele>
   </trkpt>
   <trkpt lat="38.92936750781167" lon="-77.06561497956974">
    <ele>88.53000000000002</ele>
   </trkpt>
   <trkpt lat="38.92998" lon="-77.0664">
    <ele>93.36000000000001</ele>
   </trkpt>
   <trkpt lat="38.93085999992747" lon="-77.06639500006246">
    <ele>93.72000000000001</ele>
   </trkpt>
   <trkpt lat="38.931740000000005" lon="-77.06639000000001">
    <ele>94.06</ele>
   </trkpt>
   <trkpt lat="38.93253857142882" lon="-77.06639000000001">
    <ele>99.36</ele>
   </trkpt>
   <trkpt lat="38.93333714285764" lon="-77.06639000000001">
    <ele>96.43</ele>
   </trkpt>
   <trkpt lat="38.934135714286455" lon="-77.06639000000001">
    <ele>97.73</ele>
   </trkpt>
   <trkpt lat="38.93493428571527" lon="-77.06639000000001">
    <ele>100.82000000000001</ele>
   </trkpt>
   <trkpt lat="38.93573285714408" lon="-77.06639000000001">
    <ele>102.38000000000001</ele>
   </trkpt>
   <trkpt lat="38.936531428572906" lon="-77.06639000000001">
    <ele>100.45</ele>
   </trkpt>
   <trkpt lat="38.93733" lon="-77.06639000000001">
    <ele>93.86000000000001</ele>
   </trkpt>
   <trkpt lat="38.93733" lon="-77.06609">
    <ele>91.99</ele>
   </trkpt>
   <trkpt lat="38.93733" lon="-77.06608">
    <ele>91.99</ele>
   </trkpt>
   <trkpt lat="38.937310000000004" lon="-77.06586">
    <ele>91.06</ele>
   </trkpt>
   <trkpt lat="38.937250000000006" lon="-77.06549000000001">
    <ele>89.7</ele>
   </trkpt>
   <trkpt lat="38.9371" lon="-77.06483">
    <ele>84.39</ele>
   </trkpt>
   <trkpt lat="38.9371" lon="-77.06452">
    <ele>82.93</ele>
   </trkpt>
   <trkpt lat="38.93714000000001" lon="-77.06429">
    <ele>82.93</ele>
   </trkpt>
   <trkpt lat="38.9373" lon="-77.06379000000001">
    <ele>78.92999999999999</ele>
   </trkpt>
   <trkpt lat="38.937360000000005" lon="-77.06337">
    <ele>77.26</ele>
   </trkpt>
   <trkpt lat="38.937380000000005" lon="-77.06311000000001">
    <ele>76.33000000000001</ele>
   </trkpt>
   <trkpt lat="38.937310000000004" lon="-77.06197">
    <ele>71.32000000000001</ele>
   </trkpt>
   <trkpt lat="38.93724" lon="-77.06147">
    <ele>69.85000000000001</ele>
   </trkpt>
   <trkpt lat="38.93715" lon="-77.06107">
    <ele>68.46000000000001</ele>
   </trkpt>
   <trkpt lat="38.93697" lon="-77.06053">
    <ele>67.44</ele>
   </trkpt>
   <trkpt lat="38.93688" lon="-77.06018">
    <ele>66.87</ele>
   </trkpt>
   <trkpt lat="38.936820000000004" lon="-77.05982">
    <ele>66.22</ele>
   </trkpt>
   <trkpt lat="38.936820000000004" lon="-77.05941">
    <ele>65.46000000000001</ele>
   </trkpt>
   <trkpt lat="38.93683" lon="-77.05907">
    <ele>64.91000000000001</ele>
   </trkpt>
   <trkpt lat="38.936820000000004" lon="-77.05884">
    <ele>65.06</ele>
   </trkpt>
   <trkpt lat="38.93679" lon="-77.05868000000001">
    <ele>64.93</ele>
   </trkpt>
   <trkpt lat="38.93668" lon="-77.05839">
    <ele>64.21000000000001</ele>
   </trkpt>
   <trkpt lat="38.93632" lon="-77.05781">
    <ele>60.28000000000001</ele>
   </trkpt>
   <trkpt lat="38.93623" lon="-77.05762">
    <ele>55.84</ele>
   </trkpt>
   <trkpt lat="38.93596" lon="-77.05659">
    <ele>47.99</ele>
   </trkpt>
   <trkpt lat="38.93565333933691" lon="-77.0557533261824">
    <ele>40.940000000000005</ele>
   </trkpt>
   <trkpt lat="38.93534667270137" lon="-77.05491665960076">
    <ele>35.440000000000005</ele>
   </trkpt>
   <trkpt lat="38.93504" lon="-77.05408000000001">
    <ele>33.150000000000006</ele>
   </trkpt>
   <trkpt lat="38.934685002347834" lon="-77.05334499641046">
    <ele>28.14</ele>
   </trkpt>
   <trkpt lat="38.93433" lon="-77.05261">
    <ele>25.580000000000002</ele>
   </trkpt>
   <trkpt lat="38.934020000000004" lon="-77.05204">
    <ele>24.360000000000003</ele>
   </trkpt>
   <trkpt lat="38.93354" lon="-77.05108000000001">
    <ele>23.810000000000002</ele>
   </trkpt>
   <trkpt lat="38.93326000161454" lon="-77.05048499787267">
    <ele>23.85</ele>
   </trkpt>
   <trkpt lat="38.93298" lon="-77.04989">
    <ele>24.37</ele>
   </trkpt>
   <trkpt lat="38.93276" lon="-77.04939">
    <ele>25.51</ele>
   </trkpt>
   <trkpt lat="38.93269" lon="-77.04917">
    <ele>26.12</ele>
   </trkpt>
   <trkpt lat="38.932640000000006" lon="-77.0489">
    <ele>26.740000000000002</ele>
   </trkpt>
   <trkpt lat="38.932610000000004" lon="-77.04862">
    <ele>27.92</ele>
   </trkpt>
   <trkpt lat="38.93260500290324" lon="-77.0477949999091">
    <ele>32.74</ele>
   </trkpt>
   <trkpt lat="38.9326" lon="-77.04697">
    <ele>37.63</ele>
   </trkpt>
   <trkpt lat="38.932610000000004" lon="-77.04688">
    <ele>37.63</ele>
   </trkpt>
   <trkpt lat="38.932700000000004" lon="-77.04667">
    <ele>38.67</ele>
   </trkpt>
   <trkpt lat="38.932860000000005" lon="-77.04621">
    <ele>42.82</ele>
   </trkpt>
   <trkpt lat="38.933150000000005" lon="-77.04552000000001">
    <ele>44.9</ele>
   </trkpt>
   <trkpt lat="38.933170000000004" lon="-77.04541">
    <ele>45.4</ele>
   </trkpt>
   <trkpt lat="38.932780004566894" lon="-77.04436999415583">
    <ele>49.95</ele>
   </trkpt>
   <trkpt lat="38.932390000000005" lon="-77.04333000000001">
    <ele>53.07000000000001</ele>
   </trkpt>
   <trkpt lat="38.93236" lon="-77.04321">
    <ele>53.07000000000001</ele>
   </trkpt>
   <trkpt lat="38.932360006657056" lon="-77.04232666662476">
    <ele>57.010000000000005</ele>
   </trkpt>
   <trkpt lat="38.93236000665704" lon="-77.04144333324945">
    <ele>60.31</ele>
   </trkpt>
   <trkpt lat="38.93236" lon="-77.04056">
    <ele>61.160000000000004</ele>
   </trkpt>
   <trkpt lat="38.932480001499464" lon="-77.03998000066981">
    <ele>61.67</ele>
   </trkpt>
   <trkpt lat="38.9326" lon="-77.0394">
    <ele>62.42</ele>
   </trkpt>
   <trkpt lat="38.932610000000004" lon="-77.03929000000001">
    <ele>62.64</ele>
   </trkpt>
   <trkpt lat="38.93258" lon="-77.039">
    <ele>63.12000000000001</ele>
   </trkpt>
   <trkpt lat="38.93235000000001" lon="-77.03884000000001">
    <ele>63.300000000000004</ele>
   </trkpt>
   <trkpt lat="38.93204" lon="-77.03873">
    <ele>63.0</ele>
   </trkpt>
   <trkpt lat="38.93175" lon="-77.03855">
    <ele>62.83000000000001</ele>
   </trkpt>
   <trkpt lat="38.93115" lon="-77.03831000000001">
    <ele>62.050000000000004</ele>
   </trkpt>
   <trkpt lat="38.93080000358617" lon="-77.03738999539621">
    <ele>60.620000000000005</ele>
   </trkpt>
   <trkpt lat="38.93045" lon="-77.03647000000001">
    <ele>60.370000000000005</ele>
   </trkpt>
   <trkpt lat="38.93119999993672" lon="-77.03647000000001">
    <ele>61.07000000000001</ele>
   </trkpt>
   <trkpt lat="38.93195" lon="-77.03647000000001">
    <ele>61.75000000000001</ele>
   </trkpt>
   <trkpt lat="38.931960000000004" lon="-77.03647000000001">
    <ele>61.75000000000001</ele>
   </trkpt>
   <trkpt lat="38.93285749999742" lon="-77.03646750022149">
    <ele>61.33</ele>
   </trkpt>
   <trkpt lat="38.93375499999479" lon="-77.03646500037968">
    <ele>59.79</ele>
   </trkpt>
   <trkpt lat="38.934652499992104" lon="-77.03646250047461">
    <ele>57.660000000000004</ele>
   </trkpt>
   <trkpt lat="38.935549999989355" lon="-77.03646000050627">
    <ele>54.970000000000006</ele>
   </trkpt>
   <trkpt lat="38.93644749998656" lon="-77.03645750047464">
    <ele>50.57</ele>
   </trkpt>
   <trkpt lat="38.93734499998373" lon="-77.03645500037975">
    <ele>47.99</ele>
   </trkpt>
   <trkpt lat="38.938242499980824" lon="-77.03645250022156">
    <ele>47.690000000000005</ele>
   </trkpt>
   <trkpt lat="38.93914" lon="-77.03645">
    <ele>47.900000000000006</ele>
   </trkpt>
   <trkpt lat="38.93916" lon="-77.03632">
    <ele>47.66</ele>
   </trkpt>
   <trkpt lat="38.939330000000005" lon="-77.03614">
    <ele>47.25000000000001</ele>
   </trkpt>
   <trkpt lat="38.93984500065162" lon="-77.03570000334469">
    <ele>45.290000000000006</ele>
   </trkpt>
   <trkpt lat="38.940360000000005" lon="-77.03526000000001">
    <ele>43.76</ele>
   </trkpt>
   <trkpt lat="38.9408" lon="-77.03486000000001">
    <ele>43.800000000000004</ele>
   </trkpt>
   <trkpt lat="38.941340000000004" lon="-77.03441000000001">
    <ele>44.36</ele>
   </trkpt>
   <trkpt lat="38.94200500147894" lon="-77.03383500533391">
    <ele>45.040000000000006</ele>
   </trkpt>
   <trkpt lat="38.94267" lon="-77.03326000000001">
    <ele>46.01</ele>
   </trkpt>
   <trkpt lat="38.94292" lon="-77.033">
    <ele>46.330000000000005</ele>
   </trkpt>
   <trkpt lat="38.94308" lon="-77.03290000000001">
    <ele>46.68000000000001</ele>
   </trkpt>
   <trkpt lat="38.943270000000005" lon="-77.03273">
    <ele>47.17</ele>
   </trkpt>
   <trkpt lat="38.94409714285502" lon="-77.03273">
    <ele>50.29</ele>
   </trkpt>
   <trkpt lat="38.94492428571004" lon="-77.03273">
    <ele>54.57000000000001</ele>
   </trkpt>
   <trkpt lat="38.94575142856504" lon="-77.03273">
    <ele>56.27</ele>
   </trkpt>
   <trkpt lat="38.946578571420055" lon="-77.03273">
    <ele>57.53</ele>
   </trkpt>
   <trkpt lat="38.947405714275064" lon="-77.03273">
    <ele>59.68</ele>
   </trkpt>
   <trkpt lat="38.94823285713008" lon="-77.03273">
    <ele>62.86</ele>
   </trkpt>
   <trkpt lat="38.94906" lon="-77.03273">
    <ele>65.73</ele>
   </trkpt>
   <trkpt lat="38.94917" lon="-77.03274">
    <ele>66.25</ele>
   </trkpt>
   <trkpt lat="38.94935" lon="-77.03287">
    <ele>66.72</ele>
   </trkpt>
   <trkpt lat="38.94973" lon="-77.03326000000001">
    <ele>68.65</ele>
   </trkpt>
   <trkpt lat="38.9498" lon="-77.03325000000001">
    <ele>68.65</ele>
   </trkpt>
   <trkpt lat="38.94993" lon="-77.03335000000001">
    <ele>69.31</ele>
   </trkpt>
   <trkpt lat="38.95011" lon="-77.03344000000001">
    <ele>69.67</ele>
   </trkpt>
   <trkpt lat="38.95099500001676" lon="-77.03343500006235">
    <ele>70.73</ele>
   </trkpt>
   <trkpt lat="38.95188" lon="-77.03343000000001">
    <ele>70.3</ele>
   </trkpt>
   <trkpt lat="38.95188" lon="-77.03333">
    <ele>70.3</ele>
   </trkpt>
   <trkpt lat="38.95188" lon="-77.03332">
    <ele>70.3</ele>
   </trkpt>
   <trkpt lat="38.951876688141375" lon="-77.03231666644128">
    <ele>67.04</ele>
   </trkpt>
   <trkpt lat="38.95187336769289" lon="-77.03131333297644">
    <ele>63.52</ele>
   </trkpt>
   <trkpt lat="38.95187003865451" lon="-77.03030999960573">
    <ele>60.47</ele>
   </trkpt>
   <trkpt lat="38.95186670102629" lon="-77.02930666632939">
    <ele>58.56000000000001</ele>
   </trkpt>
   <trkpt lat="38.95186335480817" lon="-77.02830333314768">
    <ele>56.580000000000005</ele>
   </trkpt>
   <trkpt lat="38.95186" lon="-77.02730000000001">
    <ele>55.49</ele>
   </trkpt>
   <trkpt lat="38.95188667273255" lon="-77.02645666738982">
    <ele>56.18000000000001</ele>
   </trkpt>
   <trkpt lat="38.95191333939643" lon="-77.02561333414498">
    <ele>57.1</ele>
   </trkpt>
   <trkpt lat="38.95194" lon="-77.02477">
    <ele>59.65</ele>
   </trkpt>
   <trkpt lat="38.95147500030952" lon="-77.02447999806668">
    <ele>60.52</ele>
   </trkpt>
   <trkpt lat="38.951010000000004" lon="-77.02419">
    <ele>61.63</ele>
   </trkpt>
   <trkpt lat="38.95023000305182" lon="-77.02370248391239">
    <ele>63.08000000000001</ele>
   </trkpt>
   <trkpt lat="38.9494500040757" lon="-77.02321497855436">
    <ele>64.57000000000001</ele>
   </trkpt>
   <trkpt lat="38.948670003071705" lon="-77.0227274839254">
    <ele>65.38000000000001</ele>
   </trkpt>
   <trkpt lat="38.94789" lon="-77.02224000000001">
    <ele>66.38000000000001</ele>
   </trkpt>
   <trkpt lat="38.947790000000005" lon="-77.02226">
    <ele>66.51</ele>
   </trkpt>
   <trkpt lat="38.947750000000006" lon="-77.02234">
    <ele>66.52000000000001</ele>
   </trkpt>
   <trkpt lat="38.94765" lon="-77.02247000000001">
    <ele>66.49000000000001</ele>
   </trkpt>
   <trkpt lat="38.94755" lon="-77.02253">
    <ele>66.51</ele>
   </trkpt>
   <trkpt lat="38.94744" lon="-77.02260000000001">
    <ele>66.68</ele>
   </trkpt>
   <trkpt lat="38.947340000000004" lon="-77.02260000000001">
    <ele>66.68</ele>
   </trkpt>
   <trkpt lat="38.94736" lon="-77.02260000000001">
    <ele>66.67</ele>
   </trkpt>
   <trkpt lat="38.94715" lon="-77.02257">
    <ele>66.85000000000001</ele>
   </trkpt>
   <trkpt lat="38.94702" lon="-77.02247000000001">
    <ele>67.05000000000001</ele>
   </trkpt>
   <trkpt lat="38.94690000000001" lon="-77.02234">
    <ele>67.44</ele>
   </trkpt>
   <trkpt lat="38.9468" lon="-77.02210000000001">
    <ele>67.85000000000001</ele>
   </trkpt>
   <trkpt lat="38.94677" lon="-77.02186">
    <ele>68.0</ele>
   </trkpt>
   <trkpt lat="38.946810000000006" lon="-77.02164">
    <ele>68.14</ele>
   </trkpt>
   <trkpt lat="38.9467" lon="-77.0215">
    <ele>68.19</ele>
   </trkpt>
   <trkpt lat="38.94605250211358" lon="-77.0210949889115">
    <ele>69.03</ele>
   </trkpt>
   <trkpt lat="38.945405002827584" lon="-77.02068998522147">
    <ele>70.3</ele>
   </trkpt>
   <trkpt lat="38.94475750214203" lon="-77.0202849889296">
    <ele>71.08</ele>
   </trkpt>
   <trkpt lat="38.94411" lon="-77.01988">
    <ele>72.26</ele>
   </trkpt>
   <trkpt lat="38.943690000000004" lon="-77.01960000000001">
    <ele>72.94</ele>
   </trkpt>
   <trkpt lat="38.943630000000006" lon="-77.01962">
    <ele>72.97</ele>
   </trkpt>
   <trkpt lat="38.94342" lon="-77.01986000000001">
    <ele>72.19</ele>
   </trkpt>
   <trkpt lat="38.9433" lon="-77.01993">
    <ele>72.19</ele>
   </trkpt>
   <trkpt lat="38.943180000000005" lon="-77.01996000000001">
    <ele>72.0</ele>
   </trkpt>
   <trkpt lat="38.943090000000005" lon="-77.01996000000001">
    <ele>71.98</ele>
   </trkpt>
   <trkpt lat="38.942930000000004" lon="-77.01993">
    <ele>72.09</ele>
   </trkpt>
   <trkpt lat="38.94283" lon="-77.01988">
    <ele>72.09</ele>
   </trkpt>
   <trkpt lat="38.942710000000005" lon="-77.01973000000001">
    <ele>72.26</ele>
   </trkpt>
   <trkpt lat="38.942600000000006" lon="-77.01951000000001">
    <ele>72.58</ele>
   </trkpt>
   <trkpt lat="38.94257" lon="-77.01939">
    <ele>72.8</ele>
   </trkpt>
   <trkpt lat="38.94256" lon="-77.01921">
    <ele>73.35000000000001</ele>
   </trkpt>
   <trkpt lat="38.94259" lon="-77.01906000000001">
    <ele>73.77</ele>
   </trkpt>
   <trkpt lat="38.942620000000005" lon="-77.01895">
    <ele>74.07000000000001</ele>
   </trkpt>
   <trkpt lat="38.9427" lon="-77.01881">
    <ele>74.56</ele>
   </trkpt>
   <trkpt lat="38.94277" lon="-77.01872">
    <ele>74.56</ele>
   </trkpt>
   <trkpt lat="38.94294" lon="-77.01858">
    <ele>74.94000000000001</ele>
   </trkpt>
   <trkpt lat="38.94314" lon="-77.01855">
    <ele>75.61000000000001</ele>
   </trkpt>
   <trkpt lat="38.94317002241065" lon="-77.01752500217046">
    <ele>80.46000000000001</ele>
   </trkpt>
   <trkpt lat="38.94320003585703" lon="-77.01650000347297">
    <ele>87.08</ele>
   </trkpt>
   <trkpt lat="38.94323004033915" lon="-77.01547500390775">
    <ele>90.47000000000001</ele>
   </trkpt>
   <trkpt lat="38.943260035857" lon="-77.01445000347512">
    <ele>89.61000000000001</ele>
   </trkpt>
   <trkpt lat="38.94329002241053" lon="-77.01342500217528">
    <ele>90.29</ele>
   </trkpt>
   <trkpt lat="38.94332" lon="-77.0124">
    <ele>95.23</ele>
   </trkpt>
   <trkpt lat="38.9438" lon="-77.01218">
    <ele>96.17</ele>
   </trkpt>
   <trkpt lat="38.94431" lon="-77.01159000000001">
    <ele>98.86</ele>
   </trkpt>
   <trkpt lat="38.94438" lon="-77.01149000000001">
    <ele>98.88000000000001</ele>
   </trkpt>
   <trkpt lat="38.944610000000004" lon="-77.01094">
    <ele>98.48</ele>
   </trkpt>
   <trkpt lat="38.94396500163635" lon="-77.01032999449657">
    <ele>97.99000000000001</ele>
   </trkpt>
   <trkpt lat="38.94332" lon="-77.00972">
    <ele>96.93</ele>
   </trkpt>
   <trkpt lat="38.9429" lon="-77.00909">
    <ele>96.52000000000001</ele>
   </trkpt>
   <trkpt lat="38.94243" lon="-77.00824">
    <ele>96.26</ele>
   </trkpt>
   <trkpt lat="38.942330000000005" lon="-77.00778000000001">
    <ele>96.26</ele>
   </trkpt>
   <trkpt lat="38.94216" lon="-77.00729000000001">
    <ele>96.07000000000001</ele>
   </trkpt>
   <trkpt lat="38.94202000000001" lon="-77.00708">
    <ele>95.27000000000001</ele>
   </trkpt>
   <trkpt lat="38.941930000000006" lon="-77.00686">
    <ele>94.82</ele>
   </trkpt>
   <trkpt lat="38.94146000207053" lon="-77.00616499540757">
    <ele>90.95</ele>
   </trkpt>
   <trkpt lat="38.940990000000006" lon="-77.00547">
    <ele>89.45</ele>
   </trkpt>
   <trkpt lat="38.940830000000005" lon="-77.00515">
    <ele>88.57000000000001</ele>
   </trkpt>
   <trkpt lat="38.94077" lon="-77.00493">
    <ele>88.31000000000002</ele>
   </trkpt>
   <trkpt lat="38.94073" lon="-77.00455000000001">
    <ele>88.0</ele>
   </trkpt>
   <trkpt lat="38.94073" lon="-77.00381">
    <ele>88.64000000000001</ele>
   </trkpt>
   <trkpt lat="38.94064" lon="-77.00349">
    <ele>88.54</ele>
   </trkpt>
   <trkpt lat="38.94055" lon="-77.00332">
    <ele>88.14000000000001</ele>
   </trkpt>
   <trkpt lat="38.940340000000006" lon="-77.00309">
    <ele>86.33</ele>
   </trkpt>
   <trkpt lat="38.93997" lon="-77.00284">
    <ele>82.87</ele>
   </trkpt>
   <trkpt lat="38.93916000015389" lon="-77.0026999984129">
    <ele>75.21000000000001</ele>
   </trkpt>
   <trkpt lat="38.93835" lon="-77.00256">
    <ele>68.89</ele>
   </trkpt>
   <trkpt lat="38.93753250072743" lon="-77.00240373739103">
    <ele>63.22</ele>
   </trkpt>
   <trkpt lat="38.93671500124652" lon="-77.00224747838492">
    <ele>59.31</ele>
   </trkpt>
   <trkpt lat="38.93589750155731" lon="-77.00209122298146">
    <ele>57.660000000000004</ele>
   </trkpt>
   <trkpt lat="38.93508000165976" lon="-77.00193497118048">
    <ele>57.34</ele>
   </trkpt>
   <trkpt lat="38.93426250155394" lon="-77.00177872298175">
    <ele>58.39</ele>
   </trkpt>
   <trkpt lat="38.93344500123983" lon="-77.00162247838516">
    <ele>57.28</ele>
   </trkpt>
   <trkpt lat="38.93262750071745" lon="-77.00146623739046">
    <ele>53.78</ele>
   </trkpt>
   <trkpt lat="38.931810000000006" lon="-77.00131">
    <ele>54.95</ele>
   </trkpt>
   <trkpt lat="38.93159" lon="-77.00125000000001">
    <ele>55.23</ele>
   </trkpt>
   <trkpt lat="38.93121" lon="-77.00099">
    <ele>56.5</ele>
   </trkpt>
   <trkpt lat="38.93081" lon="-77.00069">
    <ele>57.150000000000006</ele>
   </trkpt>
   <trkpt lat="38.930690000000006" lon="-77.00057000000001">
    <ele>57.260000000000005</ele>
   </trkpt>
   <trkpt lat="38.92984499999105" lon="-77.00057500005961">
    <ele>56.45</ele>
   </trkpt>
   <trkpt lat="38.929" lon="-77.00058">
    <ele>54.62</ele>
   </trkpt>
   <trkpt lat="38.92819500001605" lon="-77.00056499983006">
    <ele>53.96</ele>
   </trkpt>
   <trkpt lat="38.92739" lon="-77.00055">
    <ele>53.22</ele>
   </trkpt>
   <trkpt lat="38.92698" lon="-77.00058">
    <ele>52.61</ele>
   </trkpt>
   <trkpt lat="38.92628499993323" lon="-77.00058">
    <ele>52.0</ele>
   </trkpt>
   <trkpt lat="38.92559" lon="-77.00058">
    <ele>49.940000000000005</ele>
   </trkpt>
   <trkpt lat="38.92558501548431" lon="-76.999479999804">
    <ele>51.11</ele>
   </trkpt>
   <trkpt lat="38.92558002064584" lon="-76.99837999976275">
    <ele>53.15</ele>
   </trkpt>
   <trkpt lat="38.92557501548464" lon="-76.99727999987655">
    <ele>51.97</ele>
   </trkpt>
   <trkpt lat="38.92557" lon="-76.99618000000001">
    <ele>50.050000000000004</ele>
   </trkpt>
   <trkpt lat="38.92568" lon="-76.99618000000001">
    <ele>49.81000000000001</ele>
   </trkpt>
   <trkpt lat="38.9256800017746" lon="-76.99553499997837">
    <ele>45.65</ele>
   </trkpt>
   <trkpt lat="38.92568" lon="-76.99489000000001">
    <ele>43.03000000000001</ele>
   </trkpt>
   <trkpt lat="38.9256" lon="-76.99489000000001">
    <ele>43.03000000000001</ele>
   </trkpt>
   <trkpt lat="38.925580000000004" lon="-76.99482">
    <ele>42.61</ele>
   </trkpt>
   <trkpt lat="38.92513" lon="-76.99485">
    <ele>39.82</ele>
   </trkpt>
   <trkpt lat="38.924530000000004" lon="-76.995">
    <ele>38.470000000000006</ele>
   </trkpt>
   <trkpt lat="38.92439" lon="-76.99508">
    <ele>38.470000000000006</ele>
   </trkpt>
   <trkpt lat="38.92423" lon="-76.99512">
    <ele>38.24</ele>
   </trkpt>
   <trkpt lat="38.923860000000005" lon="-76.99525000000001">
    <ele>37.71</ele>
   </trkpt>
   <trkpt lat="38.923385000044775" lon="-76.99543500127801">
    <ele>37.34</ele>
   </trkpt>
   <trkpt lat="38.92291" lon="-76.99562">
    <ele>36.94</ele>
   </trkpt>
   <trkpt lat="38.92257" lon="-76.99584">
    <ele>36.39000000000001</ele>
   </trkpt>
   <trkpt lat="38.92215" lon="-76.99606">
    <ele>35.99</ele>
   </trkpt>
   <trkpt lat="38.92195" lon="-76.99609000000001">
    <ele>35.57</ele>
   </trkpt>
   <trkpt lat="38.921780000000005" lon="-76.99616">
    <ele>35.26</ele>
   </trkpt>
   <trkpt lat="38.92163" lon="-76.99632000000001">
    <ele>34.7</ele>
   </trkpt>
   <trkpt lat="38.92125" lon="-76.99642">
    <ele>34.370000000000005</ele>
   </trkpt>
   <trkpt lat="38.920930000000006" lon="-76.99669">
    <ele>33.75</ele>
   </trkpt>
   <trkpt lat="38.920130003177064" lon="-76.99712001937985">
    <ele>33.02</ele>
   </trkpt>
   <trkpt lat="38.91933000477666" lon="-76.9975500290633">
    <ele>32.050000000000004</ele>
   </trkpt>
   <trkpt lat="38.91853000479887" lon="-76.99798002905084">
    <ele>30.28</ele>
   </trkpt>
   <trkpt lat="38.91773000324378" lon="-76.99841001934294">
    <ele>28.940000000000005</ele>
   </trkpt>
   <trkpt lat="38.91693" lon="-76.99884">
    <ele>28.28</ele>
   </trkpt>
   <trkpt lat="38.91620000318459" lon="-76.9992266865557">
    <ele>27.900000000000002</ele>
   </trkpt>
   <trkpt lat="38.915470005093674" lon="-76.99961336515618">
    <ele>26.6</ele>
   </trkpt>
   <trkpt lat="38.91474000572728" lon="-77.00000003580176">
    <ele>27.22</ele>
   </trkpt>
   <trkpt lat="38.91401000508548" lon="-77.00038669849282">
    <ele>25.300000000000004</ele>
   </trkpt>
   <trkpt lat="38.91328000316833" lon="-77.0007733532297">
    <ele>24.75</ele>
   </trkpt>
   <trkpt lat="38.91255" lon="-77.00116000000001">
    <ele>24.41</ele>
   </trkpt>
   <trkpt lat="38.91252" lon="-77.00116000000001">
    <ele>24.41</ele>
   </trkpt>
   <trkpt lat="38.912060000000004" lon="-77.00091">
    <ele>23.919999999999998</ele>
   </trkpt>
   <trkpt lat="38.911910000000006" lon="-77.00091">
    <ele>23.44</ele>
   </trkpt>
   <trkpt lat="38.91176" lon="-77.00097000000001">
    <ele>23.35</ele>
   </trkpt>
   <trkpt lat="38.91098" lon="-77.00136">
    <ele>22.18</ele>
   </trkpt>
   <trkpt lat="38.910316667693586" lon="-77.00170000633378">
    <ele>21.78</ele>
   </trkpt>
   <trkpt lat="38.90965333440103" lon="-77.00204000631278">
    <ele>21.95</ele>
   </trkpt>
   <trkpt lat="38.90899" lon="-77.00238">
    <ele>22.490000000000002</ele>
   </trkpt>
   <trkpt lat="38.90874" lon="-77.00252">
    <ele>22.96</ele>
   </trkpt>
   <trkpt lat="38.908280000000005" lon="-77.00284">
    <ele>23.14</ele>
   </trkpt>
   <trkpt lat="38.90805" lon="-77.00293">
    <ele>23.040000000000003</ele>
   </trkpt>
   <trkpt lat="38.907206667402235" lon="-77.00323667397711">
    <ele>22.27</ele>
   </trkpt>
   <trkpt lat="38.906363334002265" lon="-77.00354334066787">
    <ele>21.61</ele>
   </trkpt>
   <trkpt lat="38.90552" lon="-77.00385">
    <ele>20.98</ele>
   </trkpt>
   <trkpt lat="38.904970000000006" lon="-77.00399">
    <ele>17.37</ele>
   </trkpt>
   <trkpt lat="38.90498" lon="-77.00403">
    <ele>17.37</ele>
   </trkpt>
   <trkpt lat="38.905190000000005" lon="-77.00402000000001">
    <ele>16.05</ele>
   </trkpt>
   <trkpt lat="38.90565" lon="-77.00385">
    <ele>16.71</ele>
   </trkpt>
   <trkpt lat="38.905650001459584" lon="-77.00326500012203">
    <ele>15.06</ele>
   </trkpt>
   <trkpt lat="38.90565" lon="-77.00268000000001">
    <ele>15.690000000000003</ele>
   </trkpt>
  </trkseg>
 </trk>
</gpx>