<?xml version='1.0' encoding='UTF-8'?>
<gpx xmlns="http://www.topografix.com/GPX/1/1" xmlns:xsi="http://www.w3.org/2001/XMLSchema-instance" creator="RouteMaker reference fixture" version="1.1" xsi:schemaLocation="http://www.topografix.com/GPX/1/1 http://www.topografix.com/GPX/1/1/gpx.xsd">
 <metadata>
  <name>Crit Mass 2024-03-29</name>
  <copyright author="OpenStreetMap contributors">
   <year>2020</year>
   <license>https://www.openstreetmap.org/copyright</license>
  </copyright>
  </metadata>
 <trk>
  <name>Crit Mass 2024-03-29</name>
  <type>cycling</type>
  <trkseg>
   <trkpt lat="38.910050000000005" lon="-77.043">
    <ele>27.290000000000003</ele>
   </trkpt>
   <trkpt lat="38.91015" lon="-77.04321">
    <ele>27.520000000000003</ele>
   </trkpt>
   <trkpt lat="38.910180000000004" lon="-77.04338000000001">
    <ele>27.520000000000003</ele>
   </trkpt>
   <trkpt lat="38.91017" lon="-77.04356">
    <ele>27.82</ele>
   </trkpt>
   <trkpt lat="38.91013" lon="-77.04373000000001">
    <ele>27.82</ele>
   </trkpt>
   <trkpt lat="38.909980000000004" lon="-77.04402">
    <ele>27.87</ele>
   </trkpt>
   <trkpt lat="38.909960000000005" lon="-77.04413000000001">
    <ele>27.85</ele>
   </trkpt>
   <trkpt lat="38.90975" lon="-77.04423000000001">
    <ele>27.770000000000003</ele>
   </trkpt>
   <trkpt lat="38.909620000000004" lon="-77.04424">
    <ele>27.470000000000002</ele>
   </trkpt>
   <trkpt lat="38.909380000000006" lon="-77.04418000000001">
    <ele>27.380000000000003</ele>
   </trkpt>
   <trkpt lat="38.90921" lon="-77.04402">
    <ele>27.19</ele>
   </trkpt>
   <trkpt lat="38.90914" lon="-77.04392">
    <ele>27.19</ele>
   </trkpt>
   <trkpt lat="38.909090000000006" lon="-77.04381000000001">
    <ele>27.070000000000004</ele>
   </trkpt>
   <trkpt lat="38.90901" lon="-77.04347">
    <ele>26.910000000000004</ele>
   </trkpt>
   <trkpt lat="38.909040000000005" lon="-77.0433">
    <ele>26.830000000000002</ele>
   </trkpt>
   <trkpt lat="38.90908" lon="-77.04312">
    <ele>26.830000000000002</ele>
   </trkpt>
   <trkpt lat="38.90917" lon="-77.04295">
    <ele>26.830000000000002</ele>
   </trkpt>
   <trkpt lat="38.909310000000005" lon="-77.04278000000001">
    <ele>26.7</ele>
   </trkpt>
   <trkpt lat="38.909380000000006" lon="-77.04272">
    <ele>26.7</ele>
   </trkpt>
   <trkpt lat="38.909490000000005" lon="-77.04268">
    <ele>26.79</ele>
   </trkpt>
   <trkpt lat="38.90955" lon="-77.04266000000001">
    <ele>26.79</ele>
   </trkpt>
   <trkpt lat="38.909760000000006" lon="-77.04267">
    <ele>26.950000000000003</ele>
   </trkpt>
   <trkpt lat="38.90992000000001" lon="-77.04276">
    <ele>27.080000000000002</ele>
   </trkpt>
   <trkpt lat="38.910050000000005" lon="-77.04286">
    <ele>27.240000000000002</ele>
   </trkpt>
   <trkpt lat="38.910180000000004" lon="-77.04286">
    <ele>27.22</ele>
   </trkpt>
   <trkpt lat="38.910320000000006" lon="-77.04282">
    <ele>27.31</ele>
   </trkpt>
   <trkpt lat="38.9109400014355" lon="-77.04224000506558">
    <ele>26.950000000000003</ele>
   </trkpt>
   <trkpt lat="38.91156" lon="-77.04166000000001">
    <ele>26.860000000000003</ele>
   </trkpt>
   <trkpt lat="38.911860000000004" lon="-77.04166000000001">
    <ele>27.000000000000004</ele>
   </trkpt>
   <trkpt lat="38.91187" lon="-77.04166000000001">
    <ele>27.000000000000004</ele>
   </trkpt>
   <trkpt lat="38.91258666662296" lon="-77.0416566667342">
    <ele>27.06</ele>
   </trkpt>
   <trkpt lat="38.9133033332458" lon="-77.04165333340106">
    <ele>27.6</ele>
   </trkpt>
   <trkpt lat="38.91402" lon="-77.04165">
    <ele>28.080000000000002</ele>
   </trkpt>
   <trkpt lat="38.914170000000006" lon="-77.04167000000001">
    <ele>28.290000000000003</ele>
   </trkpt>
   <trkpt lat="38.91466999983632" lon="-77.04167000000002">
    <ele>29.290000000000003</ele>
   </trkpt>
   <trkpt lat="38.91517" lon="-77.04167000000001">
    <ele>29.880000000000003</ele>
   </trkpt>
   <trkpt lat="38.91590750002017" lon="-77.04166750007789">
    <ele>31.230000000000004</ele>
   </trkpt>
   <trkpt lat="38.91664500004028" lon="-77.0416650001038">
    <ele>33.29</ele>
   </trkpt>
   <trkpt lat="38.91738250006035" lon="-77.04166250007776">
    <ele>37.02</ele>
   </trkpt>
   <trkpt lat="38.91812" lon="-77.04166000000001">
    <ele>41.980000000000004</ele>
   </trkpt>
   <trkpt lat="38.91864" lon="-77.04165">
    <ele>43.77</ele>
   </trkpt>
   <trkpt lat="38.91911000006591" lon="-77.04165">
    <ele>45.28</ele>
   </trkpt>
   <trkpt lat="38.91958" lon="-77.04165">
    <ele>46.19</ele>
   </trkpt>
   <trkpt lat="38.920350000847264" lon="-77.04190749161647">
    <ele>47.53</ele>
   </trkpt>
   <trkpt lat="38.92112000112889" lon="-77.04216498882151">
    <ele>49.620000000000005</ele>
   </trkpt>
   <trkpt lat="38.92189000084487" lon="-77.0424224916154">
    <ele>51.2</ele>
   </trkpt>
   <trkpt lat="38.92266" lon="-77.04268">
    <ele>52.94</ele>
   </trkpt>
   <trkpt lat="38.92266" lon="-77.04269000000001">
    <ele>52.96000000000001</ele>
   </trkpt>
   <trkpt lat="38.92315000456716" lon="-77.04195667682697">
    <ele>54.38</ele>
   </trkpt>
   <trkpt lat="38.92364000454658" lon="-77.0412233435246">
    <ele>56.81</ele>
   </trkpt>
   <trkpt lat="38.924130000000005" lon="-77.04049">
    <ele>59.260000000000005</ele>
   </trkpt>
   <trkpt lat="38.92459" lon="-77.03977">
    <ele>59.71000000000001</ele>
   </trkpt>
   <trkpt lat="38.92503000000001" lon="-77.03904">
    <ele>60.120000000000005</ele>
   </trkpt>
   <trkpt lat="38.9254" lon="-77.03837">
    <ele>60.38</ele>
   </trkpt>
   <trkpt lat="38.92579500191209" lon="-77.03769500381208">
    <ele>60.300000000000004</ele>
   </trkpt>
   <trkpt lat="38.926190000000005" lon="-77.03702000000001">
    <ele>59.84</ele>
   </trkpt>
   <trkpt lat="38.92629" lon="-77.03634000000001">
    <ele>59.65</ele>
   </trkpt>
   <trkpt lat="38.92633" lon="-77.03541000000001">
    <ele>61.08</ele>
   </trkpt>
   <trkpt lat="38.926383340087455" lon="-77.03452000139637">
    <ele>61.06</ele>
   </trkpt>
   <trkpt lat="38.92643667341731" lon="-77.03363000145445">
    <ele>60.77</ele>
   </trkpt>
   <trkpt lat="38.92649" lon="-77.03274">
    <ele>60.27</ele>
   </trkpt>
   <trkpt lat="38.926520000000004" lon="-77.03255">
    <ele>60.06</ele>
   </trkpt>
   <trkpt lat="38.92662" lon="-77.03231000000001">
    <ele>59.89000000000001</ele>
   </trkpt>
   <trkpt lat="38.926700000000004" lon="-77.03206">
    <ele>59.25</ele>
   </trkpt>
   <trkpt lat="38.926730000000006" lon="-77.03181000000001">
    <ele>58.980000000000004</ele>
   </trkpt>
   <trkpt lat="38.92673500426536" lon="-77.0308100001282">
    <ele>56.81</ele>
   </trkpt>
   <trkpt lat="38.92674" lon="-77.02981000000001">
    <ele>54.57000000000001</ele>
   </trkpt>
   <trkpt lat="38.926680000000005" lon="-77.02981000000001">
    <ele>54.55</ele>
   </trkpt>
   <trkpt lat="38.926680000000005" lon="-77.02971000000001">
    <ele>54.480000000000004</ele>
   </trkpt>
   <trkpt lat="38.9258799999979" lon="-77.02971000000001">
    <ele>56.61000000000001</ele>
   </trkpt>
   <trkpt lat="38.925079999995816" lon="-77.02971000000001">
    <ele>58.24000000000001</ele>
   </trkpt>
   <trkpt lat="38.92427999999372" lon="-77.02971000000001">
    <ele>58.81000000000001</ele>
   </trkpt>
   <trkpt lat="38.92347999999163" lon="-77.02971000000001">
    <ele>59.870000000000005</ele>
   </trkpt>
   <trkpt lat="38.92267999998953" lon="-77.02971000000001">
    <ele>58.78</ele>
   </trkpt>
   <trkpt lat="38.92187999998744" lon="-77.02971000000001">
    <ele>52.7</ele>
   </trkpt>
   <trkpt lat="38.92108" lon="-77.02971000000001">
    <ele>43.88</ele>
   </trkpt>
   <trkpt lat="38.92058" lon="-77.02969">
    <ele>38.6</ele>
   </trkpt>
   <trkpt lat="38.92042" lon="-77.02965">
    <ele>37.77</ele>
   </trkpt>
   <trkpt lat="38.92015000000001" lon="-77.02963000000001">
    <ele>36.50000000000001</ele>
   </trkpt>
   <trkpt lat="38.91977" lon="-77.02962000000001">
    <ele>35.95</ele>
   </trkpt>
   <trkpt lat="38.918932727274054" lon="-77.02962090919817">
    <ele>34.1</ele>
   </trkpt>
   <trkpt lat="38.9180954545481" lon="-77.02962181837488">
    <ele>31.86</ele>
   </trkpt>
   <trkpt lat="38.917258181822156" lon="-77.02962272753014">
    <ele>30.410000000000004</ele>
   </trkpt>
   <trkpt lat="38.916420909096175" lon="-77.02962363666394">
    <ele>28.91</ele>
   </trkpt>
   <trkpt lat="38.91558363637021" lon="-77.0296245457763">
    <ele>28.25</ele>
   </trkpt>
   <trkpt lat="38.91474636364422" lon="-77.0296254548672">
    <ele>28.55</ele>
   </trkpt>
   <trkpt lat="38.91390909091824" lon="-77.02962636393666">
    <ele>28.76</ele>
   </trkpt>
   <trkpt lat="38.91307181819224" lon="-77.02962727298467">
    <ele>29.26</ele>
   </trkpt>
   <trkpt lat="38.912234545466234" lon="-77.02962818201122">
    <ele>29.380000000000003</ele>
   </trkpt>
   <trkpt lat="38.91139727274024" lon="-77.02962909101633">
    <ele>28.89</ele>
   </trkpt>
   <trkpt lat="38.910560000000004" lon="-77.02963000000001">
    <ele>28.740000000000002</ele>
   </trkpt>
   <trkpt lat="38.910320000000006" lon="-77.0297">
    <ele>28.560000000000002</ele>
   </trkpt>
   <trkpt lat="38.91022" lon="-77.02982">
    <ele>28.53</ele>
   </trkpt>
   <trkpt lat="38.910120000000006" lon="-77.03001">
    <ele>28.51</ele>
   </trkpt>
   <trkpt lat="38.91002" lon="-77.03018">
    <ele>28.430000000000003</ele>
   </trkpt>
   <trkpt lat="38.90993" lon="-77.03026000000001">
    <ele>28.430000000000003</ele>
   </trkpt>
   <trkpt lat="38.90981" lon="-77.03030000000001">
    <ele>28.430000000000003</ele>
   </trkpt>
   <trkpt lat="38.909530000000004" lon="-77.03032">
    <ele>28.560000000000002</ele>
   </trkpt>
   <trkpt lat="38.90943" lon="-77.03029000000001">
    <ele>28.53</ele>
   </trkpt>
   <trkpt lat="38.909420000000004" lon="-77.03029000000001">
    <ele>28.53</ele>
   </trkpt>
   <trkpt lat="38.909290000000006" lon="-77.03019">
    <ele>28.59</ele>
   </trkpt>
   <trkpt lat="38.90916" lon="-77.02987">
    <ele>28.540000000000003</ele>
   </trkpt>
   <trkpt lat="38.909130000000005" lon="-77.02963000000001">
    <ele>28.540000000000003</ele>
   </trkpt>
   <trkpt lat="38.909130000000005" lon="-77.02950000000001">
    <ele>28.630000000000003</ele>
   </trkpt>
   <trkpt lat="38.90916" lon="-77.02927000000001">
    <ele>28.810000000000002</ele>
   </trkpt>
   <trkpt lat="38.90928" lon="-77.0291">
    <ele>28.76</ele>
   </trkpt>
   <trkpt lat="38.90957" lon="-77.02884">
    <ele>28.270000000000003</ele>
   </trkpt>
   <trkpt lat="38.90961" lon="-77.02873000000001">
    <ele>28.080000000000002</ele>
   </trkpt>
   <trkpt lat="38.90964" lon="-77.02857">
    <ele>27.950000000000003</ele>
   </trkpt>
   <trkpt lat="38.90964002525935" lon="-77.02748166667779">
    <ele>27.720000000000002</ele>
   </trkpt>
   <trkpt lat="38.90964004041496" lon="-77.02639333335495">
    <ele>27.580000000000002</ele>
   </trkpt>
   <trkpt lat="38.90964004546684" lon="-77.0253050000318">
    <ele>26.900000000000002</ele>
   </trkpt>
   <trkpt lat="38.90964004041496" lon="-77.02421666670865">
    <ele>26.71</ele>
   </trkpt>
   <trkpt lat="38.90964002525935" lon="-77.02312833338583">
    <ele>27.01</ele>
   </trkpt>
   <trkpt lat="38.90964" lon="-77.02204">
    <ele>27.15</ele>
   </trkpt>
   <trkpt lat="38.90963" lon="-77.02192000000001">
    <ele>27.19</ele>
   </trkpt>
   <trkpt lat="38.90881250000232" lon="-77.02192000000001">
    <ele>27.810000000000002</ele>
   </trkpt>
   <trkpt lat="38.907995000004654" lon="-77.02192000000001">
    <ele>28.180000000000003</ele>
   </trkpt>
   <trkpt lat="38.90717750000697" lon="-77.02192000000001">
    <ele>27.950000000000003</ele>
   </trkpt>
   <trkpt lat="38.90636000000931" lon="-77.02192000000001">
    <ele>27.450000000000003</ele>
   </trkpt>
   <trkpt lat="38.905542500011634" lon="-77.02192000000001">
    <ele>26.820000000000004</ele>
   </trkpt>
   <trkpt lat="38.904725000013954" lon="-77.02192000000001">
    <ele>23.64</ele>
   </trkpt>
   <trkpt lat="38.903907500016274" lon="-77.02192000000001">
    <ele>22.62</ele>
   </trkpt>
   <trkpt lat="38.903090000000006" lon="-77.02192000000001">
    <ele>20.3</ele>
   </trkpt>
   <trkpt lat="38.90234999996356" lon="-77.02191666659702">
    <ele>19.26</ele>
   </trkpt>
   <trkpt lat="38.901609999927025" lon="-77.02191333326353">
    <ele>18.27</ele>
   </trkpt>
   <trkpt lat="38.900870000000005" lon="-77.02191">
    <ele>16.77</ele>
   </trkpt>
   <trkpt lat="38.900106666679655" lon="-77.02191333340495">
    <ele>15.14</ele>
   </trkpt>
   <trkpt lat="38.8993433333592" lon="-77.02191666673824">
    <ele>14.730000000000002</ele>
   </trkpt>
   <trkpt lat="38.89858" lon="-77.02192000000001">
    <ele>15.040000000000001</ele>
   </trkpt>
   <trkpt lat="38.89769923076984" lon="-77.02192000000001">
    <ele>14.63</ele>
   </trkpt>
   <trkpt lat="38.89681846153968" lon="-77.02192000000001">
    <ele>13.74</ele>
   </trkpt>
   <trkpt lat="38.895937692309516" lon="-77.02192000000001">
    <ele>11.98</ele>
   </trkpt>
   <trkpt lat="38.89505692307935" lon="-77.02192000000001">
    <ele>8.030000000000001</ele>
   </trkpt>
   <trkpt lat="38.894176153849195" lon="-77.02192000000001">
    <ele>5.11</ele>
   </trkpt>
   <trkpt lat="38.89329538461904" lon="-77.02192000000001">
    <ele>3.95</ele>
   </trkpt>
   <trkpt lat="38.89241461538887" lon="-77.02192000000001">
    <ele>3.0700000000000003</ele>
   </trkpt>
   <trkpt lat="38.89153384615871" lon="-77.02192000000001">
    <ele>3.06</ele>
   </trkpt>
   <trkpt lat="38.89065307692855" lon="-77.02192000000001">
    <ele>3.4600000000000004</ele>
   </trkpt>
   <trkpt lat="38.88977230769839" lon="-77.02192000000001">
    <ele>4.59</ele>
   </trkpt>
   <trkpt lat="38.88889153846823" lon="-77.02192000000001">
    <ele>5.78</ele>
   </trkpt>
   <trkpt lat="38.88801076923806" lon="-77.02192000000001">
    <ele>6.73</ele>
   </trkpt>
   <trkpt lat="38.887130000000006" lon="-77.02192000000001">
    <ele>7.82</ele>
   </trkpt>
   <trkpt lat="38.88633000002718" lon="-77.02191666659171">
    <ele>7.48</ele>
   </trkpt>
   <trkpt lat="38.88553000005425" lon="-77.0219133332585">
    <ele>6.11</ele>
   </trkpt>
   <trkpt lat="38.884730000000005" lon="-77.02191">
    <ele>8.46</ele>
   </trkpt>
   <trkpt lat="38.883985000072045" lon="-77.02191500005196">
    <ele>8.94</ele>
   </trkpt>
   <trkpt lat="38.88324" lon="-77.02192000000001">
    <ele>8.790000000000001</ele>
   </trkpt>
   <trkpt lat="38.883100000000006" lon="-77.02198">
    <ele>8.790000000000001</ele>
   </trkpt>
   <trkpt lat="38.88289" lon="-77.02198">
    <ele>8.51</ele>
   </trkpt>
   <trkpt lat="38.8828" lon="-77.02192000000001">
    <ele>8.51</ele>
   </trkpt>
   <trkpt lat="38.88212" lon="-77.02192000000001">
    <ele>8.030000000000001</ele>
   </trkpt>
   <trkpt lat="38.88206" lon="-77.02198">
    <ele>8.030000000000001</ele>
   </trkpt>
   <trkpt lat="38.88197" lon="-77.022">
    <ele>8.030000000000001</ele>
   </trkpt>
   <trkpt lat="38.88138" lon="-77.022">
    <ele>7.72</ele>
   </trkpt>
   <trkpt lat="38.881280000000004" lon="-77.02199">
    <ele>7.73</ele>
   </trkpt>
   <trkpt lat="38.881280000000004" lon="-77.02186">
    <ele>7.73</ele>
   </trkpt>
   <trkpt lat="38.88128251417102" lon="-77.02080750010775">
    <ele>8.100000000000001</ele>
   </trkpt>
   <trkpt lat="38.881285018894694" lon="-77.01975500014116">
    <ele>7.72</ele>
   </trkpt>
   <trkpt lat="38.881287514171035" lon="-77.01870250010049">
    <ele>6.5</ele>
   </trkpt>
   <trkpt lat="38.88129" lon="-77.01765">
    <ele>5.78</ele>
   </trkpt>
   <trkpt lat="38.881170000000004" lon="-77.01765">
    <ele>5.790000000000001</ele>
   </trkpt>
   <trkpt lat="38.88118" lon="-77.01765">
    <ele>5.790000000000001</ele>
   </trkpt>
   <trkpt lat="38.88029000004374" lon="-77.01765">
    <ele>5.99</ele>
   </trkpt>
   <trkpt lat="38.879400000000004" lon="-77.01765">
    <ele>6.090000000000001</ele>
   </trkpt>
   <trkpt lat="38.879290000000005" lon="-77.01764">
    <ele>5.970000000000001</ele>
   </trkpt>
   <trkpt lat="38.879288014943114" lon="-77.01670399990032">
    <ele>5.16</ele>
   </trkpt>
   <trkpt lat="38.87928602241466" lon="-77.015767999853">
    <ele>4.55</ele>
   </trkpt>
   <trkpt lat="38.87928402241468" lon="-77.01483199985829">
    <ele>3.7600000000000002</ele>
   </trkpt>
   <trkpt lat="38.879282014943136" lon="-77.01389599991636">
    <ele>3.4400000000000004</ele>
   </trkpt>
   <trkpt lat="38.87928" lon="-77.01296">
    <ele>3.4600000000000004</ele>
   </trkpt>
   <trkpt lat="38.8785" lon="-77.01324000000001">
    <ele>3.1400000000000006</ele>
   </trkpt>
   <trkpt lat="38.8785" lon="-77.01218">
    <ele>2.9000000000000004</ele>
   </trkpt>
   <trkpt lat="38.8793" lon="-77.01219">
    <ele>2.6100000000000003</ele>
   </trkpt>
   <trkpt lat="38.8792966948632" lon="-77.01103999975983">
    <ele>3.0700000000000003</ele>
   </trkpt>
   <trkpt lat="38.87929337844783" lon="-77.00988999962682">
    <ele>4.91</ele>
   </trkpt>
   <trkpt lat="38.879290050753866" lon="-77.00873999960133">
    <ele>4.68</ele>
   </trkpt>
   <trkpt lat="38.87928671178132" lon="-77.00758999968374">
    <ele>6.220000000000001</ele>
   </trkpt>
   <trkpt lat="38.879283361530206" lon="-77.00643999987439">
    <ele>7.25</ele>
   </trkpt>
   <trkpt lat="38.87928" lon="-77.00529">
    <ele>8.17</ele>
   </trkpt>
   <trkpt lat="38.879310000000004" lon="-77.00518000000001">
    <ele>8.66</ele>
   </trkpt>
   <trkpt lat="38.880006001084766" lon="-77.00542999021181">
    <ele>9.74</ele>
   </trkpt>
   <trkpt lat="38.88070200163654" lon="-77.00567998532085">
    <ele>11.74</ele>
   </trkpt>
   <trkpt lat="38.88139800165532" lon="-77.00592998532737">
    <ele>13.01</ele>
   </trkpt>
   <trkpt lat="38.882094001141034" lon="-77.00617999023157">
    <ele>12.41</ele>
   </trkpt>
   <trkpt lat="38.88279" lon="-77.00643000000001">
    <ele>10.97</ele>
   </trkpt>
   <trkpt lat="38.883230000000005" lon="-77.0066">
    <ele>10.51</ele>
   </trkpt>
   <trkpt lat="38.883230000000005" lon="-77.00589000000001">
    <ele>11.74</ele>
   </trkpt>
   <trkpt lat="38.88367" lon="-77.00538">
    <ele>13.72</ele>
   </trkpt>
   <trkpt lat="38.88394500200476" lon="-77.00469000273462">
    <ele>16.59</ele>
   </trkpt>
   <trkpt lat="38.884220000000006" lon="-77.004">
    <ele>18.67</ele>
   </trkpt>
   <trkpt lat="38.88429" lon="-77.00389000000001">
    <ele>18.67</ele>
   </trkpt>
   <trkpt lat="38.88440000000001" lon="-77.00361000000001">
    <ele>20.330000000000002</ele>
   </trkpt>
   <trkpt lat="38.884460000000004" lon="-77.00352000000001">
    <ele>20.46</ele>
   </trkpt>
   <trkpt lat="38.88534833332457" lon="-77.00352000000001">
    <ele>21.32</ele>
   </trkpt>
   <trkpt lat="38.886236666649154" lon="-77.00352000000001">
    <ele>23.82</ele>
   </trkpt>
   <trkpt lat="38.88712499997372" lon="-77.00352000000001">
    <ele>25.84</ele>
   </trkpt>
   <trkpt lat="38.8880133332983" lon="-77.00352000000001">
    <ele>26.900000000000002</ele>
   </trkpt>
   <trkpt lat="38.88890166662287" lon="-77.00352000000001">
    <ele>27.98</ele>
   </trkpt>
   <trkpt lat="38.889790000000005" lon="-77.00352000000001">
    <ele>28.540000000000003</ele>
   </trkpt>
   <trkpt lat="38.889810000000004" lon="-77.00352000000001">
    <ele>28.540000000000003</ele>
   </trkpt>
   <trkpt lat="38.88980913898901" lon="-77.00245818168361">
    <ele>28.720000000000002</ele>
   </trkpt>
   <trkpt lat="38.889808268362025" lon="-77.0013963633931">
    <ele>28.35</ele>
   </trkpt>
   <trkpt lat="38.88980738811905" lon="-77.00033454512875">
    <ele>27.930000000000003</ele>
   </trkpt>
   <trkpt lat="38.889806498260114" lon="-76.99927272689088">
    <ele>26.910000000000004</ele>
   </trkpt>
   <trkpt lat="38.88980559878517" lon="-76.99821090867974">
    <ele>26.47</ele>
   </trkpt>
   <trkpt lat="38.889804689694266" lon="-76.99714909049564">
    <ele>25.490000000000002</ele>
   </trkpt>
   <trkpt lat="38.88980377098738" lon="-76.99608727233887">
    <ele>25.18</ele>
   </trkpt>
   <trkpt lat="38.88980284266449" lon="-76.9950254542097">
    <ele>25.290000000000003</ele>
   </trkpt>
   <trkpt lat="38.889801904725644" lon="-76.99396363610843">
    <ele>25.61</ele>
   </trkpt>
   <trkpt lat="38.8898009571708" lon="-76.99290181803535">
    <ele>25.910000000000004</ele>
   </trkpt>
   <trkpt lat="38.8898" lon="-76.99184000000001">
    <ele>26.27</ele>
   </trkpt>
   <trkpt lat="38.889770000000006" lon="-76.99165">
    <ele>26.27</ele>
   </trkpt>
   <trkpt lat="38.88964" lon="-76.99152000000001">
    <ele>26.42</ele>
   </trkpt>
   <trkpt lat="38.88924" lon="-76.99153000000001">
    <ele>26.580000000000002</ele>
   </trkpt>
   <trkpt lat="38.889240003264966" lon="-76.99065500001605">
    <ele>26.990000000000002</ele>
   </trkpt>
   <trkpt lat="38.88924" lon="-76.98978000000001">
    <ele>27.12</ele>
   </trkpt>
   <trkpt lat="38.8888" lon="-76.98941">
    <ele>27.14</ele>
   </trkpt>
   <trkpt lat="38.888780000000004" lon="-76.9894">
    <ele>27.13</ele>
   </trkpt>
   <trkpt lat="38.888270000000006" lon="-76.98897000000001">
    <ele>26.830000000000002</ele>
   </trkpt>
   <trkpt lat="38.88759" lon="-76.98852000000001">
    <ele>26.36</ele>
   </trkpt>
   <trkpt lat="38.887170000000005" lon="-76.98819">
    <ele>26.1</ele>
   </trkpt>
   <trkpt lat="38.887" lon="-76.988">
    <ele>25.910000000000004</ele>
   </trkpt>
   <trkpt lat="38.886860000000006" lon="-76.98781000000001">
    <ele>25.910000000000004</ele>
   </trkpt>
   <trkpt lat="38.88629" lon="-76.98733">
    <ele>25.490000000000002</ele>
   </trkpt>
   <trkpt lat="38.88557429475366" lon="-76.98673567836728">
    <ele>24.790000000000003</ele>
   </trkpt>
   <trkpt lat="38.88485858649489" lon="-76.98614136870897">
    <ele>24.01</ele>
   </trkpt>
   <trkpt lat="38.884142875223866" lon="-76.9855470710246">
    <ele>23.4</ele>
   </trkpt>
   <trkpt lat="38.883427160940705" lon="-76.98495278531365">
    <ele>22.310000000000002</ele>
   </trkpt>
   <trkpt lat="38.88271144364555" lon="-76.98435851157565">
    <ele>21.67</ele>
   </trkpt>
   <trkpt lat="38.881995723338534" lon="-76.98376424981008">
    <ele>20.59</ele>
   </trkpt>
   <trkpt lat="38.881280000000004" lon="-76.98317">
    <ele>19.53</ele>
   </trkpt>
   <trkpt lat="38.881280000000004" lon="-76.98318">
    <ele>19.53</ele>
   </trkpt>
   <trkpt lat="38.881680020616045" lon="-76.98219669434566">
    <ele>20.1</ele>
   </trkpt>
   <trkpt lat="38.88208003298599" lon="-76.98121337761972">
    <ele>19.900000000000002</ele>
   </trkpt>
   <trkpt lat="38.88248003710961" lon="-76.98023004982211">
    <ele>19.69</ele>
   </trkpt>
   <trkpt lat="38.882880032986726" lon="-76.97924671095278">
    <ele>19.650000000000002</ele>
   </trkpt>
   <trkpt lat="38.8832800206171" lon="-76.97826336101166">
    <ele>19.41</ele>
   </trkpt>
   <trkpt lat="38.883680000000005" lon="-76.97728000000001">
    <ele>19.51</ele>
   </trkpt>
   <trkpt lat="38.883810000000004" lon="-76.97726">
    <ele>19.51</ele>
   </trkpt>
   <trkpt lat="38.88465999999864" lon="-76.97725857153114">
    <ele>19.78</ele>
   </trkpt>
   <trkpt lat="38.88550999999726" lon="-76.97725714302807">
    <ele>19.94</ele>
   </trkpt>
   <trkpt lat="38.88635999999586" lon="-76.97725571449084">
    <ele>19.41</ele>
   </trkpt>
   <trkpt lat="38.887209999994454" lon="-76.97725428591941">
    <ele>18.73</ele>
   </trkpt>
   <trkpt lat="38.88805999999302" lon="-76.97725285731381">
    <ele>18.02</ele>
   </trkpt>
   <trkpt lat="38.88890999999157" lon="-76.97725142867402">
    <ele>17.580000000000002</ele>
   </trkpt>
   <trkpt lat="38.88976" lon="-76.97725000000001">
    <ele>17.32</ele>
   </trkpt>
   <trkpt lat="38.889770000000006" lon="-76.97726">
    <ele>17.330000000000002</ele>
   </trkpt>
   <trkpt lat="38.88975000000001" lon="-76.97694000000001">
    <ele>17.12</ele>
   </trkpt>
   <trkpt lat="38.889700000000005" lon="-76.97673">
    <ele>16.790000000000003</ele>
   </trkpt>
   <trkpt lat="38.889520000000005" lon="-76.97645">
    <ele>16.64</ele>
   </trkpt>
   <trkpt lat="38.88949" lon="-76.97632">
    <ele>16.53</ele>
   </trkpt>
   <trkpt lat="38.88948500465684" lon="-76.97527499991912">
    <ele>15.96</ele>
   </trkpt>
   <trkpt lat="38.889480000000006" lon="-76.97423">
    <ele>15.02</ele>
   </trkpt>
   <trkpt lat="38.88947" lon="-76.97421">
    <ele>15.02</ele>
   </trkpt>
   <trkpt lat="38.889540000000004" lon="-76.97413">
    <ele>15.02</ele>
   </trkpt>
   <trkpt lat="38.88964" lon="-76.97408">
    <ele>14.76</ele>
   </trkpt>
   <trkpt lat="38.889790000000005" lon="-76.97407000000001">
    <ele>14.76</ele>
   </trkpt>
   <trkpt lat="38.88996" lon="-76.97408">
    <ele>14.49</ele>
   </trkpt>
   <trkpt lat="38.89016" lon="-76.97419000000001">
    <ele>14.39</ele>
   </trkpt>
   <trkpt lat="38.89012" lon="-76.97439">
    <ele>14.370000000000001</ele>
   </trkpt>
   <trkpt lat="38.89012000279792" lon="-76.97519999972305">
    <ele>15.0</ele>
   </trkpt>
   <trkpt lat="38.89012" lon="-76.97601">
    <ele>15.450000000000001</ele>
   </trkpt>
   <trkpt lat="38.890100000000004" lon="-76.97637">
    <ele>15.530000000000001</ele>
   </trkpt>
   <trkpt lat="38.89002" lon="-76.97657000000001">
    <ele>15.83</ele>
   </trkpt>
   <trkpt lat="38.889920000000004" lon="-76.97673">
    <ele>16.130000000000003</ele>
   </trkpt>
   <trkpt lat="38.889880000000005" lon="-76.97685000000001">
    <ele>16.130000000000003</ele>
   </trkpt>
   <trkpt lat="38.88983" lon="-76.97725000000001">
    <ele>17.150000000000002</ele>
   </trkpt>
   <trkpt lat="38.890580000017735" lon="-76.97725000000001">
    <ele>15.71</ele>
   </trkpt>
   <trkpt lat="38.891330000035474" lon="-76.97725000000001">
    <ele>14.41</ele>
   </trkpt>
   <trkpt lat="38.89208" lon="-76.97725000000001">
    <ele>12.88</ele>
   </trkpt>
   <trkpt lat="38.892640000166246" lon="-76.97724500003795">
    <ele>11.71</ele>
   </trkpt>
   <trkpt lat="38.8932" lon="-76.97724000000001">
    <ele>10.530000000000001</ele>
   </trkpt>
   <trkpt lat="38.89343" lon="-76.97726">
    <ele>9.760000000000002</ele>
   </trkpt>
   <trkpt lat="38.89343" lon="-76.97738000000001">
    <ele>9.98</ele>
   </trkpt>
   <trkpt lat="38.89343" lon="-76.97739">
    <ele>9.98</ele>
   </trkpt>
   <trkpt lat="38.893432510711214" lon="-76.97830499990083">
    <ele>11.82</ele>
   </trkpt>
   <trkpt lat="38.8934350142816" lon="-76.97921999986626">
    <ele>14.42</ele>
   </trkpt>
   <trkpt lat="38.893437510711195" lon="-76.98013499989608">
    <ele>16.34</ele>
   </trkpt>
   <trkpt lat="38.893440000000005" lon="-76.98105000000001">
    <ele>18.17</ele>
   </trkpt>
   <trkpt lat="38.89343" lon="-76.98151">
    <ele>18.42</ele>
   </trkpt>
   <trkpt lat="38.89338" lon="-76.98195000000001">
    <ele>19.250000000000004</ele>
   </trkpt>
   <trkpt lat="38.89338" lon="-76.98279000000001">
    <ele>20.400000000000002</ele>
   </trkpt>
   <trkpt lat="38.893390000000004" lon="-76.98305">
    <ele>20.71</ele>
   </trkpt>
   <trkpt lat="38.893440000000005" lon="-76.98335">
    <ele>21.16</ele>
   </trkpt>
   <trkpt lat="38.893550000000005" lon="-76.98366">
    <ele>21.490000000000002</ele>
   </trkpt>
   <trkpt lat="38.893600000000006" lon="-76.98366">
    <ele>21.460000000000004</ele>
   </trkpt>
   <trkpt lat="38.894360000135926" lon="-76.98365500005261">
    <ele>20.07</ele>
   </trkpt>
   <trkpt lat="38.895120000000006" lon="-76.98365000000001">
    <ele>18.1</ele>
   </trkpt>
   <trkpt lat="38.895845999993156" lon="-76.98365000000001">
    <ele>16.540000000000003</ele>
   </trkpt>
   <trkpt lat="38.89657199998632" lon="-76.98365000000001">
    <ele>14.650000000000002</ele>
   </trkpt>
   <trkpt lat="38.89729799997948" lon="-76.98365000000001">
    <ele>13.98</ele>
   </trkpt>
   <trkpt lat="38.898023999972644" lon="-76.98365000000001">
    <ele>13.22</ele>
   </trkpt>
   <trkpt lat="38.89875" lon="-76.98365000000001">
    <ele>12.770000000000001</ele>
   </trkpt>
   <trkpt lat="38.8988" lon="-76.98359">
    <ele>12.76</ele>
   </trkpt>
   <trkpt lat="38.898611691160305" lon="-76.98251831914489">
    <ele>12.32</ele>
   </trkpt>
   <trkpt lat="38.89842337252455" lon="-76.98144664397374">
    <ele>12.280000000000001</ele>
   </trkpt>
   <trkpt lat="38.898235044092864" lon="-76.98037497448676">
    <ele>12.32</ele>
   </trkpt>
   <trkpt lat="38.89804670586538" lon="-76.97930331068422">
    <ele>12.17</ele>
   </trkpt>
   <trkpt lat="38.89785835784219" lon="-76.9782316525663">
    <ele>11.31</ele>
   </trkpt>
   <trkpt lat="38.897670000000005" lon="-76.97716000000001">
    <ele>10.89</ele>
   </trkpt>
   <trkpt lat="38.897670000000005" lon="-76.97717">
    <ele>10.89</ele>
   </trkpt>
   <trkpt lat="38.89761" lon="-76.97685000000001">
    <ele>10.700000000000001</ele>
   </trkpt>
   <trkpt lat="38.89809000021042" lon="-76.9767150008752">
    <ele>11.06</ele>
   </trkpt>
   <trkpt lat="38.89857000000001" lon="-76.97658000000001">
    <ele>12.690000000000001</ele>
   </trkpt>
   <trkpt lat="38.89882" lon="-76.97640000000001">
    <ele>13.96</ele>
   </trkpt>
   <trkpt lat="38.89894" lon="-76.97625000000001">
    <ele>14.24</ele>
   </trkpt>
   <trkpt lat="38.899" lon="-76.97623">
    <ele>14.360000000000001</ele>
   </trkpt>
   <trkpt lat="38.89973999999411" lon="-76.97622750007818">
    <ele>16.540000000000003</ele>
   </trkpt>
   <trkpt lat="38.900479999988164" lon="-76.97622500010426">
    <ele>18.99</ele>
   </trkpt>
   <trkpt lat="38.90121999998217" lon="-76.97622250007824">
    <ele>21.85</ele>
   </trkpt>
   <trkpt lat="38.90196" lon="-76.97622000000001">
    <ele>26.44</ele>
   </trkpt>
   <trkpt lat="38.901920000000004" lon="-76.97632">
    <ele>26.6</ele>
   </trkpt>
   <trkpt lat="38.90191" lon="-76.97632">
    <ele>26.6</ele>
   </trkpt>
   <trkpt lat="38.90154667348086" lon="-76.97721334245833">
    <ele>23.990000000000002</ele>
   </trkpt>
   <trkpt lat="38.90118334015461" lon="-76.9781066757741">
    <ele>22.87</ele>
   </trkpt>
   <trkpt lat="38.90082" lon="-76.979">
    <ele>22.070000000000004</ele>
   </trkpt>
   <trkpt lat="38.901624999895475" lon="-76.979">
    <ele>25.200000000000003</ele>
   </trkpt>
   <trkpt lat="38.90243" lon="-76.979">
    <ele>29.27</ele>
   </trkpt>
   <trkpt lat="38.902420000000006" lon="-76.979">
    <ele>29.27</ele>
   </trkpt>
   <trkpt lat="38.90307000004777" lon="-76.97899500004542">
    <ele>31.41</ele>
   </trkpt>
   <trkpt lat="38.90372" lon="-76.97899000000001">
    <ele>32.86</ele>
   </trkpt>
   <trkpt lat="38.90372000376848" lon="-76.97992999989476">
    <ele>28.73</ele>
   </trkpt>
   <trkpt lat="38.90372" lon="-76.98087000000001">
    <ele>21.85</ele>
   </trkpt>
  </trkseg>
 </trk>
</gpx>