<?xml version='1.0' encoding='UTF-8'?>
<gpx xmlns="http://www.topografix.com/GPX/1/1" xmlns:xsi="http://www.w3.org/2001/XMLSchema-instance" creator="RouteMaker reference fixture" version="1.1" xsi:schemaLocation="http://www.topografix.com/GPX/1/1 http://www.topografix.com/GPX/1/1/gpx.xsd">
 <metadata>
  <name>Critical Mass Jan</name>
  <copyright author="OpenStreetMap contributors">
   <year>2020</year>
   <license>https://www.openstreetmap.org/copyright</license>
  </copyright>
  </metadata>
 <trk>
  <name>Critical Mass Jan</name>
  <type>cycling</type>
  <trkseg>
   <trkpt lat="38.90916" lon="-77.04319000000001">
    <ele>26.840000000000003</ele>
   </trkpt>
   <trkpt lat="38.90928" lon="-77.04297000000001">
    <ele>26.79</ele>
   </trkpt>
   <trkpt lat="38.909310000000005" lon="-77.04278000000001">
    <ele>26.72</ele>
   </trkpt>
   <trkpt lat="38.909380000000006" lon="-77.04272">
    <ele>26.7</ele>
   </trkpt>
   <trkpt lat="38.909490000000005" lon="-77.04268">
    <ele>26.79</ele>
   </trkpt>
   <trkpt lat="38.90955" lon="-77.04266000000001">
    <ele>26.79</ele>
   </trkpt>
   <trkpt lat="38.909760000000006" lon="-77.04267">
    <ele>27.080000000000002</ele>
   </trkpt>
   <trkpt lat="38.90992000000001" lon="-77.04276">
    <ele>27.080000000000002</ele>
   </trkpt>
   <trkpt lat="38.910050000000005" lon="-77.04286">
    <ele>27.240000000000002</ele>
   </trkpt>
   <trkpt lat="38.910140000000006" lon="-77.04297000000001">
    <ele>27.240000000000002</ele>
   </trkpt>
   <trkpt lat="38.91022" lon="-77.04313">
    <ele>27.470000000000002</ele>
   </trkpt>
   <trkpt lat="38.91030000000001" lon="-77.04359000000001">
    <ele>27.090000000000003</ele>
   </trkpt>
   <trkpt lat="38.91039000000001" lon="-77.04374">
    <ele>27.21</ele>
   </trkpt>
   <trkpt lat="38.911060000000006" lon="-77.04413000000001">
    <ele>28.430000000000003</ele>
   </trkpt>
   <trkpt lat="38.91105" lon="-77.04403">
    <ele>28.430000000000003</ele>
   </trkpt>
   <trkpt lat="38.91109" lon="-77.04404000000001">
    <ele>28.430000000000003</ele>
   </trkpt>
   <trkpt lat="38.9112" lon="-77.04413000000001">
    <ele>28.520000000000003</ele>
   </trkpt>
   <trkpt lat="38.9112" lon="-77.04422000000001">
    <ele>28.330000000000002</ele>
   </trkpt>
   <trkpt lat="38.911705000315706" lon="-77.04451999782505">
    <ele>28.53</ele>
   </trkpt>
   <trkpt lat="38.91221" lon="-77.04482">
    <ele>28.700000000000003</ele>
   </trkpt>
   <trkpt lat="38.912290000000006" lon="-77.04491">
    <ele>28.700000000000003</ele>
   </trkpt>
   <trkpt lat="38.912670000000006" lon="-77.04511000000001">
    <ele>29.120000000000005</ele>
   </trkpt>
   <trkpt lat="38.913345000618044" lon="-77.04550499621556">
    <ele>29.68</ele>
   </trkpt>
   <trkpt lat="38.91402" lon="-77.0459">
    <ele>32.06</ele>
   </trkpt>
   <trkpt lat="38.91423" lon="-77.04603">
    <ele>32.650000000000006</ele>
   </trkpt>
   <trkpt lat="38.91474" lon="-77.04617">
    <ele>35.35</ele>
   </trkpt>
   <trkpt lat="38.91536000026163" lon="-77.04622499954158">
    <ele>39.57</ele>
   </trkpt>
   <trkpt lat="38.915980000000005" lon="-77.04628000000001">
    <ele>43.75</ele>
   </trkpt>
   <trkpt lat="38.91622" lon="-77.04627">
    <ele>44.0</ele>
   </trkpt>
   <trkpt lat="38.91642" lon="-77.04631">
    <ele>45.43000000000001</ele>
   </trkpt>
   <trkpt lat="38.916560000000004" lon="-77.0463">
    <ele>46.57000000000001</ele>
   </trkpt>
   <trkpt lat="38.916700000000006" lon="-77.04626">
    <ele>46.8</ele>
   </trkpt>
   <trkpt lat="38.91698" lon="-77.04609">
    <ele>49.440000000000005</ele>
   </trkpt>
   <trkpt lat="38.917676668314485" lon="-77.04565667514655">
    <ele>52.49</ele>
   </trkpt>
   <trkpt lat="38.918373335027105" lon="-77.04522334178475">
    <ele>53.35</ele>
   </trkpt>
   <trkpt lat="38.919070000000005" lon="-77.04479">
    <ele>53.95</ele>
   </trkpt>
   <trkpt lat="38.91971" lon="-77.04437">
    <ele>54.86000000000001</ele>
   </trkpt>
   <trkpt lat="38.920190000269656" lon="-77.04413500157304">
    <ele>55.56</ele>
   </trkpt>
   <trkpt lat="38.92067" lon="-77.04390000000001">
    <ele>55.970000000000006</ele>
   </trkpt>
   <trkpt lat="38.92137500043956" lon="-77.04359500301202">
    <ele>55.290000000000006</ele>
   </trkpt>
   <trkpt lat="38.92208" lon="-77.04329000000001">
    <ele>54.18000000000001</ele>
   </trkpt>
   <trkpt lat="38.92224" lon="-77.04323000000001">
    <ele>53.900000000000006</ele>
   </trkpt>
   <trkpt lat="38.922320000000006" lon="-77.04317">
    <ele>53.900000000000006</ele>
   </trkpt>
   <trkpt lat="38.92248" lon="-77.04298">
    <ele>53.27</ele>
   </trkpt>
   <trkpt lat="38.922790000000006" lon="-77.04249">
    <ele>53.24</ele>
   </trkpt>
   <trkpt lat="38.92323667044281" lon="-77.04182334175059">
    <ele>54.38</ele>
   </trkpt>
   <trkpt lat="38.9236833370941" lon="-77.04115667510699">
    <ele>57.5</ele>
   </trkpt>
   <trkpt lat="38.924130000000005" lon="-77.04049">
    <ele>59.260000000000005</ele>
   </trkpt>
   <trkpt lat="38.92459" lon="-77.03977">
    <ele>59.71000000000001</ele>
   </trkpt>
   <trkpt lat="38.92503000000001" lon="-77.03904">
    <ele>60.120000000000005</ele>
   </trkpt>
   <trkpt lat="38.9254" lon="-77.03837">
    <ele>60.38</ele>
   </trkpt>
   <trkpt lat="38.92575500152814" lon="-77.03777000301511">
    <ele>60.300000000000004</ele>
   </trkpt>
   <trkpt lat="38.92611" lon="-77.03717">
    <ele>59.940000000000005</ele>
   </trkpt>
   <trkpt lat="38.926190000000005" lon="-77.03702000000001">
    <ele>59.84</ele>
   </trkpt>
   <trkpt lat="38.92629" lon="-77.03634000000001">
    <ele>59.65</ele>
   </trkpt>
   <trkpt lat="38.92633" lon="-77.03541000000001">
    <ele>61.08</ele>
   </trkpt>
   <trkpt lat="38.926383340087455" lon="-77.03452000139637">
    <ele>61.06</ele>
   </trkpt>
   <trkpt lat="38.92643667341731" lon="-77.03363000145445">
    <ele>60.77</ele>
   </trkpt>
   <trkpt lat="38.92649" lon="-77.03274">
    <ele>60.27</ele>
   </trkpt>
   <trkpt lat="38.926520000000004" lon="-77.03255">
    <ele>60.06</ele>
   </trkpt>
   <trkpt lat="38.92662" lon="-77.03231000000001">
    <ele>59.89000000000001</ele>
   </trkpt>
   <trkpt lat="38.926700000000004" lon="-77.03206">
    <ele>59.25</ele>
   </trkpt>
   <trkpt lat="38.926730000000006" lon="-77.03181000000001">
    <ele>58.980000000000004</ele>
   </trkpt>
   <trkpt lat="38.92673201469402" lon="-77.03088200010535">
    <ele>56.81</ele>
   </trkpt>
   <trkpt lat="38.92673402204101" lon="-77.0299540001581">
    <ele>54.57000000000001</ele>
   </trkpt>
   <trkpt lat="38.926736022041005" lon="-77.02902600015842">
    <ele>53.53</ele>
   </trkpt>
   <trkpt lat="38.92673801469401" lon="-77.02809800010652">
    <ele>51.22</ele>
   </trkpt>
   <trkpt lat="38.92674" lon="-77.02717000000001">
    <ele>49.690000000000005</ele>
   </trkpt>
   <trkpt lat="38.926840000000006" lon="-77.02608000000001">
    <ele>47.32</ele>
   </trkpt>
   <trkpt lat="38.926840000000006" lon="-77.02609000000001">
    <ele>47.32</ele>
   </trkpt>
   <trkpt lat="38.92685" lon="-77.02594">
    <ele>47.120000000000005</ele>
   </trkpt>
   <trkpt lat="38.92733999996023" lon="-77.0260149994722">
    <ele>47.620000000000005</ele>
   </trkpt>
   <trkpt lat="38.92783" lon="-77.02609000000001">
    <ele>48.470000000000006</ele>
   </trkpt>
   <trkpt lat="38.927910000000004" lon="-77.02606">
    <ele>48.470000000000006</ele>
   </trkpt>
   <trkpt lat="38.92853333338104" lon="-77.02615333168904">
    <ele>50.07</ele>
   </trkpt>
   <trkpt lat="38.92915666668776" lon="-77.02624666501838">
    <ele>51.870000000000005</ele>
   </trkpt>
   <trkpt lat="38.92978" lon="-77.02634">
    <ele>53.56</ele>
   </trkpt>
   <trkpt lat="38.92981" lon="-77.02599000000001">
    <ele>53.96</ele>
   </trkpt>
   <trkpt lat="38.92981" lon="-77.02598">
    <ele>53.980000000000004</ele>
   </trkpt>
   <trkpt lat="38.92990000384621" lon="-77.0250300012436">
    <ele>56.42</ele>
   </trkpt>
   <trkpt lat="38.929990000000004" lon="-77.02408000000001">
    <ele>58.72</ele>
   </trkpt>
   <trkpt lat="38.930020000000006" lon="-77.02356">
    <ele>59.93</ele>
   </trkpt>
   <trkpt lat="38.9299" lon="-77.02291000000001">
    <ele>59.52</ele>
   </trkpt>
   <trkpt lat="38.9299" lon="-77.02265000000001">
    <ele>58.84</ele>
   </trkpt>
   <trkpt lat="38.929990000000004" lon="-77.02166000000001">
    <ele>57.230000000000004</ele>
   </trkpt>
   <trkpt lat="38.93015401803166" lon="-77.02063200950886">
    <ele>58.1</ele>
   </trkpt>
   <trkpt lat="38.9303180270475" lon="-77.01960401426363">
    <ele>58.150000000000006</ele>
   </trkpt>
   <trkpt lat="38.9304820270474" lon="-77.0185760142646">
    <ele>57.120000000000005</ele>
   </trkpt>
   <trkpt lat="38.93064601803129" lon="-77.01754800951191">
    <ele>57.43</ele>
   </trkpt>
   <trkpt lat="38.93081" lon="-77.01652">
    <ele>59.17000000000001</ele>
   </trkpt>
   <trkpt lat="38.930890000000005" lon="-77.01618">
    <ele>59.550000000000004</ele>
   </trkpt>
   <trkpt lat="38.93088" lon="-77.016">
    <ele>59.57</ele>
   </trkpt>
   <trkpt lat="38.931000000000004" lon="-77.01580000000001">
    <ele>59.300000000000004</ele>
   </trkpt>
   <trkpt lat="38.931110000000004" lon="-77.01549">
    <ele>58.53</ele>
   </trkpt>
   <trkpt lat="38.931180000000005" lon="-77.01527">
    <ele>58.53</ele>
   </trkpt>
   <trkpt lat="38.931230000000006" lon="-77.01492">
    <ele>57.580000000000005</ele>
   </trkpt>
   <trkpt lat="38.93126000417438" lon="-77.01393000063338">
    <ele>55.95</ele>
   </trkpt>
   <trkpt lat="38.931290000000004" lon="-77.01294">
    <ele>54.760000000000005</ele>
   </trkpt>
   <trkpt lat="38.931290000000004" lon="-77.01236">
    <ele>55.64</ele>
   </trkpt>
   <trkpt lat="38.931200000000004" lon="-77.01205">
    <ele>55.77</ele>
   </trkpt>
   <trkpt lat="38.93120251612471" lon="-77.0109275001363">
    <ele>57.190000000000005</ele>
   </trkpt>
   <trkpt lat="38.93120502149958" lon="-77.00980500019313">
    <ele>58.60000000000001</ele>
   </trkpt>
   <trkpt lat="38.93120751612463" lon="-77.00868250017082">
    <ele>60.300000000000004</ele>
   </trkpt>
   <trkpt lat="38.93121" lon="-77.00756000000001">
    <ele>58.99000000000001</ele>
   </trkpt>
   <trkpt lat="38.931270000000005" lon="-77.00663">
    <ele>57.89</ele>
   </trkpt>
   <trkpt lat="38.93136000307537" lon="-77.00578000114157">
    <ele>56.59</ele>
   </trkpt>
   <trkpt lat="38.931450000000005" lon="-77.00493">
    <ele>54.96</ele>
   </trkpt>
   <trkpt lat="38.931450000000005" lon="-77.00461">
    <ele>54.02</ele>
   </trkpt>
   <trkpt lat="38.931430000000006" lon="-77.00439">
    <ele>54.02</ele>
   </trkpt>
   <trkpt lat="38.93132000000001" lon="-77.0039">
    <ele>53.35</ele>
   </trkpt>
   <trkpt lat="38.931230000000006" lon="-77.00372">
    <ele>53.06</ele>
   </trkpt>
   <trkpt lat="38.93072" lon="-77.00291">
    <ele>53.790000000000006</ele>
   </trkpt>
   <trkpt lat="38.93066" lon="-77.00278">
    <ele>54.14000000000001</ele>
   </trkpt>
   <trkpt lat="38.930640000000004" lon="-77.00265">
    <ele>54.71</ele>
   </trkpt>
   <trkpt lat="38.9307" lon="-77.00258000000001">
    <ele>54.84</ele>
   </trkpt>
   <trkpt lat="38.930730000000004" lon="-77.00253000000001">
    <ele>54.84</ele>
   </trkpt>
   <trkpt lat="38.93074" lon="-77.00228000000001">
    <ele>55.13</ele>
   </trkpt>
   <trkpt lat="38.93079" lon="-77.00211">
    <ele>55.27</ele>
   </trkpt>
   <trkpt lat="38.93122" lon="-77.0013">
    <ele>56.260000000000005</ele>
   </trkpt>
   <trkpt lat="38.93132000000001" lon="-77.00107000000001">
    <ele>56.38</ele>
   </trkpt>
   <trkpt lat="38.93121" lon="-77.00099">
    <ele>56.5</ele>
   </trkpt>
   <trkpt lat="38.93135" lon="-77.00067">
    <ele>56.78</ele>
   </trkpt>
   <trkpt lat="38.9317400081531" lon="-76.99969334403642">
    <ele>58.150000000000006</ele>
   </trkpt>
   <trkpt lat="38.93213000816819" lon="-76.99871667733215">
    <ele>59.79</ele>
   </trkpt>
   <trkpt lat="38.932520000000004" lon="-76.99774000000001">
    <ele>58.74000000000001</ele>
   </trkpt>
   <trkpt lat="38.932430000000004" lon="-76.99764">
    <ele>58.730000000000004</ele>
   </trkpt>
   <trkpt lat="38.932390000000005" lon="-76.99754">
    <ele>58.730000000000004</ele>
   </trkpt>
   <trkpt lat="38.932370000000006" lon="-76.99740000000001">
    <ele>57.49</ele>
   </trkpt>
   <trkpt lat="38.93237000555163" lon="-76.99659333332673">
    <ele>55.53</ele>
   </trkpt>
   <trkpt lat="38.93237000555163" lon="-76.99578666665342">
    <ele>53.75000000000001</ele>
   </trkpt>
   <trkpt lat="38.932370000000006" lon="-76.99498000000001">
    <ele>52.86000000000001</ele>
   </trkpt>
   <trkpt lat="38.932320000000004" lon="-76.99497000000001">
    <ele>52.86000000000001</ele>
   </trkpt>
   <trkpt lat="38.932320000000004" lon="-76.99463">
    <ele>53.470000000000006</ele>
   </trkpt>
   <trkpt lat="38.93236" lon="-76.9937">
    <ele>51.910000000000004</ele>
   </trkpt>
   <trkpt lat="38.93236" lon="-76.99347">
    <ele>51.49</ele>
   </trkpt>
   <trkpt lat="38.932390000000005" lon="-76.99284">
    <ele>50.99000000000001</ele>
   </trkpt>
   <trkpt lat="38.932410000000004" lon="-76.99273000000001">
    <ele>51.010000000000005</ele>
   </trkpt>
   <trkpt lat="38.93242" lon="-76.99251000000001">
    <ele>51.18</ele>
   </trkpt>
   <trkpt lat="38.93244500150033" lon="-76.99191500044499">
    <ele>52.51</ele>
   </trkpt>
   <trkpt lat="38.93247" lon="-76.99132">
    <ele>55.77</ele>
   </trkpt>
   <trkpt lat="38.93253" lon="-76.991">
    <ele>57.050000000000004</ele>
   </trkpt>
   <trkpt lat="38.932576014569946" lon="-76.99007600236283">
    <ele>58.53</ele>
   </trkpt>
   <trkpt lat="38.9326220218558" lon="-76.9891520035268">
    <ele>59.120000000000005</ele>
   </trkpt>
   <trkpt lat="38.932668021857545" lon="-76.98822800349213">
    <ele>60.60000000000001</ele>
   </trkpt>
   <trkpt lat="38.93271401457515" lon="-76.98730400225897">
    <ele>63.15000000000001</ele>
   </trkpt>
   <trkpt lat="38.93276" lon="-76.98638000000001">
    <ele>61.21000000000001</ele>
   </trkpt>
   <trkpt lat="38.93276" lon="-76.98637000000001">
    <ele>61.17</ele>
   </trkpt>
   <trkpt lat="38.93358999992862" lon="-76.98644499911369">
    <ele>58.150000000000006</ele>
   </trkpt>
   <trkpt lat="38.93442" lon="-76.98652000000001">
    <ele>51.75</ele>
   </trkpt>
   <trkpt lat="38.93482" lon="-76.98648">
    <ele>49.86</ele>
   </trkpt>
   <trkpt lat="38.93566142885887" lon="-76.9863757217089">
    <ele>52.68000000000001</ele>
   </trkpt>
   <trkpt lat="38.936502857624944" lon="-76.98627144094326">
    <ele>58.74000000000001</ele>
   </trkpt>
   <trkpt lat="38.937344286298256" lon="-76.98616715770292">
    <ele>55.18000000000001</ele>
   </trkpt>
   <trkpt lat="38.93818571487877" lon="-76.98606287198777">
    <ele>47.330000000000005</ele>
   </trkpt>
   <trkpt lat="38.939027143366495" lon="-76.9859585837977">
    <ele>40.42</ele>
   </trkpt>
   <trkpt lat="38.939868571761416" lon="-76.98585429313252">
    <ele>36.160000000000004</ele>
   </trkpt>
   <trkpt lat="38.94071" lon="-76.98575000000001">
    <ele>35.6</ele>
   </trkpt>
   <trkpt lat="38.940720000000006" lon="-76.98575000000001">
    <ele>35.6</ele>
   </trkpt>
   <trkpt lat="38.94072001492789" lon="-76.98466999996018">
    <ele>34.5</ele>
   </trkpt>
   <trkpt lat="38.94072001990386" lon="-76.98358999992006">
    <ele>34.22</ele>
   </trkpt>
   <trkpt lat="38.94072001492789" lon="-76.98250999987992">
    <ele>32.550000000000004</ele>
   </trkpt>
   <trkpt lat="38.940720000000006" lon="-76.98143">
    <ele>31.200000000000003</ele>
   </trkpt>
   <trkpt lat="38.94012" lon="-76.98079000000001">
    <ele>30.0</ele>
   </trkpt>
   <trkpt lat="38.939460000000004" lon="-76.98010000000001">
    <ele>29.280000000000005</ele>
   </trkpt>
   <trkpt lat="38.93870600005497" lon="-76.98004199753295">
    <ele>31.970000000000006</ele>
   </trkpt>
   <trkpt lat="38.93795200008124" lon="-76.97998399629937">
    <ele>32.300000000000004</ele>
   </trkpt>
   <trkpt lat="38.9371980000788" lon="-76.97992599629924">
    <ele>29.7</ele>
   </trkpt>
   <trkpt lat="38.93644400004766" lon="-76.9798679975325">
    <ele>27.01</ele>
   </trkpt>
   <trkpt lat="38.93569" lon="-76.97981">
    <ele>26.860000000000003</ele>
   </trkpt>
   <trkpt lat="38.935080000000006" lon="-76.97978">
    <ele>26.89</ele>
   </trkpt>
   <trkpt lat="38.93508000163983" lon="-76.97916000015522">
    <ele>26.12</ele>
   </trkpt>
   <trkpt lat="38.935080000000006" lon="-76.97854000000001">
    <ele>25.78</ele>
   </trkpt>
   <trkpt lat="38.935080000000006" lon="-76.97855000000001">
    <ele>25.79</ele>
   </trkpt>
   <trkpt lat="38.935080001613485" lon="-76.979164999789">
    <ele>26.17</ele>
   </trkpt>
   <trkpt lat="38.935080000000006" lon="-76.97978">
    <ele>26.89</ele>
   </trkpt>
   <trkpt lat="38.934555000169084" lon="-76.97972999964496">
    <ele>27.070000000000004</ele>
   </trkpt>
   <trkpt lat="38.93403" lon="-76.97968">
    <ele>27.92</ele>
   </trkpt>
   <trkpt lat="38.933191428673666" lon="-76.97961570972504">
    <ele>28.970000000000002</ele>
   </trkpt>
   <trkpt lat="38.932352857312075" lon="-76.97955142097034">
    <ele>30.890000000000004</ele>
   </trkpt>
   <trkpt lat="38.93151428591523" lon="-76.97948713373584">
    <ele>35.88</ele>
   </trkpt>
   <trkpt lat="38.93067571448312" lon="-76.97942284802144">
    <ele>43.17000000000001</ele>
   </trkpt>
   <trkpt lat="38.92983714301575" lon="-76.97935856382709">
    <ele>49.400000000000006</ele>
   </trkpt>
   <trkpt lat="38.92899857151313" lon="-76.97929428115266">
    <ele>49.580000000000005</ele>
   </trkpt>
   <trkpt lat="38.928160000000005" lon="-76.97923">
    <ele>48.68</ele>
   </trkpt>
   <trkpt lat="38.92810574533544" lon="-76.98033143362171">
    <ele>48.36000000000001</ele>
   </trkpt>
   <trkpt lat="38.92805148032102" lon="-76.98143286555843">
    <ele>50.60000000000001</ele>
   </trkpt>
   <trkpt lat="38.92799720495676" lon="-76.98253429580984">
    <ele>52.97</ele>
   </trkpt>
   <trkpt lat="38.92794291924272" lon="-76.98363572437563">
    <ele>54.00000000000001</ele>
   </trkpt>
   <trkpt lat="38.927888623178916" lon="-76.98473715125547">
    <ele>52.480000000000004</ele>
   </trkpt>
   <trkpt lat="38.92783431676539" lon="-76.98583857644907">
    <ele>47.980000000000004</ele>
   </trkpt>
   <trkpt lat="38.927780000000006" lon="-76.98694">
    <ele>50.43</ele>
   </trkpt>
   <trkpt lat="38.927780000000006" lon="-76.98695000000001">
    <ele>50.49000000000001</ele>
   </trkpt>
   <trkpt lat="38.92774500191134" lon="-76.98762000039818">
    <ele>55.510000000000005</ele>
   </trkpt>
   <trkpt lat="38.927710000000005" lon="-76.98829">
    <ele>58.78</ele>
   </trkpt>
   <trkpt lat="38.926884999893495" lon="-76.98822499923426">
    <ele>58.120000000000005</ele>
   </trkpt>
   <trkpt lat="38.92606" lon="-76.98816000000001">
    <ele>59.800000000000004</ele>
   </trkpt>
   <trkpt lat="38.92607" lon="-76.98816000000001">
    <ele>59.800000000000004</ele>
   </trkpt>
   <trkpt lat="38.92536666669709" lon="-76.98810666560965">
    <ele>57.78</ele>
   </trkpt>
   <trkpt lat="38.924663333369914" lon="-76.98805333227679">
    <ele>54.410000000000004</ele>
   </trkpt>
   <trkpt lat="38.92396" lon="-76.988">
    <ele>51.13</ele>
   </trkpt>
   <trkpt lat="38.92387" lon="-76.988">
    <ele>50.96</ele>
   </trkpt>
   <trkpt lat="38.923350000000006" lon="-76.98828">
    <ele>53.370000000000005</ele>
   </trkpt>
   <trkpt lat="38.923140000000004" lon="-76.98837">
    <ele>54.34</ele>
   </trkpt>
   <trkpt lat="38.92293" lon="-76.98844000000001">
    <ele>54.82000000000001</ele>
   </trkpt>
   <trkpt lat="38.922444999978936" lon="-76.98852500059014">
    <ele>53.82000000000001</ele>
   </trkpt>
   <trkpt lat="38.921960000000006" lon="-76.98861000000001">
    <ele>50.190000000000005</ele>
   </trkpt>
   <trkpt lat="38.921820000000004" lon="-76.98864">
    <ele>48.67</ele>
   </trkpt>
   <trkpt lat="38.921670000000006" lon="-76.98869">
    <ele>47.580000000000005</ele>
   </trkpt>
   <trkpt lat="38.92147000000001" lon="-76.98882">
    <ele>45.89000000000001</ele>
   </trkpt>
   <trkpt lat="38.92136" lon="-76.98897000000001">
    <ele>45.52</ele>
   </trkpt>
   <trkpt lat="38.9213" lon="-76.98912">
    <ele>44.99</ele>
   </trkpt>
   <trkpt lat="38.92125" lon="-76.9893">
    <ele>43.54</ele>
   </trkpt>
   <trkpt lat="38.92121" lon="-76.98935">
    <ele>43.54</ele>
   </trkpt>
   <trkpt lat="38.92107" lon="-76.9894">
    <ele>42.36</ele>
   </trkpt>
   <trkpt lat="38.92081" lon="-76.98956000000001">
    <ele>40.52</ele>
   </trkpt>
   <trkpt lat="38.92042500079163" lon="-76.99001500257685">
    <ele>38.2</ele>
   </trkpt>
   <trkpt lat="38.92004" lon="-76.99047">
    <ele>37.09</ele>
   </trkpt>
   <trkpt lat="38.91987" lon="-76.9907">
    <ele>36.99</ele>
   </trkpt>
   <trkpt lat="38.9193600046384" lon="-76.99130001289973">
    <ele>36.43000000000001</ele>
   </trkpt>
   <trkpt lat="38.9188500062056" lon="-76.9919000171746">
    <ele>38.510000000000005</ele>
   </trkpt>
   <trkpt lat="38.91834000470174" lon="-76.99250001282485">
    <ele>39.260000000000005</ele>
   </trkpt>
   <trkpt lat="38.91783" lon="-76.99310000000001">
    <ele>39.18000000000001</ele>
   </trkpt>
   <trkpt lat="38.917260000000006" lon="-76.99378">
    <ele>39.6</ele>
   </trkpt>
   <trkpt lat="38.9172" lon="-76.99382">
    <ele>39.6</ele>
   </trkpt>
   <trkpt lat="38.916990000000006" lon="-76.99384">
    <ele>39.900000000000006</ele>
   </trkpt>
   <trkpt lat="38.91631999994113" lon="-76.99384000000002">
    <ele>40.0</ele>
   </trkpt>
   <trkpt lat="38.91565000000001" lon="-76.99384">
    <ele>40.86</ele>
   </trkpt>
   <trkpt lat="38.915220000000005" lon="-76.99382">
    <ele>41.370000000000005</ele>
   </trkpt>
   <trkpt lat="38.915000000000006" lon="-76.99378">
    <ele>41.760000000000005</ele>
   </trkpt>
   <trkpt lat="38.914750000000005" lon="-76.9937">
    <ele>41.84</ele>
   </trkpt>
   <trkpt lat="38.91454" lon="-76.9936">
    <ele>42.150000000000006</ele>
   </trkpt>
   <trkpt lat="38.913966667546795" lon="-76.99326999464024">
    <ele>44.44</ele>
   </trkpt>
   <trkpt lat="38.9133933341646" lon="-76.99293999461219">
    <ele>47.74</ele>
   </trkpt>
   <trkpt lat="38.91282" lon="-76.99261000000001">
    <ele>48.56</ele>
   </trkpt>
   <trkpt lat="38.91223" lon="-76.99233000000001">
    <ele>47.99</ele>
   </trkpt>
   <trkpt lat="38.912090000000006" lon="-76.9923">
    <ele>47.730000000000004</ele>
   </trkpt>
   <trkpt lat="38.91172" lon="-76.99231">
    <ele>46.43000000000001</ele>
   </trkpt>
   <trkpt lat="38.91154" lon="-76.99235">
    <ele>45.64000000000001</ele>
   </trkpt>
   <trkpt lat="38.91133000000001" lon="-76.99244">
    <ele>45.2</ele>
   </trkpt>
   <trkpt lat="38.911150000000006" lon="-76.99255000000001">
    <ele>45.08</ele>
   </trkpt>
   <trkpt lat="38.910880000000006" lon="-76.99281">
    <ele>44.160000000000004</ele>
   </trkpt>
   <trkpt lat="38.91062" lon="-76.99314000000001">
    <ele>43.04</ele>
   </trkpt>
   <trkpt lat="38.910410000000006" lon="-76.99348">
    <ele>41.72</ele>
   </trkpt>
   <trkpt lat="38.910210000000006" lon="-76.99393">
    <ele>40.730000000000004</ele>
   </trkpt>
   <trkpt lat="38.909940000000006" lon="-76.99489000000001">
    <ele>37.99</ele>
   </trkpt>
   <trkpt lat="38.90984" lon="-76.99515000000001">
    <ele>37.34</ele>
   </trkpt>
   <trkpt lat="38.90975" lon="-76.99553">
    <ele>36.39000000000001</ele>
   </trkpt>
   <trkpt lat="38.909650000000006" lon="-76.99582000000001">
    <ele>35.53000000000001</ele>
   </trkpt>
   <trkpt lat="38.90957" lon="-76.99592000000001">
    <ele>35.190000000000005</ele>
   </trkpt>
   <trkpt lat="38.909026668113306" lon="-76.99632667286522">
    <ele>31.180000000000003</ele>
   </trkpt>
   <trkpt lat="38.908483334815884" lon="-76.99673333950493">
    <ele>29.01</ele>
   </trkpt>
   <trkpt lat="38.90794" lon="-76.99714">
    <ele>27.62</ele>
   </trkpt>
   <trkpt lat="38.90750500039859" lon="-76.99745500194807">
    <ele>26.55</ele>
   </trkpt>
   <trkpt lat="38.907070000000004" lon="-76.99777">
    <ele>24.880000000000003</ele>
   </trkpt>
   <trkpt lat="38.90695" lon="-76.99784000000001">
    <ele>24.880000000000003</ele>
   </trkpt>
   <trkpt lat="38.906180000000006" lon="-76.99838000000001">
    <ele>22.92</ele>
   </trkpt>
   <trkpt lat="38.90586333805041" lon="-76.99763666004445">
    <ele>22.19</ele>
   </trkpt>
   <trkpt lat="38.9055466713876" lon="-76.99689332672025">
    <ele>21.96</ele>
   </trkpt>
   <trkpt lat="38.90523" lon="-76.99615">
    <ele>20.650000000000002</ele>
   </trkpt>
   <trkpt lat="38.90518" lon="-76.99617">
    <ele>20.360000000000003</ele>
   </trkpt>
   <trkpt lat="38.90464500009724" lon="-76.99617">
    <ele>18.72</ele>
   </trkpt>
   <trkpt lat="38.90411" lon="-76.99617">
    <ele>16.55</ele>
   </trkpt>
   <trkpt lat="38.9041" lon="-76.99617">
    <ele>16.53</ele>
   </trkpt>
   <trkpt lat="38.90321222222042" lon="-76.99617111122227">
    <ele>14.260000000000002</ele>
   </trkpt>
   <trkpt lat="38.90232444444084" lon="-76.99617222241672">
    <ele>13.040000000000001</ele>
   </trkpt>
   <trkpt lat="38.901436666661255" lon="-76.99617333358341">
    <ele>11.46</ele>
   </trkpt>
   <trkpt lat="38.90054888888166" lon="-76.9961744447223">
    <ele>10.540000000000001</ele>
   </trkpt>
   <trkpt lat="38.89966111110205" lon="-76.9961755558334">
    <ele>10.22</ele>
   </trkpt>
   <trkpt lat="38.898773333322424" lon="-76.99617666691674">
    <ele>10.48</ele>
   </trkpt>
   <trkpt lat="38.89788555554279" lon="-76.99617777797228">
    <ele>14.08</ele>
   </trkpt>
   <trkpt lat="38.89699777776315" lon="-76.99617888900003">
    <ele>16.52</ele>
   </trkpt>
   <trkpt lat="38.89611" lon="-76.99618000000001">
    <ele>20.96</ele>
   </trkpt>
   <trkpt lat="38.89611" lon="-76.99619000000001">
    <ele>20.94</ele>
   </trkpt>
   <trkpt lat="38.89611251471634" lon="-76.99726249988372">
    <ele>20.68</ele>
   </trkpt>
   <trkpt lat="38.89611501962178" lon="-76.99833499984322">
    <ele>20.57</ele>
   </trkpt>
   <trkpt lat="38.896117514716316" lon="-76.99940749987825">
    <ele>20.310000000000002</ele>
   </trkpt>
   <trkpt lat="38.89612" lon="-77.00048000000001">
    <ele>19.970000000000002</ele>
   </trkpt>
   <trkpt lat="38.896116675367594" lon="-77.0014900000401">
    <ele>18.47</ele>
   </trkpt>
   <trkpt lat="38.89611334203445" lon="-77.00249999998552">
    <ele>17.46</ele>
   </trkpt>
   <trkpt lat="38.89611" lon="-77.00351">
    <ele>16.560000000000002</ele>
   </trkpt>
   <trkpt lat="38.89680999999349" lon="-77.00351">
    <ele>14.0</ele>
   </trkpt>
   <trkpt lat="38.89750999998698" lon="-77.00351">
    <ele>12.51</ele>
   </trkpt>
   <trkpt lat="38.898209999980466" lon="-77.00351">
    <ele>11.930000000000001</ele>
   </trkpt>
   <trkpt lat="38.89891" lon="-77.00351">
    <ele>11.690000000000001</ele>
   </trkpt>
   <trkpt lat="38.89948000000366" lon="-77.00351999991979">
    <ele>11.61</ele>
   </trkpt>
   <trkpt lat="38.90005" lon="-77.00353000000001">
    <ele>11.680000000000001</ele>
   </trkpt>
   <trkpt lat="38.90034" lon="-77.00358">
    <ele>11.760000000000002</ele>
   </trkpt>
   <trkpt lat="38.9007949998618" lon="-77.00358499996645">
    <ele>14.24</ele>
   </trkpt>
   <trkpt lat="38.901250000000005" lon="-77.00359">
    <ele>15.02</ele>
   </trkpt>
   <trkpt lat="38.90214" lon="-77.00359">
    <ele>12.47</ele>
   </trkpt>
   <trkpt lat="38.9024" lon="-77.00356000000001">
    <ele>12.020000000000001</ele>
   </trkpt>
   <trkpt lat="38.902570000000004" lon="-77.00356000000001">
    <ele>11.840000000000002</ele>
   </trkpt>
   <trkpt lat="38.902890000000006" lon="-77.00359">
    <ele>11.860000000000001</ele>
   </trkpt>
   <trkpt lat="38.903400000000005" lon="-77.00358">
    <ele>12.280000000000001</ele>
   </trkpt>
   <trkpt lat="38.90373" lon="-77.00356000000001">
    <ele>12.96</ele>
   </trkpt>
   <trkpt lat="38.90373" lon="-77.00364">
    <ele>12.89</ele>
   </trkpt>
   <trkpt lat="38.90374000539817" lon="-77.00476499988746">
    <ele>12.17</ele>
   </trkpt>
   <trkpt lat="38.90375" lon="-77.00589000000001">
    <ele>12.22</ele>
   </trkpt>
   <trkpt lat="38.90313000012394" lon="-77.00589">
    <ele>11.62</ele>
   </trkpt>
   <trkpt lat="38.90251000000001" lon="-77.00589000000001">
    <ele>11.600000000000001</ele>
   </trkpt>
   <trkpt lat="38.9025115011682" lon="-77.00703428541003">
    <ele>10.15</ele>
   </trkpt>
   <trkpt lat="38.90251299116766" lon="-77.00817857086828">
    <ele>10.38</ele>
   </trkpt>
   <trkpt lat="38.90251446999839" lon="-77.00932285637437">
    <ele>10.870000000000001</ele>
   </trkpt>
   <trkpt lat="38.902515937660404" lon="-77.01046714192795">
    <ele>11.750000000000002</ele>
   </trkpt>
   <trkpt lat="38.90251739415366" lon="-77.01161142752866">
    <ele>12.47</ele>
   </trkpt>
   <trkpt lat="38.90251883947821" lon="-77.01275571317613">
    <ele>13.19</ele>
   </trkpt>
   <trkpt lat="38.90252027363402" lon="-77.01389999887">
    <ele>14.700000000000001</ele>
   </trkpt>
   <trkpt lat="38.90252169662108" lon="-77.01504428460993">
    <ele>15.330000000000002</ele>
   </trkpt>
   <trkpt lat="38.90252310843941" lon="-77.01618857039554">
    <ele>15.75</ele>
   </trkpt>
   <trkpt lat="38.902524509089005" lon="-77.01733285622647">
    <ele>16.150000000000002</ele>
   </trkpt>
   <trkpt lat="38.90252589856987" lon="-77.01847714210238">
    <ele>16.3</ele>
   </trkpt>
   <trkpt lat="38.90252727688199" lon="-77.01962142802292">
    <ele>17.1</ele>
   </trkpt>
   <trkpt lat="38.90252864402537" lon="-77.02076571398767">
    <ele>18.19</ele>
   </trkpt>
   <trkpt lat="38.902530000000006" lon="-77.02191">
    <ele>19.560000000000002</ele>
   </trkpt>
   <trkpt lat="38.90252" lon="-77.02192000000001">
    <ele>19.560000000000002</ele>
   </trkpt>
   <trkpt lat="38.901719999998384" lon="-77.02192000000001">
    <ele>18.27</ele>
   </trkpt>
   <trkpt lat="38.90091999999677" lon="-77.02192000000001">
    <ele>17.2</ele>
   </trkpt>
   <trkpt lat="38.90011999999517" lon="-77.02192000000001">
    <ele>15.340000000000002</ele>
   </trkpt>
   <trkpt lat="38.89931999999356" lon="-77.02192000000001">
    <ele>14.730000000000002</ele>
   </trkpt>
   <trkpt lat="38.89851999999194" lon="-77.02192000000001">
    <ele>15.040000000000001</ele>
   </trkpt>
   <trkpt lat="38.89771999999033" lon="-77.02192000000001">
    <ele>14.63</ele>
   </trkpt>
   <trkpt lat="38.896919999988725" lon="-77.02192000000001">
    <ele>13.74</ele>
   </trkpt>
   <trkpt lat="38.89612" lon="-77.02192000000001">
    <ele>12.75</ele>
   </trkpt>
   <trkpt lat="38.89613000000001" lon="-77.02193000000001">
    <ele>12.76</ele>
   </trkpt>
   <trkpt lat="38.89613003088104" lon="-77.02302857144191">
    <ele>11.65</ele>
   </trkpt>
   <trkpt lat="38.896130051468404" lon="-77.02412714288461">
    <ele>9.62</ele>
   </trkpt>
   <trkpt lat="38.896130061762086" lon="-77.02522571432777">
    <ele>7.17</ele>
   </trkpt>
   <trkpt lat="38.896130061762086" lon="-77.02632428577111">
    <ele>6.95</ele>
   </trkpt>
   <trkpt lat="38.8961300514684" lon="-77.02742285721429">
    <ele>6.61</ele>
   </trkpt>
   <trkpt lat="38.89613003088104" lon="-77.02852142865697">
    <ele>6.470000000000001</ele>
   </trkpt>
   <trkpt lat="38.89613000000001" lon="-77.02962000000001">
    <ele>6.180000000000001</ele>
   </trkpt>
   <trkpt lat="38.89700071428341" lon="-77.0296214283437">
    <ele>11.500000000000002</ele>
   </trkpt>
   <trkpt lat="38.8978714285668" lon="-77.02962285672244">
    <ele>13.370000000000001</ele>
   </trkpt>
   <trkpt lat="38.89874214285017" lon="-77.02962428513618">
    <ele>13.8</ele>
   </trkpt>
   <trkpt lat="38.89961285713351" lon="-77.02962571358498">
    <ele>15.950000000000003</ele>
   </trkpt>
   <trkpt lat="38.900483571416856" lon="-77.0296271420688">
    <ele>16.94</ele>
   </trkpt>
   <trkpt lat="38.90135428570017" lon="-77.02962857058766">
    <ele>18.1</ele>
   </trkpt>
   <trkpt lat="38.902224999983474" lon="-77.02962999914155">
    <ele>22.81</ele>
   </trkpt>
   <trkpt lat="38.903095714266755" lon="-77.02963142773046">
    <ele>25.820000000000004</ele>
   </trkpt>
   <trkpt lat="38.90396642855003" lon="-77.02963285635444">
    <ele>26.6</ele>
   </trkpt>
   <trkpt lat="38.90483714283328" lon="-77.02963428501344">
    <ele>27.080000000000002</ele>
   </trkpt>
   <trkpt lat="38.9057078571165" lon="-77.02963571370749">
    <ele>26.680000000000003</ele>
   </trkpt>
   <trkpt lat="38.90657857139972" lon="-77.02963714243658">
    <ele>27.6</ele>
   </trkpt>
   <trkpt lat="38.90744928568292" lon="-77.02963857120075">
    <ele>28.21</ele>
   </trkpt>
   <trkpt lat="38.90832" lon="-77.02964">
    <ele>28.540000000000003</ele>
   </trkpt>
   <trkpt lat="38.90831" lon="-77.02964">
    <ele>28.540000000000003</ele>
   </trkpt>
   <trkpt lat="38.908570000000005" lon="-77.02964">
    <ele>28.630000000000003</ele>
   </trkpt>
   <trkpt lat="38.908660000000005" lon="-77.0296">
    <ele>28.59</ele>
   </trkpt>
   <trkpt lat="38.908860000000004" lon="-77.02958000000001">
    <ele>28.75</ele>
   </trkpt>
   <trkpt lat="38.909000000000006" lon="-77.02950000000001">
    <ele>28.580000000000002</ele>
   </trkpt>
   <trkpt lat="38.90905" lon="-77.02945000000001">
    <ele>28.71</ele>
   </trkpt>
   <trkpt lat="38.90928" lon="-77.0291">
    <ele>28.76</ele>
   </trkpt>
   <trkpt lat="38.909420000000004" lon="-77.02897">
    <ele>28.67</ele>
   </trkpt>
   <trkpt lat="38.909580000000005" lon="-77.02894">
    <ele>28.470000000000002</ele>
   </trkpt>
   <trkpt lat="38.909710000000004" lon="-77.02894">
    <ele>28.630000000000003</ele>
   </trkpt>
   <trkpt lat="38.909870000000005" lon="-77.02901">
    <ele>28.53</ele>
   </trkpt>
   <trkpt lat="38.91004" lon="-77.02916">
    <ele>28.64</ele>
   </trkpt>
   <trkpt lat="38.91011" lon="-77.02929">
    <ele>28.66</ele>
   </trkpt>
   <trkpt lat="38.910320000000006" lon="-77.02955">
    <ele>28.580000000000002</ele>
   </trkpt>
   <trkpt lat="38.91038" lon="-77.02958000000001">
    <ele>28.650000000000002</ele>
   </trkpt>
   <trkpt lat="38.910560000000004" lon="-77.02963000000001">
    <ele>28.770000000000003</ele>
   </trkpt>
   <trkpt lat="38.91142333333319" lon="-77.02963000000001">
    <ele>28.89</ele>
   </trkpt>
   <trkpt lat="38.91228666666636" lon="-77.02963000000001">
    <ele>29.380000000000003</ele>
   </trkpt>
   <trkpt lat="38.91315" lon="-77.02963000000001">
    <ele>29.19</ele>
   </trkpt>
   <trkpt lat="38.913160000000005" lon="-77.02963000000001">
    <ele>29.19</ele>
   </trkpt>
   <trkpt lat="38.91392600002403" lon="-77.0296280000863">
    <ele>28.76</ele>
   </trkpt>
   <trkpt lat="38.914692000048014" lon="-77.02962600012941">
    <ele>28.55</ele>
   </trkpt>
   <trkpt lat="38.915458000071965" lon="-77.02962400012935">
    <ele>28.180000000000003</ele>
   </trkpt>
   <trkpt lat="38.91622400009589" lon="-77.02962200008612">
    <ele>28.91</ele>
   </trkpt>
   <trkpt lat="38.916990000000006" lon="-77.02962000000001">
    <ele>29.960000000000004</ele>
   </trkpt>
   <trkpt lat="38.917" lon="-77.02962000000001">
    <ele>29.980000000000004</ele>
   </trkpt>
   <trkpt lat="38.917000005640894" lon="-77.02846999992416">
    <ele>29.200000000000003</ele>
   </trkpt>
   <trkpt lat="38.917" lon="-77.02732">
    <ele>28.690000000000005</ele>
   </trkpt>
  </trkseg>
 </trk>
</gpx>