<?xml version='1.0' encoding='UTF-8'?>
<gpx xmlns="http://www.topografix.com/GPX/1/1" xmlns:xsi="http://www.w3.org/2001/XMLSchema-instance" version="1.1" creator="RouteMaker reference fixture" xsi:schemaLocation="http://www.topografix.com/GPX/1/1 http://www.topografix.com/GPX/1/1/gpx.xsd http://www.cluetrust.com/XML/GPXDATA/1/0 http://www.cluetrust.com/Schemas/gpxdata10.xsd">
  <metadata>
    <name>VeloPigs Two Bridges CW</name>
    <link href="https://ridewithgps.com/routes/44993488">
      <text>VeloPigs Two Bridges CW</text>
    </link>
    <time>2023-11-16T09:31:15Z</time>
  </metadata>
  <trk>
    <name>VeloPigs Two Bridges CW</name>
    <trkseg>
      <trkpt lat="39.11042" lon="-77.56308">
        <ele>94.4</ele>
      </trkpt>
      <trkpt lat="39.11045" lon="-77.56309">
        <ele>94.5</ele>
      </trkpt>
      <trkpt lat="39.11043" lon="-77.56327">
        <ele>94.1</ele>
      </trkpt>
      <trkpt lat="39.11044" lon="-77.56334">
        <ele>94.0</ele>
      </trkpt>
      <trkpt lat="39.11048" lon="-77.56342">
        <ele>94.0</ele>
      </trkpt>
      <trkpt lat="39.11048" lon="-77.56342">
        <ele>94.0</ele>
      </trkpt>
      <trkpt lat="39.11048" lon="-77.56342">
        <ele>94.0</ele>
      </trkpt>
      <trkpt lat="39.11064" lon="-77.56355">
        <ele>94.2</ele>
      </trkpt>
      <trkpt lat="39.11081" lon="-77.56362">
        <ele>94.6</ele>
      </trkpt>
      <trkpt lat="39.11087" lon="-77.56367">
        <ele>94.6</ele>
      </trkpt>
      <trkpt lat="39.11092" lon="-77.56374">
        <ele>94.7</ele>
      </trkpt>
      <trkpt lat="39.11106" lon="-77.56406">
        <ele>94.5</ele>
      </trkpt>
      <trkpt lat="39.11136" lon="-77.56464">
        <ele>94.3</ele>
      </trkpt>
      <trkpt lat="39.1114" lon="-77.56481">
        <ele>94.2</ele>
      </trkpt>
      <trkpt lat="39.11149" lon="-77.56509">
        <ele>94.2</ele>
      </trkpt>
      <trkpt lat="39.11155" lon="-77.56522">
        <ele>94.5</ele>
      </trkpt>
      <trkpt lat="39.11197" lon="-77.56605">
        <ele>94.8</ele>
      </trkpt>
      <trkpt lat="39.11201" lon="-77.56617">
        <ele>95.1</ele>
      </trkpt>
      <trkpt lat="39.11216" lon="-77.56637">
        <ele>95.4</ele>
      </trkpt>
      <trkpt lat="39.11244" lon="-77.56696">
        <ele>95.8</ele>
      </trkpt>
      <trkpt lat="39.11271" lon="-77.56776">
        <ele>96.5</ele>
      </trkpt>
      <trkpt lat="39.11299" lon="-77.56869">
        <ele>96.9</ele>
      </trkpt>
      <trkpt lat="39.11323" lon="-77.56972">
        <ele>98.3</ele>
      </trkpt>
      <trkpt lat="39.11335" lon="-77.57055">
        <ele>100.0</ele>
      </trkpt>
      <trkpt lat="39.11347" lon="-77.57137">
        <ele>100.2</ele>
      </trkpt>
      <trkpt lat="39.11351" lon="-77.57221">
        <ele>101.2</ele>
      </trkpt>
      <trkpt lat="39.11352" lon="-77.57261">
        <ele>101.6</ele>
      </trkpt>
      <trkpt lat="39.11348" lon="-77.57373">
        <ele>103.1</ele>
      </trkpt>
      <trkpt lat="39.11341" lon="-77.57458">
        <ele>104.1</ele>
      </trkpt>
      <trkpt lat="39.11323" lon="-77.57566">
        <ele>105.2</ele>
      </trkpt>
      <trkpt lat="39.11315" lon="-77.57605">
        <ele>106.1</ele>
      </trkpt>
      <trkpt lat="39.11296" lon="-77.57683">
        <ele>107.0</ele>
      </trkpt>
      <trkpt lat="39.11277" lon="-77.57762">
        <ele>108.4</ele>
      </trkpt>
      <trkpt lat="39.11251" lon="-77.57865">
        <ele>110.3</ele>
      </trkpt>
      <trkpt lat="39.11225" lon="-77.57968">
        <ele>111.5</ele>
      </trkpt>
      <trkpt lat="39.11198" lon="-77.5807">
        <ele>112.3</ele>
      </trkpt>
      <trkpt lat="39.11172" lon="-77.58173">
        <ele>115.0</ele>
      </trkpt>
      <trkpt lat="39.11145" lon="-77.58276">
        <ele>115.4</ele>
      </trkpt>
      <trkpt lat="39.11119" lon="-77.58379">
        <ele>118.4</ele>
      </trkpt>
      <trkpt lat="39.11097" lon="-77.5846">
        <ele>118.4</ele>
      </trkpt>
      <trkpt lat="39.11075" lon="-77.58541">
        <ele>118.0</ele>
      </trkpt>
      <trkpt lat="39.11054" lon="-77.58622">
        <ele>119.7</ele>
      </trkpt>
      <trkpt lat="39.11044" lon="-77.58667">
        <ele>120.3</ele>
      </trkpt>
      <trkpt lat="39.11037" lon="-77.58726">
        <ele>120.8</ele>
      </trkpt>
      <trkpt lat="39.11037" lon="-77.58789">
        <ele>121.4</ele>
      </trkpt>
      <trkpt lat="39.11035" lon="-77.58826">
        <ele>121.8</ele>
      </trkpt>
      <trkpt lat="39.11035" lon="-77.58846">
        <ele>122.0</ele>
      </trkpt>
      <trkpt lat="39.11037" lon="-77.58884">
        <ele>122.4</ele>
      </trkpt>
      <trkpt lat="39.11048" lon="-77.58947">
        <ele>124.0</ele>
      </trkpt>
      <trkpt lat="39.1106" lon="-77.58989">
        <ele>124.2</ele>
      </trkpt>
      <trkpt lat="39.11074" lon="-77.5903">
        <ele>123.8</ele>
      </trkpt>
      <trkpt lat="39.11113" lon="-77.59124">
        <ele>122.5</ele>
      </trkpt>
      <trkpt lat="39.11151" lon="-77.59219">
        <ele>123.4</ele>
      </trkpt>
      <trkpt lat="39.11186" lon="-77.59295">
        <ele>123.4</ele>
      </trkpt>
      <trkpt lat="39.11221" lon="-77.59371">
        <ele>122.9</ele>
      </trkpt>
      <trkpt lat="39.11252" lon="-77.59434">
        <ele>123.7</ele>
      </trkpt>
      <trkpt lat="39.11281" lon="-77.59499">
        <ele>127.9</ele>
      </trkpt>
      <trkpt lat="39.11312" lon="-77.59558">
        <ele>127.5</ele>
      </trkpt>
      <trkpt lat="39.11344" lon="-77.59617">
        <ele>128.3</ele>
      </trkpt>
      <trkpt lat="39.1138" lon="-77.59681">
        <ele>121.6</ele>
      </trkpt>
      <trkpt lat="39.11415" lon="-77.59744">
        <ele>128.6</ele>
      </trkpt>
      <trkpt lat="39.11451" lon="-77.59807">
        <ele>131.5</ele>
      </trkpt>
      <trkpt lat="39.11488" lon="-77.59869">
        <ele>133.6</ele>
      </trkpt>
      <trkpt lat="39.11537" lon="-77.59947">
        <ele>135.8</ele>
      </trkpt>
      <trkpt lat="39.11575" lon="-77.59999">
        <ele>136.2</ele>
      </trkpt>
      <trkpt lat="39.115956" lon="-77.600247">
        <ele>136.3</ele>
      </trkpt>
      <trkpt lat="39.115956" lon="-77.600247">
        <ele>136.3</ele>
      </trkpt>
      <trkpt lat="39.117159" lon="-77.601656">
        <ele>138.8</ele>
      </trkpt>
      <trkpt lat="39.116421" lon="-77.602178">
        <ele>135.8</ele>
      </trkpt>
      <trkpt lat="39.116421" lon="-77.602178">
        <ele>135.8</ele>
      </trkpt>
      <trkpt lat="39.115119" lon="-77.602111">
        <ele>126.3</ele>
      </trkpt>
      <trkpt lat="39.115119" lon="-77.602111">
        <ele>126.3</ele>
      </trkpt>
      <trkpt lat="39.114852" lon="-77.603275">
        <ele>122.5</ele>
      </trkpt>
      <trkpt lat="39.114852" lon="-77.603275">
        <ele>122.5</ele>
      </trkpt>
      <trkpt lat="39.113918" lon="-77.602968">
        <ele>124.1</ele>
      </trkpt>
      <trkpt lat="39.11383" lon="-77.60341">
        <ele>128.0</ele>
      </trkpt>
      <trkpt lat="39.11367" lon="-77.60422">
        <ele>134.3</ele>
      </trkpt>
      <trkpt lat="39.11368" lon="-77.60448">
        <ele>137.2</ele>
      </trkpt>
      <trkpt lat="39.11377" lon="-77.60477">
        <ele>140.7</ele>
      </trkpt>
      <trkpt lat="39.11395" lon="-77.60513">
        <ele>145.6</ele>
      </trkpt>
      <trkpt lat="39.11443" lon="-77.60593">
        <ele>152.7</ele>
      </trkpt>
      <trkpt lat="39.11478" lon="-77.60658">
        <ele>152.7</ele>
      </trkpt>
      <trkpt lat="39.11484" lon="-77.60676">
        <ele>152.7</ele>
      </trkpt>
      <trkpt lat="39.11491" lon="-77.60708">
        <ele>154.4</ele>
      </trkpt>
      <trkpt lat="39.11492" lon="-77.60743">
        <ele>157.0</ele>
      </trkpt>
      <trkpt lat="39.11482" lon="-77.60826">
        <ele>158.7</ele>
      </trkpt>
      <trkpt lat="39.11481" lon="-77.60852">
        <ele>159.2</ele>
      </trkpt>
      <trkpt lat="39.11483" lon="-77.60953">
        <ele>158.6</ele>
      </trkpt>
      <trkpt lat="39.11486" lon="-77.61054">
        <ele>163.2</ele>
      </trkpt>
      <trkpt lat="39.11488" lon="-77.61156">
        <ele>172.8</ele>
      </trkpt>
      <trkpt lat="39.11485" lon="-77.61177">
        <ele>173.7</ele>
      </trkpt>
      <trkpt lat="39.11456" lon="-77.6128">
        <ele>180.6</ele>
      </trkpt>
      <trkpt lat="39.11452" lon="-77.61302">
        <ele>182.4</ele>
      </trkpt>
      <trkpt lat="39.1145" lon="-77.61328">
        <ele>182.9</ele>
      </trkpt>
      <trkpt lat="39.11453" lon="-77.61382">
        <ele>184.1</ele>
      </trkpt>
      <trkpt lat="39.11462" lon="-77.61441">
        <ele>186.7</ele>
      </trkpt>
      <trkpt lat="39.1147" lon="-77.615">
        <ele>191.1</ele>
      </trkpt>
      <trkpt lat="39.1148" lon="-77.6156">
        <ele>195.2</ele>
      </trkpt>
      <trkpt lat="39.1149" lon="-77.6164">
        <ele>195.6</ele>
      </trkpt>
      <trkpt lat="39.115" lon="-77.61721">
        <ele>196.7</ele>
      </trkpt>
      <trkpt lat="39.11511" lon="-77.61785">
        <ele>200.6</ele>
      </trkpt>
      <trkpt lat="39.11511" lon="-77.61802">
        <ele>202.4</ele>
      </trkpt>
      <trkpt lat="39.11505" lon="-77.61819">
        <ele>204.3</ele>
      </trkpt>
      <trkpt lat="39.11481" lon="-77.61874">
        <ele>208.1</ele>
      </trkpt>
      <trkpt lat="39.11462" lon="-77.61908">
        <ele>210.5</ele>
      </trkpt>
      <trkpt lat="39.11423" lon="-77.61963">
        <ele>212.9</ele>
      </trkpt>
      <trkpt lat="39.11384" lon="-77.62017">
        <ele>214.4</ele>
      </trkpt>
      <trkpt lat="39.11334" lon="-77.62096">
        <ele>215.1</ele>
      </trkpt>
      <trkpt lat="39.1129" lon="-77.62171">
        <ele>217.3</ele>
      </trkpt>
      <trkpt lat="39.11268" lon="-77.6222">
        <ele>217.0</ele>
      </trkpt>
      <trkpt lat="39.11229" lon="-77.62311">
        <ele>214.5</ele>
      </trkpt>
      <trkpt lat="39.11217" lon="-77.6235">
        <ele>214.2</ele>
      </trkpt>
      <trkpt lat="39.11207" lon="-77.62394">
        <ele>214.3</ele>
      </trkpt>
      <trkpt lat="39.11198" lon="-77.62442">
        <ele>215.2</ele>
      </trkpt>
      <trkpt lat="39.11183" lon="-77.62537">
        <ele>219.7</ele>
      </trkpt>
      <trkpt lat="39.11177" lon="-77.62556">
        <ele>221.3</ele>
      </trkpt>
      <trkpt lat="39.11144" lon="-77.6262">
        <ele>225.9</ele>
      </trkpt>
      <trkpt lat="39.11111" lon="-77.62685">
        <ele>229.1</ele>
      </trkpt>
      <trkpt lat="39.11104" lon="-77.62704">
        <ele>229.6</ele>
      </trkpt>
      <trkpt lat="39.11096" lon="-77.62746">
        <ele>232.0</ele>
      </trkpt>
      <trkpt lat="39.11091" lon="-77.62825">
        <ele>235.1</ele>
      </trkpt>
      <trkpt lat="39.11089" lon="-77.62888">
        <ele>240.1</ele>
      </trkpt>
      <trkpt lat="39.11086" lon="-77.62921">
        <ele>241.9</ele>
      </trkpt>
      <trkpt lat="39.1108" lon="-77.62959">
        <ele>242.0</ele>
      </trkpt>
      <trkpt lat="39.11041" lon="-77.63061">
        <ele>238.3</ele>
      </trkpt>
      <trkpt lat="39.11002" lon="-77.63123">
        <ele>232.9</ele>
      </trkpt>
      <trkpt lat="39.10976" lon="-77.63174">
        <ele>227.8</ele>
      </trkpt>
      <trkpt lat="39.10989" lon="-77.6318">
        <ele>228.5</ele>
      </trkpt>
      <trkpt lat="39.11021" lon="-77.63181">
        <ele>230.3</ele>
      </trkpt>
      <trkpt lat="39.11097" lon="-77.63189">
        <ele>230.6</ele>
      </trkpt>
      <trkpt lat="39.11173" lon="-77.63197">
        <ele>230.6</ele>
      </trkpt>
      <trkpt lat="39.1125" lon="-77.63205">
        <ele>226.3</ele>
      </trkpt>
      <trkpt lat="39.11259" lon="-77.63209">
        <ele>225.8</ele>
      </trkpt>
      <trkpt lat="39.11284" lon="-77.63204">
        <ele>223.8</ele>
      </trkpt>
      <trkpt lat="39.11309" lon="-77.63193">
        <ele>221.8</ele>
      </trkpt>
      <trkpt lat="39.11345" lon="-77.63182">
        <ele>220.6</ele>
      </trkpt>
      <trkpt lat="39.11412" lon="-77.63153">
        <ele>220.6</ele>
      </trkpt>
      <trkpt lat="39.11421" lon="-77.63151">
        <ele>220.5</ele>
      </trkpt>
      <trkpt lat="39.1143" lon="-77.63158">
        <ele>220.3</ele>
      </trkpt>
      <trkpt lat="39.11449" lon="-77.63178">
        <ele>218.9</ele>
      </trkpt>
      <trkpt lat="39.11478" lon="-77.63193">
        <ele>216.1</ele>
      </trkpt>
      <trkpt lat="39.11531" lon="-77.63215">
        <ele>210.1</ele>
      </trkpt>
      <trkpt lat="39.11584" lon="-77.63237">
        <ele>205.4</ele>
      </trkpt>
      <trkpt lat="39.11629" lon="-77.63258">
        <ele>202.5</ele>
      </trkpt>
      <trkpt lat="39.11679" lon="-77.6328">
        <ele>201.9</ele>
      </trkpt>
      <trkpt lat="39.1173" lon="-77.63302">
        <ele>198.9</ele>
      </trkpt>
      <trkpt lat="39.11755" lon="-77.63311">
        <ele>196.4</ele>
      </trkpt>
      <trkpt lat="39.11764" lon="-77.63313">
        <ele>195.9</ele>
      </trkpt>
      <trkpt lat="39.11762" lon="-77.63329">
        <ele>194.7</ele>
      </trkpt>
      <trkpt lat="39.11747" lon="-77.63379">
        <ele>188.5</ele>
      </trkpt>
      <trkpt lat="39.1174" lon="-77.63412">
        <ele>185.4</ele>
      </trkpt>
      <trkpt lat="39.11737" lon="-77.63481">
        <ele>178.8</ele>
      </trkpt>
      <trkpt lat="39.1173" lon="-77.63503">
        <ele>178.1</ele>
      </trkpt>
      <trkpt lat="39.11718" lon="-77.63521">
        <ele>177.4</ele>
      </trkpt>
      <trkpt lat="39.1169" lon="-77.63531">
        <ele>175.2</ele>
      </trkpt>
      <trkpt lat="39.11655" lon="-77.63538">
        <ele>170.6</ele>
      </trkpt>
      <trkpt lat="39.1165" lon="-77.63542">
        <ele>169.8</ele>
      </trkpt>
      <trkpt lat="39.11648" lon="-77.63554">
        <ele>168.6</ele>
      </trkpt>
      <trkpt lat="39.11665" lon="-77.63647">
        <ele>160.6</ele>
      </trkpt>
      <trkpt lat="39.11682" lon="-77.6374">
        <ele>155.5</ele>
      </trkpt>
      <trkpt lat="39.11687" lon="-77.63756">
        <ele>153.9</ele>
      </trkpt>
      <trkpt lat="39.11696" lon="-77.63775">
        <ele>152.0</ele>
      </trkpt>
      <trkpt lat="39.11702" lon="-77.63798">
        <ele>151.0</ele>
      </trkpt>
      <trkpt lat="39.11734" lon="-77.63879">
        <ele>147.3</ele>
      </trkpt>
      <trkpt lat="39.11761" lon="-77.63958">
        <ele>143.6</ele>
      </trkpt>
      <trkpt lat="39.11788" lon="-77.64038">
        <ele>140.9</ele>
      </trkpt>
      <trkpt lat="39.11815" lon="-77.64118">
        <ele>139.7</ele>
      </trkpt>
      <trkpt lat="39.1186" lon="-77.64214">
        <ele>142.4</ele>
      </trkpt>
      <trkpt lat="39.11906" lon="-77.64309">
        <ele>141.6</ele>
      </trkpt>
      <trkpt lat="39.11927" lon="-77.64346">
        <ele>139.9</ele>
      </trkpt>
      <trkpt lat="39.11956" lon="-77.64387">
        <ele>137.7</ele>
      </trkpt>
      <trkpt lat="39.11969" lon="-77.64399">
        <ele>136.7</ele>
      </trkpt>
      <trkpt lat="39.12029" lon="-77.64466">
        <ele>137.6</ele>
      </trkpt>
      <trkpt lat="39.1206" lon="-77.64524">
        <ele>141.2</ele>
      </trkpt>
      <trkpt lat="39.12092" lon="-77.64581">
        <ele>144.7</ele>
      </trkpt>
      <trkpt lat="39.12117" lon="-77.64633">
        <ele>149.2</ele>
      </trkpt>
      <trkpt lat="39.12131" lon="-77.64655">
        <ele>151.0</ele>
      </trkpt>
      <trkpt lat="39.12168" lon="-77.64722">
        <ele>154.0</ele>
      </trkpt>
      <trkpt lat="39.12206" lon="-77.64789">
        <ele>154.7</ele>
      </trkpt>
      <trkpt lat="39.12244" lon="-77.64856">
        <ele>154.8</ele>
      </trkpt>
      <trkpt lat="39.12272" lon="-77.6491">
        <ele>157.7</ele>
      </trkpt>
      <trkpt lat="39.12325" lon="-77.65">
        <ele>156.2</ele>
      </trkpt>
      <trkpt lat="39.12332" lon="-77.65006">
        <ele>155.9</ele>
      </trkpt>
      <trkpt lat="39.1236" lon="-77.65019">
        <ele>153.5</ele>
      </trkpt>
      <trkpt lat="39.12388" lon="-77.65028">
        <ele>151.6</ele>
      </trkpt>
      <trkpt lat="39.1243" lon="-77.65037">
        <ele>150.4</ele>
      </trkpt>
      <trkpt lat="39.12454" lon="-77.65045">
        <ele>152.1</ele>
      </trkpt>
      <trkpt lat="39.12472" lon="-77.65056">
        <ele>153.8</ele>
      </trkpt>
      <trkpt lat="39.12479" lon="-77.65063">
        <ele>154.5</ele>
      </trkpt>
      <trkpt lat="39.12505" lon="-77.65095">
        <ele>154.4</ele>
      </trkpt>
      <trkpt lat="39.12538" lon="-77.65143">
        <ele>155.5</ele>
      </trkpt>
      <trkpt lat="39.1257" lon="-77.65235">
        <ele>158.6</ele>
      </trkpt>
      <trkpt lat="39.12586" lon="-77.65273">
        <ele>158.8</ele>
      </trkpt>
      <trkpt lat="39.12611" lon="-77.65319">
        <ele>159.1</ele>
      </trkpt>
      <trkpt lat="39.12629" lon="-77.65357">
        <ele>160.6</ele>
      </trkpt>
      <trkpt lat="39.12647" lon="-77.654">
        <ele>160.5</ele>
      </trkpt>
      <trkpt lat="39.12659" lon="-77.65418">
        <ele>159.1</ele>
      </trkpt>
      <trkpt lat="39.12668" lon="-77.65424">
        <ele>158.4</ele>
      </trkpt>
      <trkpt lat="39.12689" lon="-77.65432">
        <ele>155.9</ele>
      </trkpt>
      <trkpt lat="39.12689" lon="-77.65432">
        <ele>155.9</ele>
      </trkpt>
      <trkpt lat="39.12753" lon="-77.65438">
        <ele>149.8</ele>
      </trkpt>
      <trkpt lat="39.12779" lon="-77.65435">
        <ele>151.3</ele>
      </trkpt>
      <trkpt lat="39.12852" lon="-77.65444">
        <ele>155.5</ele>
      </trkpt>
      <trkpt lat="39.12925" lon="-77.65453">
        <ele>156.3</ele>
      </trkpt>
      <trkpt lat="39.12998" lon="-77.65462">
        <ele>156.6</ele>
      </trkpt>
      <trkpt lat="39.13069" lon="-77.65465">
        <ele>158.5</ele>
      </trkpt>
      <trkpt lat="39.13141" lon="-77.65467">
        <ele>163.9</ele>
      </trkpt>
      <trkpt lat="39.13213" lon="-77.6547">
        <ele>163.8</ele>
      </trkpt>
      <trkpt lat="39.13285" lon="-77.65473">
        <ele>162.8</ele>
      </trkpt>
      <trkpt lat="39.13348" lon="-77.65474">
        <ele>164.5</ele>
      </trkpt>
      <trkpt lat="39.13419" lon="-77.65479">
        <ele>160.8</ele>
      </trkpt>
      <trkpt lat="39.13434" lon="-77.65402">
        <ele>159.9</ele>
      </trkpt>
      <trkpt lat="39.13449" lon="-77.65326">
        <ele>160.5</ele>
      </trkpt>
      <trkpt lat="39.13464" lon="-77.65249">
        <ele>160.4</ele>
      </trkpt>
      <trkpt lat="39.13494" lon="-77.65254">
        <ele>160.0</ele>
      </trkpt>
      <trkpt lat="39.13564" lon="-77.65261">
        <ele>155.6</ele>
      </trkpt>
      <trkpt lat="39.13634" lon="-77.65268">
        <ele>154.7</ele>
      </trkpt>
      <trkpt lat="39.13712" lon="-77.65275">
        <ele>155.7</ele>
      </trkpt>
      <trkpt lat="39.1379" lon="-77.65281">
        <ele>153.4</ele>
      </trkpt>
      <trkpt lat="39.13867" lon="-77.65288">
        <ele>148.6</ele>
      </trkpt>
      <trkpt lat="39.1393" lon="-77.65291">
        <ele>144.2</ele>
      </trkpt>
      <trkpt lat="39.13993" lon="-77.65295">
        <ele>140.8</ele>
      </trkpt>
      <trkpt lat="39.14056" lon="-77.65299">
        <ele>139.8</ele>
      </trkpt>
      <trkpt lat="39.14121" lon="-77.65299">
        <ele>138.6</ele>
      </trkpt>
      <trkpt lat="39.14146" lon="-77.65294">
        <ele>138.6</ele>
      </trkpt>
      <trkpt lat="39.14209" lon="-77.65262">
        <ele>139.0</ele>
      </trkpt>
      <trkpt lat="39.14273" lon="-77.6523">
        <ele>139.0</ele>
      </trkpt>
      <trkpt lat="39.14337" lon="-77.65198">
        <ele>138.6</ele>
      </trkpt>
      <trkpt lat="39.144" lon="-77.65166">
        <ele>137.5</ele>
      </trkpt>
      <trkpt lat="39.14398" lon="-77.65159">
        <ele>137.6</ele>
      </trkpt>
      <trkpt lat="39.143979" lon="-77.65159">
        <ele>137.6</ele>
      </trkpt>
      <trkpt lat="39.144" lon="-77.65166">
        <ele>137.5</ele>
      </trkpt>
      <trkpt lat="39.1445" lon="-77.6514">
        <ele>135.4</ele>
      </trkpt>
      <trkpt lat="39.14488" lon="-77.65115">
        <ele>132.6</ele>
      </trkpt>
      <trkpt lat="39.14542" lon="-77.65069">
        <ele>139.1</ele>
      </trkpt>
      <trkpt lat="39.14597" lon="-77.65024">
        <ele>143.0</ele>
      </trkpt>
      <trkpt lat="39.14652" lon="-77.64978">
        <ele>145.9</ele>
      </trkpt>
      <trkpt lat="39.14705" lon="-77.64933">
        <ele>148.2</ele>
      </trkpt>
      <trkpt lat="39.14759" lon="-77.64887">
        <ele>150.6</ele>
      </trkpt>
      <trkpt lat="39.14812" lon="-77.64842">
        <ele>149.8</ele>
      </trkpt>
      <trkpt lat="39.14816" lon="-77.64847">
        <ele>149.7</ele>
      </trkpt>
      <trkpt lat="39.14816" lon="-77.64847">
        <ele>149.7</ele>
      </trkpt>
      <trkpt lat="39.14859" lon="-77.649">
        <ele>147.0</ele>
      </trkpt>
      <trkpt lat="39.14886" lon="-77.64962">
        <ele>144.7</ele>
      </trkpt>
      <trkpt lat="39.14894" lon="-77.64972">
        <ele>144.6</ele>
      </trkpt>
      <trkpt lat="39.14936" lon="-77.65017">
        <ele>147.0</ele>
      </trkpt>
      <trkpt lat="39.14965" lon="-77.65043">
        <ele>148.2</ele>
      </trkpt>
      <trkpt lat="39.14976" lon="-77.65044">
        <ele>148.4</ele>
      </trkpt>
      <trkpt lat="39.14988" lon="-77.65043">
        <ele>148.6</ele>
      </trkpt>
      <trkpt lat="39.14996" lon="-77.65039">
        <ele>149.0</ele>
      </trkpt>
      <trkpt lat="39.1506" lon="-77.64998">
        <ele>150.8</ele>
      </trkpt>
      <trkpt lat="39.15124" lon="-77.64957">
        <ele>148.8</ele>
      </trkpt>
      <trkpt lat="39.151735" lon="-77.64924">
        <ele>145.7</ele>
      </trkpt>
      <trkpt lat="39.15223" lon="-77.64891">
        <ele>143.6</ele>
      </trkpt>
      <trkpt lat="39.15235" lon="-77.64886">
        <ele>142.9</ele>
      </trkpt>
      <trkpt lat="39.15243" lon="-77.64886">
        <ele>142.4</ele>
      </trkpt>
      <trkpt lat="39.15309" lon="-77.64911">
        <ele>139.8</ele>
      </trkpt>
      <trkpt lat="39.15393" lon="-77.64938">
        <ele>137.3</ele>
      </trkpt>
      <trkpt lat="39.1542" lon="-77.64959">
        <ele>135.3</ele>
      </trkpt>
      <trkpt lat="39.154535" lon="-77.65005">
        <ele>134.0</ele>
      </trkpt>
      <trkpt lat="39.15487" lon="-77.65051">
        <ele>131.5</ele>
      </trkpt>
      <trkpt lat="39.15499" lon="-77.65061">
        <ele>131.5</ele>
      </trkpt>
      <trkpt lat="39.15507" lon="-77.65066">
        <ele>131.1</ele>
      </trkpt>
      <trkpt lat="39.15579" lon="-77.65078">
        <ele>129.9</ele>
      </trkpt>
      <trkpt lat="39.1565" lon="-77.65093">
        <ele>125.9</ele>
      </trkpt>
      <trkpt lat="39.15664" lon="-77.65092">
        <ele>125.4</ele>
      </trkpt>
      <trkpt lat="39.157355" lon="-77.65061">
        <ele>122.5</ele>
      </trkpt>
      <trkpt lat="39.15807" lon="-77.6503">
        <ele>121.1</ele>
      </trkpt>
      <trkpt lat="39.15821" lon="-77.65025">
        <ele>121.0</ele>
      </trkpt>
      <trkpt lat="39.1583" lon="-77.65029">
        <ele>121.0</ele>
      </trkpt>
      <trkpt lat="39.15836" lon="-77.65038">
        <ele>120.7</ele>
      </trkpt>
      <trkpt lat="39.15852" lon="-77.65107">
        <ele>121.0</ele>
      </trkpt>
      <trkpt lat="39.15872" lon="-77.6521">
        <ele>122.3</ele>
      </trkpt>
      <trkpt lat="39.15895" lon="-77.65267">
        <ele>121.7</ele>
      </trkpt>
      <trkpt lat="39.15909" lon="-77.65307">
        <ele>122.0</ele>
      </trkpt>
      <trkpt lat="39.15916" lon="-77.65342">
        <ele>121.8</ele>
      </trkpt>
      <trkpt lat="39.15916" lon="-77.65345">
        <ele>121.8</ele>
      </trkpt>
      <trkpt lat="39.15915" lon="-77.6537">
        <ele>121.7</ele>
      </trkpt>
      <trkpt lat="39.15904" lon="-77.65392">
        <ele>121.2</ele>
      </trkpt>
      <trkpt lat="39.15873" lon="-77.65437">
        <ele>121.0</ele>
      </trkpt>
      <trkpt lat="39.15851" lon="-77.65464">
        <ele>121.0</ele>
      </trkpt>
      <trkpt lat="39.15823" lon="-77.65491">
        <ele>120.9</ele>
      </trkpt>
      <trkpt lat="39.15805" lon="-77.65519">
        <ele>120.7</ele>
      </trkpt>
      <trkpt lat="39.15798" lon="-77.65544">
        <ele>120.3</ele>
      </trkpt>
      <trkpt lat="39.15799" lon="-77.65589">
        <ele>120.4</ele>
      </trkpt>
      <trkpt lat="39.15795" lon="-77.65612">
        <ele>120.7</ele>
      </trkpt>
      <trkpt lat="39.15785" lon="-77.65634">
        <ele>120.8</ele>
      </trkpt>
      <trkpt lat="39.15768" lon="-77.65661">
        <ele>121.1</ele>
      </trkpt>
      <trkpt lat="39.15733" lon="-77.65698">
        <ele>122.4</ele>
      </trkpt>
      <trkpt lat="39.15726" lon="-77.65715">
        <ele>122.8</ele>
      </trkpt>
      <trkpt lat="39.15724" lon="-77.65746">
        <ele>124.6</ele>
      </trkpt>
      <trkpt lat="39.15724" lon="-77.65844">
        <ele>130.4</ele>
      </trkpt>
      <trkpt lat="39.1572" lon="-77.659535">
        <ele>135.3</ele>
      </trkpt>
      <trkpt lat="39.15716" lon="-77.66063">
        <ele>141.8</ele>
      </trkpt>
      <trkpt lat="39.15708" lon="-77.661325">
        <ele>143.9</ele>
      </trkpt>
      <trkpt lat="39.157" lon="-77.66202">
        <ele>145.3</ele>
      </trkpt>
      <trkpt lat="39.15693" lon="-77.66252">
        <ele>146.6</ele>
      </trkpt>
      <trkpt lat="39.15681" lon="-77.66282">
        <ele>146.9</ele>
      </trkpt>
      <trkpt lat="39.156367" lon="-77.663807">
        <ele>149.3</ele>
      </trkpt>
      <trkpt lat="39.155923" lon="-77.664793">
        <ele>152.6</ele>
      </trkpt>
      <trkpt lat="39.15548" lon="-77.66578">
        <ele>153.2</ele>
      </trkpt>
      <trkpt lat="39.15574" lon="-77.666703">
        <ele>154.3</ele>
      </trkpt>
      <trkpt lat="39.156" lon="-77.667627">
        <ele>151.4</ele>
      </trkpt>
      <trkpt lat="39.15626" lon="-77.66855">
        <ele>149.6</ele>
      </trkpt>
      <trkpt lat="39.156525" lon="-77.66952">
        <ele>150.4</ele>
      </trkpt>
      <trkpt lat="39.15679" lon="-77.67049">
        <ele>154.7</ele>
      </trkpt>
      <trkpt lat="39.15681" lon="-77.67067">
        <ele>155.3</ele>
      </trkpt>
      <trkpt lat="39.156717" lon="-77.67158">
        <ele>157.8</ele>
      </trkpt>
      <trkpt lat="39.156623" lon="-77.67249">
        <ele>157.9</ele>
      </trkpt>
      <trkpt lat="39.15653" lon="-77.6734">
        <ele>157.1</ele>
      </trkpt>
      <trkpt lat="39.15658" lon="-77.67371">
        <ele>157.0</ele>
      </trkpt>
      <trkpt lat="39.15686" lon="-77.6746">
        <ele>157.1</ele>
      </trkpt>
      <trkpt lat="39.156313" lon="-77.675007">
        <ele>157.5</ele>
      </trkpt>
      <trkpt lat="39.155767" lon="-77.675413">
        <ele>157.8</ele>
      </trkpt>
      <trkpt lat="39.15522" lon="-77.67582">
        <ele>155.2</ele>
      </trkpt>
      <trkpt lat="39.15515" lon="-77.67594">
        <ele>154.7</ele>
      </trkpt>
      <trkpt lat="39.15513" lon="-77.67605">
        <ele>154.2</ele>
      </trkpt>
      <trkpt lat="39.1551" lon="-77.676883">
        <ele>152.1</ele>
      </trkpt>
      <trkpt lat="39.15507" lon="-77.677717">
        <ele>152.5</ele>
      </trkpt>
      <trkpt lat="39.15504" lon="-77.67855">
        <ele>153.8</ele>
      </trkpt>
      <trkpt lat="39.15499" lon="-77.679607">
        <ele>156.9</ele>
      </trkpt>
      <trkpt lat="39.15494" lon="-77.680663">
        <ele>157.7</ele>
      </trkpt>
      <trkpt lat="39.15489" lon="-77.68172">
        <ele>152.9</ele>
      </trkpt>
      <trkpt lat="39.15489" lon="-77.6821">
        <ele>150.9</ele>
      </trkpt>
      <trkpt lat="39.154955" lon="-77.683165">
        <ele>149.8</ele>
      </trkpt>
      <trkpt lat="39.15502" lon="-77.68423">
        <ele>150.7</ele>
      </trkpt>
      <trkpt lat="39.15507" lon="-77.68442">
        <ele>151.3</ele>
      </trkpt>
      <trkpt lat="39.15514" lon="-77.685445">
        <ele>155.3</ele>
      </trkpt>
      <trkpt lat="39.15521" lon="-77.68647">
        <ele>158.0</ele>
      </trkpt>
      <trkpt lat="39.155305" lon="-77.68757">
        <ele>159.9</ele>
      </trkpt>
      <trkpt lat="39.1554" lon="-77.68867">
        <ele>161.5</ele>
      </trkpt>
      <trkpt lat="39.15555" lon="-77.68957">
        <ele>164.9</ele>
      </trkpt>
      <trkpt lat="39.1556" lon="-77.6903">
        <ele>168.5</ele>
      </trkpt>
      <trkpt lat="39.15562" lon="-77.69078">
        <ele>169.5</ele>
      </trkpt>
      <trkpt lat="39.15619" lon="-77.69082">
        <ele>167.9</ele>
      </trkpt>
      <trkpt lat="39.1568" lon="-77.69082">
        <ele>166.1</ele>
      </trkpt>
      <trkpt lat="39.1573" lon="-77.690845">
        <ele>164.9</ele>
      </trkpt>
      <trkpt lat="39.1578" lon="-77.69087">
        <ele>164.6</ele>
      </trkpt>
      <trkpt lat="39.15855" lon="-77.69088">
        <ele>166.1</ele>
      </trkpt>
      <trkpt lat="39.15895" lon="-77.6909">
        <ele>166.1</ele>
      </trkpt>
      <trkpt lat="39.158912" lon="-77.69194">
        <ele>164.9</ele>
      </trkpt>
      <trkpt lat="39.158874" lon="-77.69298">
        <ele>165.7</ele>
      </trkpt>
      <trkpt lat="39.158836" lon="-77.69402">
        <ele>165.8</ele>
      </trkpt>
      <trkpt lat="39.158798" lon="-77.69506">
        <ele>161.4</ele>
      </trkpt>
      <trkpt lat="39.15876" lon="-77.6961">
        <ele>156.8</ele>
      </trkpt>
      <trkpt lat="39.15877" lon="-77.69631">
        <ele>156.8</ele>
      </trkpt>
      <trkpt lat="39.158965" lon="-77.697075">
        <ele>152.2</ele>
      </trkpt>
      <trkpt lat="39.15916" lon="-77.69784">
        <ele>144.4</ele>
      </trkpt>
      <trkpt lat="39.15916" lon="-77.69802">
        <ele>143.1</ele>
      </trkpt>
      <trkpt lat="39.15914" lon="-77.69816">
        <ele>142.0</ele>
      </trkpt>
      <trkpt lat="39.15907" lon="-77.69843">
        <ele>140.4</ele>
      </trkpt>
      <trkpt lat="39.159" lon="-77.6986">
        <ele>139.9</ele>
      </trkpt>
      <trkpt lat="39.15887" lon="-77.69879">
        <ele>140.0</ele>
      </trkpt>
      <trkpt lat="39.15873" lon="-77.69893">
        <ele>141.2</ele>
      </trkpt>
      <trkpt lat="39.15869" lon="-77.69901">
        <ele>141.5</ele>
      </trkpt>
      <trkpt lat="39.15866" lon="-77.69923">
        <ele>143.3</ele>
      </trkpt>
      <trkpt lat="39.158623" lon="-77.70016">
        <ele>146.9</ele>
      </trkpt>
      <trkpt lat="39.158587" lon="-77.70109">
        <ele>150.8</ele>
      </trkpt>
      <trkpt lat="39.15855" lon="-77.70202">
        <ele>154.2</ele>
      </trkpt>
      <trkpt lat="39.15852" lon="-77.70264">
        <ele>156.4</ele>
      </trkpt>
      <trkpt lat="39.1585" lon="-77.70277">
        <ele>157.0</ele>
      </trkpt>
      <trkpt lat="39.15838" lon="-77.70317">
        <ele>157.8</ele>
      </trkpt>
      <trkpt lat="39.15819" lon="-77.70355">
        <ele>159.2</ele>
      </trkpt>
      <trkpt lat="39.15804" lon="-77.70381">
        <ele>159.4</ele>
      </trkpt>
      <trkpt lat="39.15794" lon="-77.70408">
        <ele>159.4</ele>
      </trkpt>
      <trkpt lat="39.15789" lon="-77.70433">
        <ele>159.3</ele>
      </trkpt>
      <trkpt lat="39.15784" lon="-77.70514">
        <ele>157.1</ele>
      </trkpt>
      <trkpt lat="39.15779" lon="-77.70595">
        <ele>156.4</ele>
      </trkpt>
      <trkpt lat="39.15776" lon="-77.706757">
        <ele>158.3</ele>
      </trkpt>
      <trkpt lat="39.15773" lon="-77.707563">
        <ele>160.2</ele>
      </trkpt>
      <trkpt lat="39.1577" lon="-77.70837">
        <ele>162.2</ele>
      </trkpt>
      <trkpt lat="39.157674" lon="-77.709298">
        <ele>164.0</ele>
      </trkpt>
      <trkpt lat="39.157648" lon="-77.710226">
        <ele>164.8</ele>
      </trkpt>
      <trkpt lat="39.157622" lon="-77.711154">
        <ele>165.7</ele>
      </trkpt>
      <trkpt lat="39.157596" lon="-77.712082">
        <ele>166.2</ele>
      </trkpt>
      <trkpt lat="39.15757" lon="-77.71301">
        <ele>166.5</ele>
      </trkpt>
      <trkpt lat="39.15758" lon="-77.71347">
        <ele>167.2</ele>
      </trkpt>
      <trkpt lat="39.15762" lon="-77.71392">
        <ele>167.5</ele>
      </trkpt>
      <trkpt lat="39.15768" lon="-77.71401">
        <ele>167.5</ele>
      </trkpt>
      <trkpt lat="39.15841" lon="-77.71339">
        <ele>166.3</ele>
      </trkpt>
      <trkpt lat="39.1587" lon="-77.71324">
        <ele>165.7</ele>
      </trkpt>
      <trkpt lat="39.15882" lon="-77.71319">
        <ele>165.7</ele>
      </trkpt>
      <trkpt lat="39.15907" lon="-77.71315">
        <ele>164.9</ele>
      </trkpt>
      <trkpt lat="39.15942" lon="-77.71315">
        <ele>164.6</ele>
      </trkpt>
      <trkpt lat="39.16002" lon="-77.713173">
        <ele>163.2</ele>
      </trkpt>
      <trkpt lat="39.16062" lon="-77.713197">
        <ele>162.2</ele>
      </trkpt>
      <trkpt lat="39.16122" lon="-77.71322">
        <ele>161.2</ele>
      </trkpt>
      <trkpt lat="39.16177" lon="-77.71325">
        <ele>159.7</ele>
      </trkpt>
      <trkpt lat="39.162" lon="-77.7132">
        <ele>159.2</ele>
      </trkpt>
      <trkpt lat="39.16233" lon="-77.71302">
        <ele>158.6</ele>
      </trkpt>
      <trkpt lat="39.16257" lon="-77.7128">
        <ele>158.0</ele>
      </trkpt>
      <trkpt lat="39.16274" lon="-77.71254">
        <ele>156.7</ele>
      </trkpt>
      <trkpt lat="39.16284" lon="-77.71235">
        <ele>156.3</ele>
      </trkpt>
      <trkpt lat="39.163003" lon="-77.711563">
        <ele>155.1</ele>
      </trkpt>
      <trkpt lat="39.163167" lon="-77.710777">
        <ele>151.3</ele>
      </trkpt>
      <trkpt lat="39.16333" lon="-77.70999">
        <ele>151.0</ele>
      </trkpt>
      <trkpt lat="39.16346" lon="-77.70943">
        <ele>152.5</ele>
      </trkpt>
      <trkpt lat="39.163615" lon="-77.70863">
        <ele>153.8</ele>
      </trkpt>
      <trkpt lat="39.16377" lon="-77.70783">
        <ele>154.5</ele>
      </trkpt>
      <trkpt lat="39.16384" lon="-77.70749">
        <ele>154.6</ele>
      </trkpt>
      <trkpt lat="39.16391" lon="-77.70727">
        <ele>154.5</ele>
      </trkpt>
      <trkpt lat="39.16406" lon="-77.70694">
        <ele>154.3</ele>
      </trkpt>
      <trkpt lat="39.16432" lon="-77.70653">
        <ele>153.6</ele>
      </trkpt>
      <trkpt lat="39.16452" lon="-77.70631">
        <ele>152.8</ele>
      </trkpt>
      <trkpt lat="39.16482" lon="-77.70604">
        <ele>150.6</ele>
      </trkpt>
      <trkpt lat="39.16491" lon="-77.70599">
        <ele>149.9</ele>
      </trkpt>
      <trkpt lat="39.16539" lon="-77.70577">
        <ele>143.5</ele>
      </trkpt>
      <trkpt lat="39.16623" lon="-77.705435">
        <ele>137.4</ele>
      </trkpt>
      <trkpt lat="39.16707" lon="-77.7051">
        <ele>137.2</ele>
      </trkpt>
      <trkpt lat="39.16788" lon="-77.704785">
        <ele>138.1</ele>
      </trkpt>
      <trkpt lat="39.16869" lon="-77.70447">
        <ele>145.2</ele>
      </trkpt>
      <trkpt lat="39.1694" lon="-77.70422">
        <ele>147.1</ele>
      </trkpt>
      <trkpt lat="39.17011" lon="-77.70397">
        <ele>143.0</ele>
      </trkpt>
      <trkpt lat="39.17055" lon="-77.70375">
        <ele>142.7</ele>
      </trkpt>
      <trkpt lat="39.17109" lon="-77.70353">
        <ele>146.9</ele>
      </trkpt>
      <trkpt lat="39.171803" lon="-77.703262">
        <ele>151.0</ele>
      </trkpt>
      <trkpt lat="39.172515" lon="-77.702995">
        <ele>153.4</ele>
      </trkpt>
      <trkpt lat="39.173228" lon="-77.702727">
        <ele>155.7</ele>
      </trkpt>
      <trkpt lat="39.17394" lon="-77.70246">
        <ele>156.3</ele>
      </trkpt>
      <trkpt lat="39.17415" lon="-77.70231">
        <ele>156.2</ele>
      </trkpt>
      <trkpt lat="39.17449" lon="-77.70192">
        <ele>155.9</ele>
      </trkpt>
      <trkpt lat="39.17472" lon="-77.70157">
        <ele>156.4</ele>
      </trkpt>
      <trkpt lat="39.17511" lon="-77.70108">
        <ele>157.2</ele>
      </trkpt>
      <trkpt lat="39.17528" lon="-77.70093">
        <ele>157.4</ele>
      </trkpt>
      <trkpt lat="39.17549" lon="-77.70083">
        <ele>157.9</ele>
      </trkpt>
      <trkpt lat="39.17613" lon="-77.70062">
        <ele>158.7</ele>
      </trkpt>
      <trkpt lat="39.17677" lon="-77.70041">
        <ele>161.0</ele>
      </trkpt>
      <trkpt lat="39.177548" lon="-77.70017">
        <ele>160.8</ele>
      </trkpt>
      <trkpt lat="39.178325" lon="-77.69993">
        <ele>158.6</ele>
      </trkpt>
      <trkpt lat="39.179103" lon="-77.69969">
        <ele>157.7</ele>
      </trkpt>
      <trkpt lat="39.17988" lon="-77.69945">
        <ele>156.5</ele>
      </trkpt>
      <trkpt lat="39.18018" lon="-77.69931">
        <ele>156.5</ele>
      </trkpt>
      <trkpt lat="39.18104" lon="-77.69898">
        <ele>155.1</ele>
      </trkpt>
      <trkpt lat="39.1819" lon="-77.69865">
        <ele>150.8</ele>
      </trkpt>
      <trkpt lat="39.18276" lon="-77.69832">
        <ele>146.8</ele>
      </trkpt>
      <trkpt lat="39.183604" lon="-77.698007">
        <ele>140.1</ele>
      </trkpt>
      <trkpt lat="39.184449" lon="-77.697694">
        <ele>136.2</ele>
      </trkpt>
      <trkpt lat="39.185293" lon="-77.697381">
        <ele>140.6</ele>
      </trkpt>
      <trkpt lat="39.186137" lon="-77.697069">
        <ele>145.4</ele>
      </trkpt>
      <trkpt lat="39.186981" lon="-77.696756">
        <ele>148.6</ele>
      </trkpt>
      <trkpt lat="39.187826" lon="-77.696443">
        <ele>152.4</ele>
      </trkpt>
      <trkpt lat="39.18867" lon="-77.69613">
        <ele>154.6</ele>
      </trkpt>
      <trkpt lat="39.18907" lon="-77.69601">
        <ele>154.8</ele>
      </trkpt>
      <trkpt lat="39.18962" lon="-77.695815">
        <ele>156.3</ele>
      </trkpt>
      <trkpt lat="39.19017" lon="-77.69562">
        <ele>159.1</ele>
      </trkpt>
      <trkpt lat="39.190982" lon="-77.695327">
        <ele>162.0</ele>
      </trkpt>
      <trkpt lat="39.191794" lon="-77.695035">
        <ele>162.3</ele>
      </trkpt>
      <trkpt lat="39.192606" lon="-77.694742">
        <ele>161.9</ele>
      </trkpt>
      <trkpt lat="39.193418" lon="-77.694449">
        <ele>161.2</ele>
      </trkpt>
      <trkpt lat="39.19423" lon="-77.694157">
        <ele>159.8</ele>
      </trkpt>
      <trkpt lat="39.195042" lon="-77.693864">
        <ele>157.9</ele>
      </trkpt>
      <trkpt lat="39.195854" lon="-77.693571">
        <ele>154.7</ele>
      </trkpt>
      <trkpt lat="39.196666" lon="-77.693279">
        <ele>155.7</ele>
      </trkpt>
      <trkpt lat="39.197478" lon="-77.692986">
        <ele>157.9</ele>
      </trkpt>
      <trkpt lat="39.19829" lon="-77.692693">
        <ele>158.2</ele>
      </trkpt>
      <trkpt lat="39.199102" lon="-77.692401">
        <ele>160.0</ele>
      </trkpt>
      <trkpt lat="39.199914" lon="-77.692108">
        <ele>162.6</ele>
      </trkpt>
      <trkpt lat="39.200726" lon="-77.691815">
        <ele>163.4</ele>
      </trkpt>
      <trkpt lat="39.201538" lon="-77.691523">
        <ele>161.6</ele>
      </trkpt>
      <trkpt lat="39.20235" lon="-77.69123">
        <ele>161.5</ele>
      </trkpt>
      <trkpt lat="39.203055" lon="-77.690955">
        <ele>162.4</ele>
      </trkpt>
      <trkpt lat="39.20376" lon="-77.69068">
        <ele>165.1</ele>
      </trkpt>
      <trkpt lat="39.204465" lon="-77.690405">
        <ele>165.0</ele>
      </trkpt>
      <trkpt lat="39.20517" lon="-77.69013">
        <ele>164.3</ele>
      </trkpt>
      <trkpt lat="39.205817" lon="-77.689897">
        <ele>161.4</ele>
      </trkpt>
      <trkpt lat="39.206463" lon="-77.689663">
        <ele>157.2</ele>
      </trkpt>
      <trkpt lat="39.20711" lon="-77.68943">
        <ele>152.5</ele>
      </trkpt>
      <trkpt lat="39.20795" lon="-77.68909">
        <ele>152.9</ele>
      </trkpt>
      <trkpt lat="39.20863" lon="-77.68884">
        <ele>155.4</ele>
      </trkpt>
      <trkpt lat="39.20915" lon="-77.68867">
        <ele>156.5</ele>
      </trkpt>
      <trkpt lat="39.209685" lon="-77.68844">
        <ele>157.4</ele>
      </trkpt>
      <trkpt lat="39.21022" lon="-77.68821">
        <ele>159.1</ele>
      </trkpt>
      <trkpt lat="39.211012" lon="-77.687916">
        <ele>161.7</ele>
      </trkpt>
      <trkpt lat="39.211804" lon="-77.687622">
        <ele>163.2</ele>
      </trkpt>
      <trkpt lat="39.212596" lon="-77.687328">
        <ele>164.1</ele>
      </trkpt>
      <trkpt lat="39.213388" lon="-77.687034">
        <ele>163.1</ele>
      </trkpt>
      <trkpt lat="39.21418" lon="-77.68674">
        <ele>163.3</ele>
      </trkpt>
      <trkpt lat="39.21479" lon="-77.686495">
        <ele>162.2</ele>
      </trkpt>
      <trkpt lat="39.2154" lon="-77.68625">
        <ele>158.8</ele>
      </trkpt>
      <trkpt lat="39.216168" lon="-77.685966">
        <ele>153.3</ele>
      </trkpt>
      <trkpt lat="39.216936" lon="-77.685682">
        <ele>148.5</ele>
      </trkpt>
      <trkpt lat="39.217704" lon="-77.685398">
        <ele>146.3</ele>
      </trkpt>
      <trkpt lat="39.218472" lon="-77.685114">
        <ele>147.5</ele>
      </trkpt>
      <trkpt lat="39.21924" lon="-77.68483">
        <ele>149.7</ele>
      </trkpt>
      <trkpt lat="39.22009" lon="-77.68451">
        <ele>153.5</ele>
      </trkpt>
      <trkpt lat="39.22094" lon="-77.68419">
        <ele>156.1</ele>
      </trkpt>
      <trkpt lat="39.22107" lon="-77.68414">
        <ele>156.7</ele>
      </trkpt>
      <trkpt lat="39.22115" lon="-77.68406">
        <ele>157.6</ele>
      </trkpt>
      <trkpt lat="39.22116" lon="-77.68405">
        <ele>157.6</ele>
      </trkpt>
      <trkpt lat="39.22098" lon="-77.68313">
        <ele>158.4</ele>
      </trkpt>
      <trkpt lat="39.22079" lon="-77.68221">
        <ele>156.7</ele>
      </trkpt>
      <trkpt lat="39.22061" lon="-77.68128">
        <ele>152.6</ele>
      </trkpt>
      <trkpt lat="39.22043" lon="-77.68036">
        <ele>149.9</ele>
      </trkpt>
      <trkpt lat="39.22025" lon="-77.67944">
        <ele>145.6</ele>
      </trkpt>
      <trkpt lat="39.2201" lon="-77.67867">
        <ele>146.3</ele>
      </trkpt>
      <trkpt lat="39.2201" lon="-77.67857">
        <ele>146.5</ele>
      </trkpt>
      <trkpt lat="39.22014" lon="-77.6785">
        <ele>146.7</ele>
      </trkpt>
      <trkpt lat="39.22019" lon="-77.67845">
        <ele>146.7</ele>
      </trkpt>
      <trkpt lat="39.22028" lon="-77.67843">
        <ele>147.4</ele>
      </trkpt>
      <trkpt lat="39.22084" lon="-77.67845">
        <ele>150.8</ele>
      </trkpt>
      <trkpt lat="39.2214" lon="-77.67847">
        <ele>152.2</ele>
      </trkpt>
      <trkpt lat="39.22146" lon="-77.67845">
        <ele>152.0</ele>
      </trkpt>
      <trkpt lat="39.2215" lon="-77.67841">
        <ele>151.8</ele>
      </trkpt>
      <trkpt lat="39.22153" lon="-77.6783">
        <ele>151.4</ele>
      </trkpt>
      <trkpt lat="39.22154" lon="-77.67746">
        <ele>148.9</ele>
      </trkpt>
      <trkpt lat="39.22154" lon="-77.67663">
        <ele>145.6</ele>
      </trkpt>
      <trkpt lat="39.22154" lon="-77.6758">
        <ele>144.1</ele>
      </trkpt>
      <trkpt lat="39.22158" lon="-77.67523">
        <ele>142.8</ele>
      </trkpt>
      <trkpt lat="39.22159" lon="-77.67468">
        <ele>140.6</ele>
      </trkpt>
      <trkpt lat="39.22159" lon="-77.67381">
        <ele>135.5</ele>
      </trkpt>
      <trkpt lat="39.2216" lon="-77.67293">
        <ele>132.8</ele>
      </trkpt>
      <trkpt lat="39.2216" lon="-77.67205">
        <ele>134.4</ele>
      </trkpt>
      <trkpt lat="39.22161" lon="-77.67117">
        <ele>135.3</ele>
      </trkpt>
      <trkpt lat="39.22165" lon="-77.67093">
        <ele>137.7</ele>
      </trkpt>
      <trkpt lat="39.22184" lon="-77.67056">
        <ele>141.7</ele>
      </trkpt>
      <trkpt lat="39.22229" lon="-77.66988">
        <ele>148.1</ele>
      </trkpt>
      <trkpt lat="39.22274" lon="-77.6692">
        <ele>150.0</ele>
      </trkpt>
      <trkpt lat="39.22307" lon="-77.66872">
        <ele>151.5</ele>
      </trkpt>
      <trkpt lat="39.22339" lon="-77.66825">
        <ele>154.3</ele>
      </trkpt>
      <trkpt lat="39.22331" lon="-77.66809">
        <ele>155.0</ele>
      </trkpt>
      <trkpt lat="39.22273" lon="-77.6675">
        <ele>154.9</ele>
      </trkpt>
      <trkpt lat="39.22273" lon="-77.6675">
        <ele>154.9</ele>
      </trkpt>
      <trkpt lat="39.22228" lon="-77.66704">
        <ele>152.3</ele>
      </trkpt>
      <trkpt lat="39.22183" lon="-77.66658">
        <ele>147.7</ele>
      </trkpt>
      <trkpt lat="39.22147" lon="-77.66619">
        <ele>143.7</ele>
      </trkpt>
      <trkpt lat="39.2212" lon="-77.66585">
        <ele>142.4</ele>
      </trkpt>
      <trkpt lat="39.22071" lon="-77.66519">
        <ele>142.0</ele>
      </trkpt>
      <trkpt lat="39.22023" lon="-77.66452">
        <ele>142.4</ele>
      </trkpt>
      <trkpt lat="39.21999" lon="-77.66422">
        <ele>141.8</ele>
      </trkpt>
      <trkpt lat="39.21975" lon="-77.664">
        <ele>141.1</ele>
      </trkpt>
      <trkpt lat="39.21925" lon="-77.66368">
        <ele>140.3</ele>
      </trkpt>
      <trkpt lat="39.21876" lon="-77.66336">
        <ele>138.8</ele>
      </trkpt>
      <trkpt lat="39.2185" lon="-77.66316">
        <ele>137.3</ele>
      </trkpt>
      <trkpt lat="39.2184" lon="-77.66303">
        <ele>136.8</ele>
      </trkpt>
      <trkpt lat="39.21804" lon="-77.66218">
        <ele>132.4</ele>
      </trkpt>
      <trkpt lat="39.21768" lon="-77.66133">
        <ele>130.5</ele>
      </trkpt>
      <trkpt lat="39.21742" lon="-77.66076">
        <ele>127.3</ele>
      </trkpt>
      <trkpt lat="39.21717" lon="-77.66019">
        <ele>127.3</ele>
      </trkpt>
      <trkpt lat="39.21684" lon="-77.6596">
        <ele>127.2</ele>
      </trkpt>
      <trkpt lat="39.21675" lon="-77.65937">
        <ele>129.0</ele>
      </trkpt>
      <trkpt lat="39.2167" lon="-77.65908">
        <ele>129.6</ele>
      </trkpt>
      <trkpt lat="39.21667" lon="-77.65843">
        <ele>129.7</ele>
      </trkpt>
      <trkpt lat="39.21664" lon="-77.65778">
        <ele>129.0</ele>
      </trkpt>
      <trkpt lat="39.21659" lon="-77.65679">
        <ele>125.8</ele>
      </trkpt>
      <trkpt lat="39.21653" lon="-77.65579">
        <ele>124.0</ele>
      </trkpt>
      <trkpt lat="39.21652" lon="-77.65495">
        <ele>122.7</ele>
      </trkpt>
      <trkpt lat="39.2165" lon="-77.65451">
        <ele>121.7</ele>
      </trkpt>
      <trkpt lat="39.21646" lon="-77.65425">
        <ele>120.4</ele>
      </trkpt>
      <trkpt lat="39.21632" lon="-77.65372">
        <ele>122.7</ele>
      </trkpt>
      <trkpt lat="39.2163" lon="-77.6535">
        <ele>122.8</ele>
      </trkpt>
      <trkpt lat="39.2163" lon="-77.65328">
        <ele>122.8</ele>
      </trkpt>
      <trkpt lat="39.21632" lon="-77.65304">
        <ele>123.0</ele>
      </trkpt>
      <trkpt lat="39.21637" lon="-77.65262">
        <ele>122.9</ele>
      </trkpt>
      <trkpt lat="39.21641" lon="-77.65244">
        <ele>122.7</ele>
      </trkpt>
      <trkpt lat="39.2165" lon="-77.65217">
        <ele>122.1</ele>
      </trkpt>
      <trkpt lat="39.21673" lon="-77.6517">
        <ele>120.9</ele>
      </trkpt>
      <trkpt lat="39.21678" lon="-77.65156">
        <ele>121.0</ele>
      </trkpt>
      <trkpt lat="39.21679" lon="-77.65146">
        <ele>121.0</ele>
      </trkpt>
      <trkpt lat="39.21675" lon="-77.65102">
        <ele>120.8</ele>
      </trkpt>
      <trkpt lat="39.21675" lon="-77.65075">
        <ele>120.7</ele>
      </trkpt>
      <trkpt lat="39.21682" lon="-77.65035">
        <ele>120.5</ele>
      </trkpt>
      <trkpt lat="39.21697" lon="-77.64971">
        <ele>120.0</ele>
      </trkpt>
      <trkpt lat="39.21712" lon="-77.64907">
        <ele>120.0</ele>
      </trkpt>
      <trkpt lat="39.21721" lon="-77.64865">
        <ele>120.2</ele>
      </trkpt>
      <trkpt lat="39.21722" lon="-77.64854">
        <ele>120.4</ele>
      </trkpt>
      <trkpt lat="39.21714" lon="-77.6476">
        <ele>121.9</ele>
      </trkpt>
      <trkpt lat="39.21705" lon="-77.6473">
        <ele>122.0</ele>
      </trkpt>
      <trkpt lat="39.21681" lon="-77.64666">
        <ele>119.7</ele>
      </trkpt>
      <trkpt lat="39.21664" lon="-77.64607">
        <ele>118.0</ele>
      </trkpt>
      <trkpt lat="39.21654" lon="-77.64565">
        <ele>118.8</ele>
      </trkpt>
      <trkpt lat="39.21654" lon="-77.64565">
        <ele>118.8</ele>
      </trkpt>
      <trkpt lat="39.21652" lon="-77.64557">
        <ele>119.0</ele>
      </trkpt>
      <trkpt lat="39.21654" lon="-77.64539">
        <ele>118.9</ele>
      </trkpt>
      <trkpt lat="39.2164" lon="-77.64518">
        <ele>118.3</ele>
      </trkpt>
      <trkpt lat="39.21608" lon="-77.64481">
        <ele>120.0</ele>
      </trkpt>
      <trkpt lat="39.21595" lon="-77.6446">
        <ele>119.9</ele>
      </trkpt>
      <trkpt lat="39.21583" lon="-77.64431">
        <ele>119.9</ele>
      </trkpt>
      <trkpt lat="39.21559" lon="-77.64363">
        <ele>120.1</ele>
      </trkpt>
      <trkpt lat="39.21528" lon="-77.64294">
        <ele>120.0</ele>
      </trkpt>
      <trkpt lat="39.21519" lon="-77.64279">
        <ele>120.3</ele>
      </trkpt>
      <trkpt lat="39.21467" lon="-77.64225">
        <ele>120.8</ele>
      </trkpt>
      <trkpt lat="39.21441" lon="-77.64206">
        <ele>120.8</ele>
      </trkpt>
      <trkpt lat="39.21389" lon="-77.64172">
        <ele>118.2</ele>
      </trkpt>
      <trkpt lat="39.2138" lon="-77.64165">
        <ele>117.6</ele>
      </trkpt>
      <trkpt lat="39.21373" lon="-77.64156">
        <ele>117.3</ele>
      </trkpt>
      <trkpt lat="39.21364" lon="-77.6414">
        <ele>117.1</ele>
      </trkpt>
      <trkpt lat="39.21357" lon="-77.64127">
        <ele>116.9</ele>
      </trkpt>
      <trkpt lat="39.21347" lon="-77.641">
        <ele>116.6</ele>
      </trkpt>
      <trkpt lat="39.21327" lon="-77.64036">
        <ele>115.1</ele>
      </trkpt>
      <trkpt lat="39.21321" lon="-77.64015">
        <ele>114.9</ele>
      </trkpt>
      <trkpt lat="39.21312" lon="-77.63951">
        <ele>114.0</ele>
      </trkpt>
      <trkpt lat="39.21308" lon="-77.63861">
        <ele>113.2</ele>
      </trkpt>
      <trkpt lat="39.21306" lon="-77.63817">
        <ele>114.4</ele>
      </trkpt>
      <trkpt lat="39.21301" lon="-77.63782">
        <ele>114.6</ele>
      </trkpt>
      <trkpt lat="39.21293" lon="-77.63751">
        <ele>114.8</ele>
      </trkpt>
      <trkpt lat="39.21272" lon="-77.63693">
        <ele>116.2</ele>
      </trkpt>
      <trkpt lat="39.21251" lon="-77.63635">
        <ele>115.1</ele>
      </trkpt>
      <trkpt lat="39.21232" lon="-77.63579">
        <ele>115.4</ele>
      </trkpt>
      <trkpt lat="39.21214" lon="-77.63522">
        <ele>115.8</ele>
      </trkpt>
      <trkpt lat="39.21195" lon="-77.63478">
        <ele>119.5</ele>
      </trkpt>
      <trkpt lat="39.21184" lon="-77.63437">
        <ele>123.4</ele>
      </trkpt>
      <trkpt lat="39.21173" lon="-77.63367">
        <ele>127.3</ele>
      </trkpt>
      <trkpt lat="39.21172" lon="-77.63343">
        <ele>128.5</ele>
      </trkpt>
      <trkpt lat="39.21175" lon="-77.6328">
        <ele>127.4</ele>
      </trkpt>
      <trkpt lat="39.21182" lon="-77.63215">
        <ele>130.6</ele>
      </trkpt>
      <trkpt lat="39.2119" lon="-77.6315">
        <ele>128.9</ele>
      </trkpt>
      <trkpt lat="39.21197" lon="-77.63103">
        <ele>128.1</ele>
      </trkpt>
      <trkpt lat="39.21181" lon="-77.63092">
        <ele>128.9</ele>
      </trkpt>
      <trkpt lat="39.21157" lon="-77.63072">
        <ele>129.9</ele>
      </trkpt>
      <trkpt lat="39.21101" lon="-77.63009">
        <ele>131.0</ele>
      </trkpt>
      <trkpt lat="39.2104" lon="-77.62938">
        <ele>129.0</ele>
      </trkpt>
      <trkpt lat="39.20978" lon="-77.62868">
        <ele>128.8</ele>
      </trkpt>
      <trkpt lat="39.20955" lon="-77.62836">
        <ele>130.5</ele>
      </trkpt>
      <trkpt lat="39.20933" lon="-77.62793">
        <ele>133.4</ele>
      </trkpt>
      <trkpt lat="39.20903" lon="-77.62713">
        <ele>132.7</ele>
      </trkpt>
      <trkpt lat="39.20873" lon="-77.62633">
        <ele>128.5</ele>
      </trkpt>
      <trkpt lat="39.20841" lon="-77.62567">
        <ele>127.1</ele>
      </trkpt>
      <trkpt lat="39.20816" lon="-77.62522">
        <ele>124.6</ele>
      </trkpt>
      <trkpt lat="39.20799" lon="-77.62502">
        <ele>122.4</ele>
      </trkpt>
      <trkpt lat="39.20779" lon="-77.62485">
        <ele>119.8</ele>
      </trkpt>
      <trkpt lat="39.20751" lon="-77.62465">
        <ele>117.0</ele>
      </trkpt>
      <trkpt lat="39.20725" lon="-77.62454">
        <ele>113.7</ele>
      </trkpt>
      <trkpt lat="39.20698" lon="-77.62445">
        <ele>111.7</ele>
      </trkpt>
      <trkpt lat="39.20645" lon="-77.62437">
        <ele>107.6</ele>
      </trkpt>
      <trkpt lat="39.20592" lon="-77.6243">
        <ele>104.3</ele>
      </trkpt>
      <trkpt lat="39.20561" lon="-77.62423">
        <ele>103.8</ele>
      </trkpt>
      <trkpt lat="39.2053" lon="-77.62412">
        <ele>103.5</ele>
      </trkpt>
      <trkpt lat="39.20495" lon="-77.62388">
        <ele>104.9</ele>
      </trkpt>
      <trkpt lat="39.20475" lon="-77.62371">
        <ele>105.8</ele>
      </trkpt>
      <trkpt lat="39.20408" lon="-77.62323">
        <ele>108.6</ele>
      </trkpt>
      <trkpt lat="39.20342" lon="-77.62275">
        <ele>115.4</ele>
      </trkpt>
      <trkpt lat="39.20307" lon="-77.62259">
        <ele>116.9</ele>
      </trkpt>
      <trkpt lat="39.20274" lon="-77.62248">
        <ele>116.6</ele>
      </trkpt>
      <trkpt lat="39.20188" lon="-77.62232">
        <ele>120.2</ele>
      </trkpt>
      <trkpt lat="39.20129" lon="-77.62223">
        <ele>124.4</ele>
      </trkpt>
      <trkpt lat="39.20103" lon="-77.62217">
        <ele>127.0</ele>
      </trkpt>
      <trkpt lat="39.20037" lon="-77.62214">
        <ele>132.2</ele>
      </trkpt>
      <trkpt lat="39.1997" lon="-77.6221">
        <ele>134.6</ele>
      </trkpt>
      <trkpt lat="39.1993" lon="-77.62202">
        <ele>135.1</ele>
      </trkpt>
      <trkpt lat="39.19849" lon="-77.62179">
        <ele>135.1</ele>
      </trkpt>
      <trkpt lat="39.19768" lon="-77.62157">
        <ele>135.1</ele>
      </trkpt>
      <trkpt lat="39.19747" lon="-77.62149">
        <ele>135.2</ele>
      </trkpt>
      <trkpt lat="39.19697" lon="-77.62119">
        <ele>134.8</ele>
      </trkpt>
      <trkpt lat="39.19627" lon="-77.62075">
        <ele>135.9</ele>
      </trkpt>
      <trkpt lat="39.19558" lon="-77.62031">
        <ele>132.7</ele>
      </trkpt>
      <trkpt lat="39.19544" lon="-77.62027">
        <ele>132.2</ele>
      </trkpt>
      <trkpt lat="39.19465" lon="-77.62024">
        <ele>128.7</ele>
      </trkpt>
      <trkpt lat="39.19447" lon="-77.62022">
        <ele>127.0</ele>
      </trkpt>
      <trkpt lat="39.1943" lon="-77.62016">
        <ele>124.8</ele>
      </trkpt>
      <trkpt lat="39.19413" lon="-77.62009">
        <ele>122.5</ele>
      </trkpt>
      <trkpt lat="39.19387" lon="-77.61992">
        <ele>119.0</ele>
      </trkpt>
      <trkpt lat="39.19322" lon="-77.61938">
        <ele>110.2</ele>
      </trkpt>
      <trkpt lat="39.19292" lon="-77.61918">
        <ele>110.5</ele>
      </trkpt>
      <trkpt lat="39.19206" lon="-77.61887">
        <ele>109.2</ele>
      </trkpt>
      <trkpt lat="39.19119" lon="-77.61856">
        <ele>111.0</ele>
      </trkpt>
      <trkpt lat="39.19033" lon="-77.61825">
        <ele>111.3</ele>
      </trkpt>
      <trkpt lat="39.19037" lon="-77.61795">
        <ele>109.9</ele>
      </trkpt>
      <trkpt lat="39.19042" lon="-77.6177">
        <ele>109.3</ele>
      </trkpt>
      <trkpt lat="39.19061" lon="-77.61712">
        <ele>107.7</ele>
      </trkpt>
      <trkpt lat="39.19075" lon="-77.61677">
        <ele>106.8</ele>
      </trkpt>
      <trkpt lat="39.19089" lon="-77.6164">
        <ele>106.8</ele>
      </trkpt>
      <trkpt lat="39.19096" lon="-77.61616">
        <ele>106.6</ele>
      </trkpt>
      <trkpt lat="39.19101" lon="-77.61591">
        <ele>106.4</ele>
      </trkpt>
      <trkpt lat="39.19103" lon="-77.61555">
        <ele>106.1</ele>
      </trkpt>
      <trkpt lat="39.191" lon="-77.61533">
        <ele>105.9</ele>
      </trkpt>
      <trkpt lat="39.19097" lon="-77.61513">
        <ele>105.8</ele>
      </trkpt>
      <trkpt lat="39.19088" lon="-77.61489">
        <ele>105.6</ele>
      </trkpt>
      <trkpt lat="39.19068" lon="-77.61445">
        <ele>106.9</ele>
      </trkpt>
      <trkpt lat="39.19064" lon="-77.61429">
        <ele>107.6</ele>
      </trkpt>
      <trkpt lat="39.19061" lon="-77.61396">
        <ele>108.3</ele>
      </trkpt>
      <trkpt lat="39.1906" lon="-77.6139">
        <ele>108.4</ele>
      </trkpt>
      <trkpt lat="39.19051" lon="-77.61375">
        <ele>108.4</ele>
      </trkpt>
      <trkpt lat="39.19031" lon="-77.61355">
        <ele>108.2</ele>
      </trkpt>
      <trkpt lat="39.18968" lon="-77.61302">
        <ele>111.1</ele>
      </trkpt>
      <trkpt lat="39.189" lon="-77.61227">
        <ele>113.9</ele>
      </trkpt>
      <trkpt lat="39.18832" lon="-77.61153">
        <ele>114.9</ele>
      </trkpt>
      <trkpt lat="39.18821" lon="-77.61127">
        <ele>116.8</ele>
      </trkpt>
      <trkpt lat="39.18796" lon="-77.6105">
        <ele>120.9</ele>
      </trkpt>
      <trkpt lat="39.18773" lon="-77.60995">
        <ele>123.6</ele>
      </trkpt>
      <trkpt lat="39.18726" lon="-77.60901">
        <ele>127.1</ele>
      </trkpt>
      <trkpt lat="39.18687" lon="-77.60811">
        <ele>130.0</ele>
      </trkpt>
      <trkpt lat="39.18667" lon="-77.60747">
        <ele>132.9</ele>
      </trkpt>
      <trkpt lat="39.18648" lon="-77.60683">
        <ele>135.1</ele>
      </trkpt>
      <trkpt lat="39.1864" lon="-77.60649">
        <ele>135.8</ele>
      </trkpt>
      <trkpt lat="39.18614" lon="-77.6065">
        <ele>134.5</ele>
      </trkpt>
      <trkpt lat="39.18572" lon="-77.60649">
        <ele>130.7</ele>
      </trkpt>
      <trkpt lat="39.18559" lon="-77.60647">
        <ele>129.9</ele>
      </trkpt>
      <trkpt lat="39.1855" lon="-77.60642">
        <ele>129.6</ele>
      </trkpt>
      <trkpt lat="39.18542" lon="-77.60635">
        <ele>129.1</ele>
      </trkpt>
      <trkpt lat="39.18531" lon="-77.60629">
        <ele>126.1</ele>
      </trkpt>
      <trkpt lat="39.18509" lon="-77.60606">
        <ele>125.1</ele>
      </trkpt>
      <trkpt lat="39.18497" lon="-77.60584">
        <ele>125.2</ele>
      </trkpt>
      <trkpt lat="39.18483" lon="-77.60539">
        <ele>126.8</ele>
      </trkpt>
      <trkpt lat="39.18458" lon="-77.60441">
        <ele>133.6</ele>
      </trkpt>
      <trkpt lat="39.184365" lon="-77.603445">
        <ele>137.5</ele>
      </trkpt>
      <trkpt lat="39.18415" lon="-77.60248">
        <ele>138.5</ele>
      </trkpt>
      <trkpt lat="39.18407" lon="-77.60235">
        <ele>137.7</ele>
      </trkpt>
      <trkpt lat="39.18396" lon="-77.60226">
        <ele>136.8</ele>
      </trkpt>
      <trkpt lat="39.183325" lon="-77.602075">
        <ele>130.5</ele>
      </trkpt>
      <trkpt lat="39.18269" lon="-77.60189">
        <ele>127.1</ele>
      </trkpt>
      <trkpt lat="39.18245" lon="-77.60172">
        <ele>126.5</ele>
      </trkpt>
      <trkpt lat="39.1824" lon="-77.60163">
        <ele>126.5</ele>
      </trkpt>
      <trkpt lat="39.18238" lon="-77.60154">
        <ele>126.4</ele>
      </trkpt>
      <trkpt lat="39.18237" lon="-77.60127">
        <ele>126.1</ele>
      </trkpt>
      <trkpt lat="39.182385" lon="-77.60065">
        <ele>125.9</ele>
      </trkpt>
      <trkpt lat="39.1824" lon="-77.60003">
        <ele>126.5</ele>
      </trkpt>
      <trkpt lat="39.18239" lon="-77.59973">
        <ele>126.7</ele>
      </trkpt>
      <trkpt lat="39.18234" lon="-77.59944">
        <ele>127.0</ele>
      </trkpt>
      <trkpt lat="39.18214" lon="-77.59904">
        <ele>127.6</ele>
      </trkpt>
      <trkpt lat="39.18213" lon="-77.59881">
        <ele>127.9</ele>
      </trkpt>
      <trkpt lat="39.18217" lon="-77.59871">
        <ele>127.9</ele>
      </trkpt>
      <trkpt lat="39.18243" lon="-77.59837">
        <ele>128.0</ele>
      </trkpt>
      <trkpt lat="39.18279" lon="-77.59769">
        <ele>128.1</ele>
      </trkpt>
      <trkpt lat="39.18296" lon="-77.59729">
        <ele>128.2</ele>
      </trkpt>
      <trkpt lat="39.1831" lon="-77.59703">
        <ele>128.5</ele>
      </trkpt>
      <trkpt lat="39.18323" lon="-77.59685">
        <ele>129.0</ele>
      </trkpt>
      <trkpt lat="39.18336" lon="-77.59654">
        <ele>129.9</ele>
      </trkpt>
      <trkpt lat="39.1834" lon="-77.59635">
        <ele>130.1</ele>
      </trkpt>
      <trkpt lat="39.18343" lon="-77.59581">
        <ele>130.6</ele>
      </trkpt>
      <trkpt lat="39.183265" lon="-77.59474">
        <ele>134.3</ele>
      </trkpt>
      <trkpt lat="39.1831" lon="-77.59367">
        <ele>137.2</ele>
      </trkpt>
      <trkpt lat="39.18298" lon="-77.59321">
        <ele>136.8</ele>
      </trkpt>
      <trkpt lat="39.18299" lon="-77.59279">
        <ele>135.4</ele>
      </trkpt>
      <trkpt lat="39.18291" lon="-77.59259">
        <ele>135.3</ele>
      </trkpt>
      <trkpt lat="39.18275" lon="-77.59246">
        <ele>135.5</ele>
      </trkpt>
      <trkpt lat="39.18228" lon="-77.592125">
        <ele>137.2</ele>
      </trkpt>
      <trkpt lat="39.18181" lon="-77.59179">
        <ele>138.7</ele>
      </trkpt>
      <trkpt lat="39.18142" lon="-77.59156">
        <ele>139.9</ele>
      </trkpt>
      <trkpt lat="39.18065" lon="-77.59102">
        <ele>144.7</ele>
      </trkpt>
      <trkpt lat="39.18023" lon="-77.59079">
        <ele>147.2</ele>
      </trkpt>
      <trkpt lat="39.18022" lon="-77.59078">
        <ele>147.2</ele>
      </trkpt>
      <trkpt lat="39.17933" lon="-77.590714">
        <ele>145.0</ele>
      </trkpt>
      <trkpt lat="39.17844" lon="-77.590648">
        <ele>152.8</ele>
      </trkpt>
      <trkpt lat="39.17755" lon="-77.590582">
        <ele>153.6</ele>
      </trkpt>
      <trkpt lat="39.17666" lon="-77.590516">
        <ele>156.1</ele>
      </trkpt>
      <trkpt lat="39.17577" lon="-77.59045">
        <ele>155.4</ele>
      </trkpt>
      <trkpt lat="39.1754" lon="-77.59046">
        <ele>155.2</ele>
      </trkpt>
      <trkpt lat="39.17503" lon="-77.59054">
        <ele>155.8</ele>
      </trkpt>
      <trkpt lat="39.17431" lon="-77.59085">
        <ele>158.5</ele>
      </trkpt>
      <trkpt lat="39.17359" lon="-77.59116">
        <ele>161.8</ele>
      </trkpt>
      <trkpt lat="39.17354" lon="-77.59115">
        <ele>162.2</ele>
      </trkpt>
      <trkpt lat="39.17324" lon="-77.59094">
        <ele>164.7</ele>
      </trkpt>
      <trkpt lat="39.17296" lon="-77.59083">
        <ele>165.9</ele>
      </trkpt>
      <trkpt lat="39.17266" lon="-77.59072">
        <ele>166.5</ele>
      </trkpt>
      <trkpt lat="39.17242" lon="-77.59071">
        <ele>167.0</ele>
      </trkpt>
      <trkpt lat="39.17221" lon="-77.59075">
        <ele>168.0</ele>
      </trkpt>
      <trkpt lat="39.17145" lon="-77.591015">
        <ele>174.2</ele>
      </trkpt>
      <trkpt lat="39.17069" lon="-77.59128">
        <ele>177.2</ele>
      </trkpt>
      <trkpt lat="39.17057" lon="-77.59111">
        <ele>177.1</ele>
      </trkpt>
      <trkpt lat="39.170532" lon="-77.59108">
        <ele>177.3</ele>
      </trkpt>
      <trkpt lat="39.16997" lon="-77.59064">
        <ele>179.0</ele>
      </trkpt>
      <trkpt lat="39.16937" lon="-77.59017">
        <ele>181.3</ele>
      </trkpt>
      <trkpt lat="39.16914" lon="-77.58989">
        <ele>181.4</ele>
      </trkpt>
      <trkpt lat="39.16896" lon="-77.58982">
        <ele>181.2</ele>
      </trkpt>
      <trkpt lat="39.16826" lon="-77.59002">
        <ele>181.3</ele>
      </trkpt>
      <trkpt lat="39.16756" lon="-77.59022">
        <ele>183.4</ele>
      </trkpt>
      <trkpt lat="39.16736" lon="-77.59018">
        <ele>185.1</ele>
      </trkpt>
      <trkpt lat="39.16725" lon="-77.59013">
        <ele>186.0</ele>
      </trkpt>
      <trkpt lat="39.16667" lon="-77.589495">
        <ele>193.8</ele>
      </trkpt>
      <trkpt lat="39.16609" lon="-77.58886">
        <ele>199.6</ele>
      </trkpt>
      <trkpt lat="39.16568" lon="-77.58847">
        <ele>196.9</ele>
      </trkpt>
      <trkpt lat="39.16546" lon="-77.58829">
        <ele>195.3</ele>
      </trkpt>
      <trkpt lat="39.16517" lon="-77.5882">
        <ele>194.4</ele>
      </trkpt>
      <trkpt lat="39.16499" lon="-77.58819">
        <ele>194.3</ele>
      </trkpt>
      <trkpt lat="39.16479" lon="-77.58819">
        <ele>194.5</ele>
      </trkpt>
      <trkpt lat="39.16442" lon="-77.58833">
        <ele>194.7</ele>
      </trkpt>
      <trkpt lat="39.16396" lon="-77.5886">
        <ele>195.6</ele>
      </trkpt>
      <trkpt lat="39.16354" lon="-77.58901">
        <ele>198.0</ele>
      </trkpt>
      <trkpt lat="39.16309" lon="-77.58933">
        <ele>199.6</ele>
      </trkpt>
      <trkpt lat="39.16285" lon="-77.58941">
        <ele>200.0</ele>
      </trkpt>
      <trkpt lat="39.16266" lon="-77.5894">
        <ele>201.0</ele>
      </trkpt>
      <trkpt lat="39.162205" lon="-77.589185">
        <ele>203.2</ele>
      </trkpt>
      <trkpt lat="39.16175" lon="-77.58897">
        <ele>203.9</ele>
      </trkpt>
      <trkpt lat="39.161207" lon="-77.588643">
        <ele>204.3</ele>
      </trkpt>
      <trkpt lat="39.160663" lon="-77.588317">
        <ele>206.0</ele>
      </trkpt>
      <trkpt lat="39.16012" lon="-77.58799">
        <ele>206.6</ele>
      </trkpt>
      <trkpt lat="39.1599" lon="-77.58789">
        <ele>206.9</ele>
      </trkpt>
      <trkpt lat="39.15937" lon="-77.58777">
        <ele>207.7</ele>
      </trkpt>
      <trkpt lat="39.15854" lon="-77.58748">
        <ele>203.6</ele>
      </trkpt>
      <trkpt lat="39.15789" lon="-77.58722">
        <ele>194.5</ele>
      </trkpt>
      <trkpt lat="39.15722" lon="-77.587">
        <ele>188.0</ele>
      </trkpt>
      <trkpt lat="39.15667" lon="-77.586683">
        <ele>184.4</ele>
      </trkpt>
      <trkpt lat="39.15612" lon="-77.586367">
        <ele>182.1</ele>
      </trkpt>
      <trkpt lat="39.15557" lon="-77.58605">
        <ele>177.5</ele>
      </trkpt>
      <trkpt lat="39.15525" lon="-77.58591">
        <ele>174.5</ele>
      </trkpt>
      <trkpt lat="39.15454" lon="-77.585695">
        <ele>170.9</ele>
      </trkpt>
      <trkpt lat="39.15383" lon="-77.58548">
        <ele>166.8</ele>
      </trkpt>
      <trkpt lat="39.15324" lon="-77.58526">
        <ele>163.9</ele>
      </trkpt>
      <trkpt lat="39.152537" lon="-77.58496">
        <ele>163.0</ele>
      </trkpt>
      <trkpt lat="39.151833" lon="-77.58466">
        <ele>162.2</ele>
      </trkpt>
      <trkpt lat="39.15113" lon="-77.58436">
        <ele>158.3</ele>
      </trkpt>
      <trkpt lat="39.15083" lon="-77.58421">
        <ele>157.8</ele>
      </trkpt>
      <trkpt lat="39.15015" lon="-77.58382">
        <ele>154.5</ele>
      </trkpt>
      <trkpt lat="39.14987" lon="-77.58369">
        <ele>149.8</ele>
      </trkpt>
      <trkpt lat="39.14958" lon="-77.5836">
        <ele>143.5</ele>
      </trkpt>
      <trkpt lat="39.14913" lon="-77.58351">
        <ele>136.7</ele>
      </trkpt>
      <trkpt lat="39.14872" lon="-77.58346">
        <ele>132.0</ele>
      </trkpt>
      <trkpt lat="39.14802" lon="-77.58322">
        <ele>125.4</ele>
      </trkpt>
      <trkpt lat="39.14795" lon="-77.58318">
        <ele>125.3</ele>
      </trkpt>
      <trkpt lat="39.14785" lon="-77.58304">
        <ele>125.1</ele>
      </trkpt>
      <trkpt lat="39.14766" lon="-77.58256">
        <ele>125.1</ele>
      </trkpt>
      <trkpt lat="39.14762" lon="-77.58251">
        <ele>125.1</ele>
      </trkpt>
      <trkpt lat="39.14755" lon="-77.58246">
        <ele>125.1</ele>
      </trkpt>
      <trkpt lat="39.14745" lon="-77.58247">
        <ele>125.1</ele>
      </trkpt>
      <trkpt lat="39.14717" lon="-77.58261">
        <ele>125.4</ele>
      </trkpt>
      <trkpt lat="39.14706" lon="-77.58269">
        <ele>125.5</ele>
      </trkpt>
      <trkpt lat="39.14688" lon="-77.58288">
        <ele>126.1</ele>
      </trkpt>
      <trkpt lat="39.14641" lon="-77.58349">
        <ele>130.1</ele>
      </trkpt>
      <trkpt lat="39.14592" lon="-77.58404">
        <ele>133.0</ele>
      </trkpt>
      <trkpt lat="39.14538" lon="-77.58444">
        <ele>131.8</ele>
      </trkpt>
      <trkpt lat="39.14528" lon="-77.58448">
        <ele>131.8</ele>
      </trkpt>
      <trkpt lat="39.1451" lon="-77.58449">
        <ele>131.9</ele>
      </trkpt>
      <trkpt lat="39.14453" lon="-77.5844">
        <ele>133.0</ele>
      </trkpt>
      <trkpt lat="39.14424" lon="-77.58444">
        <ele>133.9</ele>
      </trkpt>
      <trkpt lat="39.14399" lon="-77.58453">
        <ele>134.3</ele>
      </trkpt>
      <trkpt lat="39.14375" lon="-77.58466">
        <ele>134.6</ele>
      </trkpt>
      <trkpt lat="39.1433" lon="-77.585">
        <ele>135.7</ele>
      </trkpt>
      <trkpt lat="39.14285" lon="-77.58534">
        <ele>137.9</ele>
      </trkpt>
      <trkpt lat="39.14275" lon="-77.58539">
        <ele>138.4</ele>
      </trkpt>
      <trkpt lat="39.142235" lon="-77.58554">
        <ele>142.9</ele>
      </trkpt>
      <trkpt lat="39.14172" lon="-77.58569">
        <ele>146.5</ele>
      </trkpt>
      <trkpt lat="39.14153" lon="-77.58582">
        <ele>147.5</ele>
      </trkpt>
      <trkpt lat="39.1413" lon="-77.58601">
        <ele>148.8</ele>
      </trkpt>
      <trkpt lat="39.14121" lon="-77.58606">
        <ele>149.7</ele>
      </trkpt>
      <trkpt lat="39.14099" lon="-77.58613">
        <ele>152.1</ele>
      </trkpt>
      <trkpt lat="39.14078" lon="-77.5861">
        <ele>153.3</ele>
      </trkpt>
      <trkpt lat="39.14025" lon="-77.58588">
        <ele>157.4</ele>
      </trkpt>
      <trkpt lat="39.14009" lon="-77.58579">
        <ele>161.9</ele>
      </trkpt>
      <trkpt lat="39.1397" lon="-77.58543">
        <ele>165.8</ele>
      </trkpt>
      <trkpt lat="39.13958" lon="-77.58524">
        <ele>169.3</ele>
      </trkpt>
      <trkpt lat="39.13941" lon="-77.58502">
        <ele>170.2</ele>
      </trkpt>
      <trkpt lat="39.13906" lon="-77.58466">
        <ele>174.1</ele>
      </trkpt>
      <trkpt lat="39.1388" lon="-77.58407">
        <ele>178.0</ele>
      </trkpt>
      <trkpt lat="39.1386" lon="-77.58372">
        <ele>176.1</ele>
      </trkpt>
      <trkpt lat="39.13843" lon="-77.58359">
        <ele>174.2</ele>
      </trkpt>
      <trkpt lat="39.13789" lon="-77.58336">
        <ele>169.9</ele>
      </trkpt>
      <trkpt lat="39.1376" lon="-77.58328">
        <ele>166.0</ele>
      </trkpt>
      <trkpt lat="39.13718" lon="-77.5831">
        <ele>163.5</ele>
      </trkpt>
      <trkpt lat="39.13703" lon="-77.58301">
        <ele>162.7</ele>
      </trkpt>
      <trkpt lat="39.13628" lon="-77.58238">
        <ele>151.0</ele>
      </trkpt>
      <trkpt lat="39.13612" lon="-77.58225">
        <ele>149.3</ele>
      </trkpt>
      <trkpt lat="39.13589" lon="-77.58211">
        <ele>146.6</ele>
      </trkpt>
      <trkpt lat="39.13539" lon="-77.58189">
        <ele>141.5</ele>
      </trkpt>
      <trkpt lat="39.13522" lon="-77.58179">
        <ele>140.1</ele>
      </trkpt>
      <trkpt lat="39.13497" lon="-77.58153">
        <ele>137.9</ele>
      </trkpt>
      <trkpt lat="39.13472" lon="-77.58135">
        <ele>135.3</ele>
      </trkpt>
      <trkpt lat="39.13436" lon="-77.58095">
        <ele>132.8</ele>
      </trkpt>
      <trkpt lat="39.13422" lon="-77.58067">
        <ele>132.3</ele>
      </trkpt>
      <trkpt lat="39.13384" lon="-77.57965">
        <ele>130.2</ele>
      </trkpt>
      <trkpt lat="39.13367" lon="-77.57933">
        <ele>128.1</ele>
      </trkpt>
      <trkpt lat="39.13311" lon="-77.57853">
        <ele>125.3</ele>
      </trkpt>
      <trkpt lat="39.13288" lon="-77.57796">
        <ele>123.9</ele>
      </trkpt>
      <trkpt lat="39.13274" lon="-77.57768">
        <ele>122.8</ele>
      </trkpt>
      <trkpt lat="39.13262" lon="-77.5775">
        <ele>121.1</ele>
      </trkpt>
      <trkpt lat="39.13217" lon="-77.57696">
        <ele>119.6</ele>
      </trkpt>
      <trkpt lat="39.13181" lon="-77.57664">
        <ele>118.6</ele>
      </trkpt>
      <trkpt lat="39.13122" lon="-77.57615">
        <ele>115.3</ele>
      </trkpt>
      <trkpt lat="39.13096" lon="-77.57598">
        <ele>114.8</ele>
      </trkpt>
      <trkpt lat="39.13049" lon="-77.57557">
        <ele>112.5</ele>
      </trkpt>
      <trkpt lat="39.129815" lon="-77.57481">
        <ele>110.7</ele>
      </trkpt>
      <trkpt lat="39.12914" lon="-77.57405">
        <ele>109.8</ele>
      </trkpt>
      <trkpt lat="39.128797" lon="-77.573678">
        <ele>108.8</ele>
      </trkpt>
      <trkpt lat="39.12879" lon="-77.57367">
        <ele>108.8</ele>
      </trkpt>
      <trkpt lat="39.12866" lon="-77.57359">
        <ele>108.9</ele>
      </trkpt>
      <trkpt lat="39.128005" lon="-77.573325">
        <ele>109.0</ele>
      </trkpt>
      <trkpt lat="39.12801" lon="-77.57332">
        <ele>109.8</ele>
      </trkpt>
      <trkpt lat="39.12742" lon="-77.57307">
        <ele>110.0</ele>
      </trkpt>
      <trkpt lat="39.12683" lon="-77.57282">
        <ele>109.2</ele>
      </trkpt>
      <trkpt lat="39.12683" lon="-77.57282">
        <ele>109.2</ele>
      </trkpt>
      <trkpt lat="39.12615" lon="-77.57255">
        <ele>111.0</ele>
      </trkpt>
      <trkpt lat="39.12547" lon="-77.57227">
        <ele>113.0</ele>
      </trkpt>
      <trkpt lat="39.12547" lon="-77.57227">
        <ele>113.0</ele>
      </trkpt>
      <trkpt lat="39.12482" lon="-77.57198">
        <ele>112.7</ele>
      </trkpt>
      <trkpt lat="39.12464" lon="-77.57188">
        <ele>111.2</ele>
      </trkpt>
      <trkpt lat="39.12453" lon="-77.57179">
        <ele>110.7</ele>
      </trkpt>
      <trkpt lat="39.12449" lon="-77.57169">
        <ele>110.6</ele>
      </trkpt>
      <trkpt lat="39.124493" lon="-77.571686">
        <ele>110.6</ele>
      </trkpt>
      <trkpt lat="39.12423" lon="-77.57096">
        <ele>111.1</ele>
      </trkpt>
      <trkpt lat="39.12394" lon="-77.57012">
        <ele>110.7</ele>
      </trkpt>
      <trkpt lat="39.12364" lon="-77.56928">
        <ele>112.2</ele>
      </trkpt>
      <trkpt lat="39.12335" lon="-77.56844">
        <ele>111.3</ele>
      </trkpt>
      <trkpt lat="39.1231" lon="-77.56779">
        <ele>111.6</ele>
      </trkpt>
      <trkpt lat="39.12301" lon="-77.56763">
        <ele>111.8</ele>
      </trkpt>
      <trkpt lat="39.12288" lon="-77.56749">
        <ele>111.9</ele>
      </trkpt>
      <trkpt lat="39.12271" lon="-77.56737">
        <ele>112.0</ele>
      </trkpt>
      <trkpt lat="39.12249" lon="-77.56728">
        <ele>111.7</ele>
      </trkpt>
      <trkpt lat="39.12176" lon="-77.5671">
        <ele>109.0</ele>
      </trkpt>
      <trkpt lat="39.12102" lon="-77.5669">
        <ele>108.4</ele>
      </trkpt>
      <trkpt lat="39.12027" lon="-77.56669">
        <ele>108.8</ele>
      </trkpt>
      <trkpt lat="39.11953" lon="-77.56648">
        <ele>108.6</ele>
      </trkpt>
      <trkpt lat="39.11879" lon="-77.56628">
        <ele>108.3</ele>
      </trkpt>
      <trkpt lat="39.11805" lon="-77.56607">
        <ele>107.9</ele>
      </trkpt>
      <trkpt lat="39.11797" lon="-77.56603">
        <ele>107.8</ele>
      </trkpt>
      <trkpt lat="39.1179" lon="-77.56592">
        <ele>107.7</ele>
      </trkpt>
      <trkpt lat="39.11772" lon="-77.56524">
        <ele>107.4</ele>
      </trkpt>
      <trkpt lat="39.11769" lon="-77.56513">
        <ele>107.3</ele>
      </trkpt>
      <trkpt lat="39.11769" lon="-77.56513">
        <ele>107.3</ele>
      </trkpt>
      <trkpt lat="39.11749" lon="-77.56442">
        <ele>106.1</ele>
      </trkpt>
      <trkpt lat="39.1173" lon="-77.5637">
        <ele>104.3</ele>
      </trkpt>
      <trkpt lat="39.11681" lon="-77.56392">
        <ele>105.3</ele>
      </trkpt>
      <trkpt lat="39.11632" lon="-77.56414">
        <ele>104.8</ele>
      </trkpt>
      <trkpt lat="39.11563" lon="-77.56446">
        <ele>102.7</ele>
      </trkpt>
      <trkpt lat="39.11494" lon="-77.56478">
        <ele>101.5</ele>
      </trkpt>
      <trkpt lat="39.11426" lon="-77.5651">
        <ele>103.5</ele>
      </trkpt>
      <trkpt lat="39.11425" lon="-77.56506">
        <ele>103.6</ele>
      </trkpt>
      <trkpt lat="39.11399" lon="-77.56417">
        <ele>98.8</ele>
      </trkpt>
      <trkpt lat="39.11373" lon="-77.56322">
        <ele>96.3</ele>
      </trkpt>
      <trkpt lat="39.11348" lon="-77.56226">
        <ele>98.5</ele>
      </trkpt>
      <trkpt lat="39.11344" lon="-77.56227">
        <ele>98.6</ele>
      </trkpt>
      <trkpt lat="39.11297" lon="-77.56249">
        <ele>98.7</ele>
      </trkpt>
      <trkpt lat="39.11251" lon="-77.5627">
        <ele>98.9</ele>
      </trkpt>
      <trkpt lat="39.11211" lon="-77.56282">
        <ele>99.1</ele>
      </trkpt>
      <trkpt lat="39.11163" lon="-77.56302">
        <ele>97.7</ele>
      </trkpt>
      <trkpt lat="39.11116" lon="-77.56323">
        <ele>96.6</ele>
      </trkpt>
      <trkpt lat="39.11099" lon="-77.56327">
        <ele>96.1</ele>
      </trkpt>
      <trkpt lat="39.11084" lon="-77.56328">
        <ele>95.6</ele>
      </trkpt>
      <trkpt lat="39.11044" lon="-77.56319">
        <ele>94.3</ele>
      </trkpt>
      <trkpt lat="39.11045" lon="-77.56309">
        <ele>94.5</ele>
      </trkpt>
      <trkpt lat="39.11042" lon="-77.56308">
        <ele>94.4</ele>
      </trkpt>
    </trkseg>
  </trk>
</gpx>