<?xml version='1.0' encoding='UTF-8'?>
<gpx xmlns="http://www.topografix.com/GPX/1/1" xmlns:xsi="http://www.w3.org/2001/XMLSchema-instance" version="1.1" creator="RouteMaker reference fixture" xsi:schemaLocation="http://www.topografix.com/GPX/1/1 http://www.topografix.com/GPX/1/1/gpx.xsd http://www.cluetrust.com/XML/GPXDATA/1/0 http://www.cluetrust.com/Schemas/gpxdata10.xsd">
  <metadata>
    <name>VPRD TNL</name>
    <link href="https://ridewithgps.com/routes/48861101">
      <text>VPRD TNL</text>
    </link>
    <time>2024-10-23T21:46:10Z</time>
  </metadata>
  <trk>
    <name>VPRD TNL</name>
    <trkseg>
      <trkpt lat="39.11391" lon="-77.56151">
        <ele>99.5</ele>
      </trkpt>
      <trkpt lat="39.11338" lon="-77.56192">
        <ele>99.7</ele>
      </trkpt>
      <trkpt lat="39.11348" lon="-77.56226">
        <ele>98.5</ele>
      </trkpt>
      <trkpt lat="39.11308" lon="-77.56243">
        <ele>98.7</ele>
      </trkpt>
      <trkpt lat="39.11251" lon="-77.5627">
        <ele>98.9</ele>
      </trkpt>
      <trkpt lat="39.11211" lon="-77.56282">
        <ele>99.1</ele>
      </trkpt>
      <trkpt lat="39.11163" lon="-77.56302">
        <ele>97.7</ele>
      </trkpt>
      <trkpt lat="39.11116" lon="-77.56323">
        <ele>96.6</ele>
      </trkpt>
      <trkpt lat="39.11099" lon="-77.56327">
        <ele>96.1</ele>
      </trkpt>
      <trkpt lat="39.11084" lon="-77.56328">
        <ele>95.6</ele>
      </trkpt>
      <trkpt lat="39.11074" lon="-77.56327">
        <ele>95.2</ele>
      </trkpt>
      <trkpt lat="39.11044" lon="-77.56319">
        <ele>94.3</ele>
      </trkpt>
      <trkpt lat="39.11043" lon="-77.56327">
        <ele>94.1</ele>
      </trkpt>
      <trkpt lat="39.11044" lon="-77.56334">
        <ele>94.0</ele>
      </trkpt>
      <trkpt lat="39.11049" lon="-77.56345">
        <ele>93.9</ele>
      </trkpt>
      <trkpt lat="39.11057" lon="-77.56351">
        <ele>94.1</ele>
      </trkpt>
      <trkpt lat="39.11064" lon="-77.56355">
        <ele>94.2</ele>
      </trkpt>
      <trkpt lat="39.11072" lon="-77.56358">
        <ele>94.4</ele>
      </trkpt>
      <trkpt lat="39.11081" lon="-77.56362">
        <ele>94.6</ele>
      </trkpt>
      <trkpt lat="39.11087" lon="-77.56367">
        <ele>94.6</ele>
      </trkpt>
      <trkpt lat="39.11092" lon="-77.56374">
        <ele>94.7</ele>
      </trkpt>
      <trkpt lat="39.11099" lon="-77.56389">
        <ele>94.6</ele>
      </trkpt>
      <trkpt lat="39.11106" lon="-77.56406">
        <ele>94.5</ele>
      </trkpt>
      <trkpt lat="39.11121" lon="-77.56436">
        <ele>94.3</ele>
      </trkpt>
      <trkpt lat="39.11133" lon="-77.56457">
        <ele>94.2</ele>
      </trkpt>
      <trkpt lat="39.11136" lon="-77.56464">
        <ele>94.2</ele>
      </trkpt>
      <trkpt lat="39.1114" lon="-77.56481">
        <ele>94.2</ele>
      </trkpt>
      <trkpt lat="39.11149" lon="-77.56509">
        <ele>94.2</ele>
      </trkpt>
      <trkpt lat="39.11155" lon="-77.56522">
        <ele>94.5</ele>
      </trkpt>
      <trkpt lat="39.11163" lon="-77.56538">
        <ele>94.9</ele>
      </trkpt>
      <trkpt lat="39.11163" lon="-77.56538">
        <ele>94.9</ele>
      </trkpt>
      <trkpt lat="39.11194" lon="-77.56597">
        <ele>94.7</ele>
      </trkpt>
      <trkpt lat="39.11201" lon="-77.56617">
        <ele>95.1</ele>
      </trkpt>
      <trkpt lat="39.11216" lon="-77.56637">
        <ele>95.4</ele>
      </trkpt>
      <trkpt lat="39.11226" lon="-77.56656">
        <ele>95.5</ele>
      </trkpt>
      <trkpt lat="39.11244" lon="-77.56696">
        <ele>95.8</ele>
      </trkpt>
      <trkpt lat="39.11252" lon="-77.56718">
        <ele>96.3</ele>
      </trkpt>
      <trkpt lat="39.11261" lon="-77.56748">
        <ele>96.5</ele>
      </trkpt>
      <trkpt lat="39.11271" lon="-77.56776">
        <ele>96.5</ele>
      </trkpt>
      <trkpt lat="39.11299" lon="-77.56869">
        <ele>96.9</ele>
      </trkpt>
      <trkpt lat="39.11311" lon="-77.56917">
        <ele>97.1</ele>
      </trkpt>
      <trkpt lat="39.11323" lon="-77.56972">
        <ele>98.3</ele>
      </trkpt>
      <trkpt lat="39.11332" lon="-77.57033">
        <ele>99.8</ele>
      </trkpt>
      <trkpt lat="39.11347" lon="-77.57137">
        <ele>100.2</ele>
      </trkpt>
      <trkpt lat="39.11351" lon="-77.57221">
        <ele>101.2</ele>
      </trkpt>
      <trkpt lat="39.11352" lon="-77.57261">
        <ele>101.6</ele>
      </trkpt>
      <trkpt lat="39.11348" lon="-77.57373">
        <ele>103.1</ele>
      </trkpt>
      <trkpt lat="39.11341" lon="-77.57458">
        <ele>104.1</ele>
      </trkpt>
      <trkpt lat="39.113" lon="-77.57527">
        <ele>106.6</ele>
      </trkpt>
      <trkpt lat="39.11271" lon="-77.57569">
        <ele>107.2</ele>
      </trkpt>
      <trkpt lat="39.11218" lon="-77.57633">
        <ele>108.7</ele>
      </trkpt>
      <trkpt lat="39.11165" lon="-77.57697">
        <ele>109.2</ele>
      </trkpt>
      <trkpt lat="39.1114" lon="-77.57725">
        <ele>109.3</ele>
      </trkpt>
      <trkpt lat="39.11118" lon="-77.57752">
        <ele>111.0</ele>
      </trkpt>
      <trkpt lat="39.11067" lon="-77.57812">
        <ele>112.5</ele>
      </trkpt>
      <trkpt lat="39.11017" lon="-77.57873">
        <ele>113.2</ele>
      </trkpt>
      <trkpt lat="39.10968" lon="-77.57934">
        <ele>112.9</ele>
      </trkpt>
      <trkpt lat="39.10968" lon="-77.57934">
        <ele>112.9</ele>
      </trkpt>
      <trkpt lat="39.10932" lon="-77.57979">
        <ele>112.6</ele>
      </trkpt>
      <trkpt lat="39.10909" lon="-77.58017">
        <ele>112.7</ele>
      </trkpt>
      <trkpt lat="39.10893" lon="-77.58051">
        <ele>113.2</ele>
      </trkpt>
      <trkpt lat="39.1088" lon="-77.58082">
        <ele>114.8</ele>
      </trkpt>
      <trkpt lat="39.10872" lon="-77.58105">
        <ele>115.5</ele>
      </trkpt>
      <trkpt lat="39.10867" lon="-77.58124">
        <ele>115.5</ele>
      </trkpt>
      <trkpt lat="39.10864" lon="-77.5814">
        <ele>115.5</ele>
      </trkpt>
      <trkpt lat="39.10852" lon="-77.58244">
        <ele>114.8</ele>
      </trkpt>
      <trkpt lat="39.1085" lon="-77.58272">
        <ele>114.6</ele>
      </trkpt>
      <trkpt lat="39.10848" lon="-77.58315">
        <ele>114.2</ele>
      </trkpt>
      <trkpt lat="39.10848" lon="-77.5841">
        <ele>113.4</ele>
      </trkpt>
      <trkpt lat="39.10848" lon="-77.58505">
        <ele>114.6</ele>
      </trkpt>
      <trkpt lat="39.10848" lon="-77.58578">
        <ele>113.7</ele>
      </trkpt>
      <trkpt lat="39.10849" lon="-77.58636">
        <ele>113.4</ele>
      </trkpt>
      <trkpt lat="39.10851" lon="-77.58694">
        <ele>112.6</ele>
      </trkpt>
      <trkpt lat="39.10854" lon="-77.58728">
        <ele>112.3</ele>
      </trkpt>
      <trkpt lat="39.10857" lon="-77.58766">
        <ele>112.1</ele>
      </trkpt>
      <trkpt lat="39.10863" lon="-77.58802">
        <ele>111.8</ele>
      </trkpt>
      <trkpt lat="39.10871" lon="-77.58837">
        <ele>111.6</ele>
      </trkpt>
      <trkpt lat="39.10876" lon="-77.5886">
        <ele>111.5</ele>
      </trkpt>
      <trkpt lat="39.10884" lon="-77.58887">
        <ele>110.5</ele>
      </trkpt>
      <trkpt lat="39.10898" lon="-77.58927">
        <ele>108.6</ele>
      </trkpt>
      <trkpt lat="39.10914" lon="-77.5897">
        <ele>108.2</ele>
      </trkpt>
      <trkpt lat="39.10929" lon="-77.59">
        <ele>108.6</ele>
      </trkpt>
      <trkpt lat="39.10958" lon="-77.59053">
        <ele>108.2</ele>
      </trkpt>
      <trkpt lat="39.10985" lon="-77.59106">
        <ele>106.9</ele>
      </trkpt>
      <trkpt lat="39.10997" lon="-77.59139">
        <ele>106.2</ele>
      </trkpt>
      <trkpt lat="39.11008" lon="-77.5918">
        <ele>106.9</ele>
      </trkpt>
      <trkpt lat="39.11015" lon="-77.59212">
        <ele>108.3</ele>
      </trkpt>
      <trkpt lat="39.11018" lon="-77.59239">
        <ele>109.6</ele>
      </trkpt>
      <trkpt lat="39.11021" lon="-77.5928">
        <ele>110.2</ele>
      </trkpt>
      <trkpt lat="39.10995" lon="-77.59287">
        <ele>111.5</ele>
      </trkpt>
      <trkpt lat="39.10927" lon="-77.59318">
        <ele>118.8</ele>
      </trkpt>
      <trkpt lat="39.10858" lon="-77.59348">
        <ele>126.2</ele>
      </trkpt>
      <trkpt lat="39.10848" lon="-77.59354">
        <ele>126.9</ele>
      </trkpt>
      <trkpt lat="39.10831" lon="-77.59366">
        <ele>129.0</ele>
      </trkpt>
      <trkpt lat="39.10781" lon="-77.59413">
        <ele>135.7</ele>
      </trkpt>
      <trkpt lat="39.10766" lon="-77.59424">
        <ele>137.8</ele>
      </trkpt>
      <trkpt lat="39.10755" lon="-77.5943">
        <ele>138.9</ele>
      </trkpt>
      <trkpt lat="39.10716" lon="-77.59443">
        <ele>142.9</ele>
      </trkpt>
      <trkpt lat="39.10679" lon="-77.59452">
        <ele>146.3</ele>
      </trkpt>
      <trkpt lat="39.10594" lon="-77.59466">
        <ele>155.4</ele>
      </trkpt>
      <trkpt lat="39.10583" lon="-77.59471">
        <ele>156.3</ele>
      </trkpt>
      <trkpt lat="39.10569" lon="-77.59478">
        <ele>157.6</ele>
      </trkpt>
      <trkpt lat="39.10552" lon="-77.5949">
        <ele>158.7</ele>
      </trkpt>
      <trkpt lat="39.10534" lon="-77.59508">
        <ele>159.0</ele>
      </trkpt>
      <trkpt lat="39.10496" lon="-77.59549">
        <ele>159.7</ele>
      </trkpt>
      <trkpt lat="39.10444" lon="-77.59606">
        <ele>162.8</ele>
      </trkpt>
      <trkpt lat="39.10425" lon="-77.59634">
        <ele>164.4</ele>
      </trkpt>
      <trkpt lat="39.10409" lon="-77.59674">
        <ele>167.1</ele>
      </trkpt>
      <trkpt lat="39.10401" lon="-77.59694">
        <ele>168.6</ele>
      </trkpt>
      <trkpt lat="39.10396" lon="-77.59712">
        <ele>169.1</ele>
      </trkpt>
      <trkpt lat="39.10393" lon="-77.59731">
        <ele>169.1</ele>
      </trkpt>
      <trkpt lat="39.10391" lon="-77.59769">
        <ele>169.2</ele>
      </trkpt>
      <trkpt lat="39.10394" lon="-77.59792">
        <ele>169.2</ele>
      </trkpt>
      <trkpt lat="39.10407" lon="-77.59831">
        <ele>170.4</ele>
      </trkpt>
      <trkpt lat="39.10415" lon="-77.5985">
        <ele>173.4</ele>
      </trkpt>
      <trkpt lat="39.10427" lon="-77.59865">
        <ele>174.5</ele>
      </trkpt>
      <trkpt lat="39.10439" lon="-77.59874">
        <ele>174.7</ele>
      </trkpt>
      <trkpt lat="39.10456" lon="-77.59885">
        <ele>175.3</ele>
      </trkpt>
      <trkpt lat="39.10497" lon="-77.59906">
        <ele>177.0</ele>
      </trkpt>
      <trkpt lat="39.10531" lon="-77.59929">
        <ele>176.9</ele>
      </trkpt>
      <trkpt lat="39.10546" lon="-77.59952">
        <ele>175.9</ele>
      </trkpt>
      <trkpt lat="39.10557" lon="-77.59978">
        <ele>174.6</ele>
      </trkpt>
      <trkpt lat="39.10561" lon="-77.59998">
        <ele>173.9</ele>
      </trkpt>
      <trkpt lat="39.10564" lon="-77.60024">
        <ele>173.3</ele>
      </trkpt>
      <trkpt lat="39.10563" lon="-77.60062">
        <ele>172.9</ele>
      </trkpt>
      <trkpt lat="39.10553" lon="-77.60095">
        <ele>175.1</ele>
      </trkpt>
      <trkpt lat="39.10529" lon="-77.60147">
        <ele>178.0</ele>
      </trkpt>
      <trkpt lat="39.10506" lon="-77.60198">
        <ele>179.9</ele>
      </trkpt>
      <trkpt lat="39.10478" lon="-77.60253">
        <ele>180.7</ele>
      </trkpt>
      <trkpt lat="39.10452" lon="-77.60299">
        <ele>180.6</ele>
      </trkpt>
      <trkpt lat="39.10402" lon="-77.60374">
        <ele>176.6</ele>
      </trkpt>
      <trkpt lat="39.10389" lon="-77.60398">
        <ele>174.4</ele>
      </trkpt>
      <trkpt lat="39.10377" lon="-77.60427">
        <ele>174.1</ele>
      </trkpt>
      <trkpt lat="39.10373" lon="-77.60441">
        <ele>174.1</ele>
      </trkpt>
      <trkpt lat="39.10365" lon="-77.60476">
        <ele>174.0</ele>
      </trkpt>
      <trkpt lat="39.10362" lon="-77.60496">
        <ele>174.2</ele>
      </trkpt>
      <trkpt lat="39.10362" lon="-77.60508">
        <ele>174.3</ele>
      </trkpt>
      <trkpt lat="39.10365" lon="-77.60547">
        <ele>175.1</ele>
      </trkpt>
      <trkpt lat="39.10366" lon="-77.60566">
        <ele>176.2</ele>
      </trkpt>
      <trkpt lat="39.10366" lon="-77.60582">
        <ele>178.0</ele>
      </trkpt>
      <trkpt lat="39.10364" lon="-77.60612">
        <ele>179.7</ele>
      </trkpt>
      <trkpt lat="39.10362" lon="-77.60635">
        <ele>180.6</ele>
      </trkpt>
      <trkpt lat="39.10355" lon="-77.60674">
        <ele>181.1</ele>
      </trkpt>
      <trkpt lat="39.10348" lon="-77.60701">
        <ele>181.3</ele>
      </trkpt>
      <trkpt lat="39.10337" lon="-77.6074">
        <ele>181.5</ele>
      </trkpt>
      <trkpt lat="39.10324" lon="-77.60772">
        <ele>182.4</ele>
      </trkpt>
      <trkpt lat="39.10317" lon="-77.60788">
        <ele>183.4</ele>
      </trkpt>
      <trkpt lat="39.1027" lon="-77.60876">
        <ele>183.4</ele>
      </trkpt>
      <trkpt lat="39.10261" lon="-77.6089">
        <ele>183.5</ele>
      </trkpt>
      <trkpt lat="39.10261" lon="-77.6089">
        <ele>183.5</ele>
      </trkpt>
      <trkpt lat="39.10249" lon="-77.60905">
        <ele>183.8</ele>
      </trkpt>
      <trkpt lat="39.10187" lon="-77.6097">
        <ele>183.5</ele>
      </trkpt>
      <trkpt lat="39.1015" lon="-77.61006">
        <ele>183.1</ele>
      </trkpt>
      <trkpt lat="39.10139" lon="-77.61015">
        <ele>182.1</ele>
      </trkpt>
      <trkpt lat="39.10126" lon="-77.61025">
        <ele>181.4</ele>
      </trkpt>
      <trkpt lat="39.10106" lon="-77.61035">
        <ele>181.5</ele>
      </trkpt>
      <trkpt lat="39.10044" lon="-77.61055">
        <ele>183.9</ele>
      </trkpt>
      <trkpt lat="39.09982" lon="-77.61074">
        <ele>184.3</ele>
      </trkpt>
      <trkpt lat="39.09924" lon="-77.611">
        <ele>183.7</ele>
      </trkpt>
      <trkpt lat="39.09884" lon="-77.6114">
        <ele>185.2</ele>
      </trkpt>
      <trkpt lat="39.09844" lon="-77.6118">
        <ele>185.1</ele>
      </trkpt>
      <trkpt lat="39.09796" lon="-77.61243">
        <ele>180.7</ele>
      </trkpt>
      <trkpt lat="39.09748" lon="-77.61307">
        <ele>175.0</ele>
      </trkpt>
      <trkpt lat="39.097" lon="-77.6137">
        <ele>169.3</ele>
      </trkpt>
      <trkpt lat="39.09641" lon="-77.61453">
        <ele>168.3</ele>
      </trkpt>
      <trkpt lat="39.09581" lon="-77.61535">
        <ele>165.3</ele>
      </trkpt>
      <trkpt lat="39.09546" lon="-77.61581">
        <ele>163.9</ele>
      </trkpt>
      <trkpt lat="39.0951" lon="-77.61627">
        <ele>161.8</ele>
      </trkpt>
      <trkpt lat="39.09481" lon="-77.61668">
        <ele>159.0</ele>
      </trkpt>
      <trkpt lat="39.09449" lon="-77.61706">
        <ele>156.7</ele>
      </trkpt>
      <trkpt lat="39.09428" lon="-77.61728">
        <ele>156.2</ele>
      </trkpt>
      <trkpt lat="39.09409" lon="-77.6174">
        <ele>156.1</ele>
      </trkpt>
      <trkpt lat="39.09389" lon="-77.61749">
        <ele>156.2</ele>
      </trkpt>
      <trkpt lat="39.09335" lon="-77.61768">
        <ele>158.8</ele>
      </trkpt>
      <trkpt lat="39.09299" lon="-77.61787">
        <ele>159.0</ele>
      </trkpt>
      <trkpt lat="39.09275" lon="-77.61799">
        <ele>158.8</ele>
      </trkpt>
      <trkpt lat="39.09227" lon="-77.61827">
        <ele>158.8</ele>
      </trkpt>
      <trkpt lat="39.09181" lon="-77.61866">
        <ele>158.7</ele>
      </trkpt>
      <trkpt lat="39.09145" lon="-77.61904">
        <ele>156.5</ele>
      </trkpt>
      <trkpt lat="39.09108" lon="-77.61942">
        <ele>153.1</ele>
      </trkpt>
      <trkpt lat="39.09064" lon="-77.61972">
        <ele>149.2</ele>
      </trkpt>
      <trkpt lat="39.09049" lon="-77.61984">
        <ele>148.1</ele>
      </trkpt>
      <trkpt lat="39.09039" lon="-77.6196">
        <ele>147.8</ele>
      </trkpt>
      <trkpt lat="39.09033" lon="-77.61948">
        <ele>147.9</ele>
      </trkpt>
      <trkpt lat="39.09024" lon="-77.61935">
        <ele>148.2</ele>
      </trkpt>
      <trkpt lat="39.09015" lon="-77.61925">
        <ele>148.8</ele>
      </trkpt>
      <trkpt lat="39.09004" lon="-77.61916">
        <ele>149.9</ele>
      </trkpt>
      <trkpt lat="39.08989" lon="-77.61904">
        <ele>150.6</ele>
      </trkpt>
      <trkpt lat="39.0897" lon="-77.61895">
        <ele>148.6</ele>
      </trkpt>
      <trkpt lat="39.08947" lon="-77.61886">
        <ele>147.6</ele>
      </trkpt>
      <trkpt lat="39.08909" lon="-77.61875">
        <ele>146.1</ele>
      </trkpt>
      <trkpt lat="39.08832" lon="-77.61851">
        <ele>149.9</ele>
      </trkpt>
      <trkpt lat="39.08762" lon="-77.61831">
        <ele>150.4</ele>
      </trkpt>
      <trkpt lat="39.08691" lon="-77.61811">
        <ele>148.4</ele>
      </trkpt>
      <trkpt lat="39.08689" lon="-77.61882">
        <ele>144.7</ele>
      </trkpt>
      <trkpt lat="39.08687" lon="-77.61953">
        <ele>135.8</ele>
      </trkpt>
      <trkpt lat="39.08686" lon="-77.61979">
        <ele>134.8</ele>
      </trkpt>
      <trkpt lat="39.0868" lon="-77.61992">
        <ele>134.2</ele>
      </trkpt>
      <trkpt lat="39.08672" lon="-77.62004">
        <ele>133.6</ele>
      </trkpt>
      <trkpt lat="39.08668" lon="-77.62008">
        <ele>133.4</ele>
      </trkpt>
      <trkpt lat="39.08654" lon="-77.62017">
        <ele>132.7</ele>
      </trkpt>
      <trkpt lat="39.08645" lon="-77.62022">
        <ele>132.9</ele>
      </trkpt>
      <trkpt lat="39.08613" lon="-77.62033">
        <ele>132.9</ele>
      </trkpt>
      <trkpt lat="39.08589" lon="-77.62043">
        <ele>132.7</ele>
      </trkpt>
      <trkpt lat="39.08532" lon="-77.62074">
        <ele>135.5</ele>
      </trkpt>
      <trkpt lat="39.08476" lon="-77.62104">
        <ele>141.6</ele>
      </trkpt>
      <trkpt lat="39.08433" lon="-77.62128">
        <ele>146.7</ele>
      </trkpt>
      <trkpt lat="39.08426" lon="-77.62132">
        <ele>147.3</ele>
      </trkpt>
      <trkpt lat="39.08405" lon="-77.62147">
        <ele>147.3</ele>
      </trkpt>
      <trkpt lat="39.08368" lon="-77.62178">
        <ele>143.8</ele>
      </trkpt>
      <trkpt lat="39.08359" lon="-77.62182">
        <ele>142.7</ele>
      </trkpt>
      <trkpt lat="39.08343" lon="-77.62186">
        <ele>141.4</ele>
      </trkpt>
      <trkpt lat="39.08292" lon="-77.62187">
        <ele>144.5</ele>
      </trkpt>
      <trkpt lat="39.08267" lon="-77.6219">
        <ele>145.2</ele>
      </trkpt>
      <trkpt lat="39.08258" lon="-77.62193">
        <ele>145.2</ele>
      </trkpt>
      <trkpt lat="39.08182" lon="-77.62218">
        <ele>138.7</ele>
      </trkpt>
      <trkpt lat="39.08131" lon="-77.62238">
        <ele>142.0</ele>
      </trkpt>
      <trkpt lat="39.08111" lon="-77.62244">
        <ele>143.5</ele>
      </trkpt>
      <trkpt lat="39.0803" lon="-77.62264">
        <ele>148.5</ele>
      </trkpt>
      <trkpt lat="39.0795" lon="-77.62284">
        <ele>145.3</ele>
      </trkpt>
      <trkpt lat="39.0787" lon="-77.62304">
        <ele>140.3</ele>
      </trkpt>
      <trkpt lat="39.07843" lon="-77.62308">
        <ele>136.6</ele>
      </trkpt>
      <trkpt lat="39.07798" lon="-77.62312">
        <ele>139.4</ele>
      </trkpt>
      <trkpt lat="39.0778" lon="-77.62316">
        <ele>141.3</ele>
      </trkpt>
      <trkpt lat="39.0774" lon="-77.6233">
        <ele>145.7</ele>
      </trkpt>
      <trkpt lat="39.07706" lon="-77.62338">
        <ele>149.9</ele>
      </trkpt>
      <trkpt lat="39.07686" lon="-77.62442">
        <ele>155.6</ele>
      </trkpt>
      <trkpt lat="39.07667" lon="-77.62546">
        <ele>161.7</ele>
      </trkpt>
      <trkpt lat="39.07647" lon="-77.6265">
        <ele>164.8</ele>
      </trkpt>
      <trkpt lat="39.07628" lon="-77.62754">
        <ele>167.3</ele>
      </trkpt>
      <trkpt lat="39.07628" lon="-77.62754">
        <ele>167.3</ele>
      </trkpt>
      <trkpt lat="39.07607" lon="-77.62865">
        <ele>166.7</ele>
      </trkpt>
      <trkpt lat="39.07586" lon="-77.62977">
        <ele>165.3</ele>
      </trkpt>
      <trkpt lat="39.07565" lon="-77.63088">
        <ele>160.9</ele>
      </trkpt>
      <trkpt lat="39.07545" lon="-77.632">
        <ele>171.4</ele>
      </trkpt>
      <trkpt lat="39.07534" lon="-77.63278">
        <ele>176.4</ele>
      </trkpt>
      <trkpt lat="39.07523" lon="-77.63356">
        <ele>178.8</ele>
      </trkpt>
      <trkpt lat="39.07514" lon="-77.63419">
        <ele>180.3</ele>
      </trkpt>
      <trkpt lat="39.07509" lon="-77.63441">
        <ele>180.4</ele>
      </trkpt>
      <trkpt lat="39.07483" lon="-77.63531">
        <ele>180.2</ele>
      </trkpt>
      <trkpt lat="39.07457" lon="-77.63621">
        <ele>175.3</ele>
      </trkpt>
      <trkpt lat="39.07426" lon="-77.63729">
        <ele>175.5</ele>
      </trkpt>
      <trkpt lat="39.07396" lon="-77.63836">
        <ele>175.0</ele>
      </trkpt>
      <trkpt lat="39.07366" lon="-77.63944">
        <ele>178.5</ele>
      </trkpt>
      <trkpt lat="39.07363" lon="-77.63961">
        <ele>179.3</ele>
      </trkpt>
      <trkpt lat="39.07362" lon="-77.63983">
        <ele>182.3</ele>
      </trkpt>
      <trkpt lat="39.07361" lon="-77.6401">
        <ele>183.6</ele>
      </trkpt>
      <trkpt lat="39.07361" lon="-77.64055">
        <ele>184.6</ele>
      </trkpt>
      <trkpt lat="39.0736" lon="-77.64079">
        <ele>185.8</ele>
      </trkpt>
      <trkpt lat="39.07353" lon="-77.64156">
        <ele>193.5</ele>
      </trkpt>
      <trkpt lat="39.07346" lon="-77.64233">
        <ele>199.9</ele>
      </trkpt>
      <trkpt lat="39.07339" lon="-77.6431">
        <ele>201.7</ele>
      </trkpt>
      <trkpt lat="39.07335" lon="-77.64324">
        <ele>201.3</ele>
      </trkpt>
      <trkpt lat="39.07325" lon="-77.64355">
        <ele>198.5</ele>
      </trkpt>
      <trkpt lat="39.07314" lon="-77.64381">
        <ele>195.8</ele>
      </trkpt>
      <trkpt lat="39.07312" lon="-77.64389">
        <ele>194.9</ele>
      </trkpt>
      <trkpt lat="39.07304" lon="-77.64449">
        <ele>189.0</ele>
      </trkpt>
      <trkpt lat="39.07295" lon="-77.64489">
        <ele>185.5</ele>
      </trkpt>
      <trkpt lat="39.07292" lon="-77.64499">
        <ele>185.2</ele>
      </trkpt>
      <trkpt lat="39.07284" lon="-77.64512">
        <ele>184.8</ele>
      </trkpt>
      <trkpt lat="39.07257" lon="-77.64557">
        <ele>183.6</ele>
      </trkpt>
      <trkpt lat="39.07251" lon="-77.64568">
        <ele>183.4</ele>
      </trkpt>
      <trkpt lat="39.07246" lon="-77.64584">
        <ele>182.9</ele>
      </trkpt>
      <trkpt lat="39.07242" lon="-77.64598">
        <ele>182.4</ele>
      </trkpt>
      <trkpt lat="39.07229" lon="-77.6469">
        <ele>181.7</ele>
      </trkpt>
      <trkpt lat="39.07215" lon="-77.64781">
        <ele>180.5</ele>
      </trkpt>
      <trkpt lat="39.07201" lon="-77.64873">
        <ele>183.8</ele>
      </trkpt>
      <trkpt lat="39.07187" lon="-77.64965">
        <ele>188.7</ele>
      </trkpt>
      <trkpt lat="39.07173" lon="-77.65057">
        <ele>196.0</ele>
      </trkpt>
      <trkpt lat="39.07172" lon="-77.65068">
        <ele>196.9</ele>
      </trkpt>
      <trkpt lat="39.07173" lon="-77.6508">
        <ele>197.3</ele>
      </trkpt>
      <trkpt lat="39.07175" lon="-77.65092">
        <ele>198.1</ele>
      </trkpt>
      <trkpt lat="39.0718" lon="-77.65105">
        <ele>199.9</ele>
      </trkpt>
      <trkpt lat="39.07216" lon="-77.65193">
        <ele>202.9</ele>
      </trkpt>
      <trkpt lat="39.0722" lon="-77.65209">
        <ele>203.4</ele>
      </trkpt>
      <trkpt lat="39.07225" lon="-77.65231">
        <ele>204.8</ele>
      </trkpt>
      <trkpt lat="39.07226" lon="-77.65248">
        <ele>205.9</ele>
      </trkpt>
      <trkpt lat="39.07227" lon="-77.65276">
        <ele>208.9</ele>
      </trkpt>
      <trkpt lat="39.07225" lon="-77.65353">
        <ele>216.4</ele>
      </trkpt>
      <trkpt lat="39.07224" lon="-77.65381">
        <ele>217.1</ele>
      </trkpt>
      <trkpt lat="39.07222" lon="-77.65408">
        <ele>216.4</ele>
      </trkpt>
      <trkpt lat="39.07216" lon="-77.65461">
        <ele>216.9</ele>
      </trkpt>
      <trkpt lat="39.07197" lon="-77.65548">
        <ele>223.0</ele>
      </trkpt>
      <trkpt lat="39.07183" lon="-77.65604">
        <ele>226.9</ele>
      </trkpt>
      <trkpt lat="39.07171" lon="-77.65666">
        <ele>228.1</ele>
      </trkpt>
      <trkpt lat="39.07237" lon="-77.65652">
        <ele>229.0</ele>
      </trkpt>
      <trkpt lat="39.07303" lon="-77.65637">
        <ele>230.1</ele>
      </trkpt>
      <trkpt lat="39.07356" lon="-77.65626">
        <ele>231.4</ele>
      </trkpt>
      <trkpt lat="39.0741" lon="-77.65616">
        <ele>234.0</ele>
      </trkpt>
      <trkpt lat="39.07468" lon="-77.65598">
        <ele>235.6</ele>
      </trkpt>
      <trkpt lat="39.07475" lon="-77.65595">
        <ele>235.5</ele>
      </trkpt>
      <trkpt lat="39.07475" lon="-77.65595">
        <ele>235.5</ele>
      </trkpt>
      <trkpt lat="39.07508" lon="-77.6558">
        <ele>234.7</ele>
      </trkpt>
      <trkpt lat="39.07529" lon="-77.65566">
        <ele>234.1</ele>
      </trkpt>
      <trkpt lat="39.07542" lon="-77.65555">
        <ele>233.8</ele>
      </trkpt>
      <trkpt lat="39.07558" lon="-77.6554">
        <ele>233.3</ele>
      </trkpt>
      <trkpt lat="39.07574" lon="-77.65524">
        <ele>232.7</ele>
      </trkpt>
      <trkpt lat="39.07601" lon="-77.65493">
        <ele>231.2</ele>
      </trkpt>
      <trkpt lat="39.07629" lon="-77.65465">
        <ele>229.1</ele>
      </trkpt>
      <trkpt lat="39.07646" lon="-77.65439">
        <ele>230.0</ele>
      </trkpt>
      <trkpt lat="39.07681" lon="-77.6538">
        <ele>233.7</ele>
      </trkpt>
      <trkpt lat="39.07695" lon="-77.65365">
        <ele>234.1</ele>
      </trkpt>
      <trkpt lat="39.07723" lon="-77.65342">
        <ele>234.2</ele>
      </trkpt>
      <trkpt lat="39.07773" lon="-77.65306">
        <ele>235.9</ele>
      </trkpt>
      <trkpt lat="39.07829" lon="-77.65264">
        <ele>238.2</ele>
      </trkpt>
      <trkpt lat="39.07842" lon="-77.65256">
        <ele>238.6</ele>
      </trkpt>
      <trkpt lat="39.07878" lon="-77.65244">
        <ele>239.8</ele>
      </trkpt>
      <trkpt lat="39.07918" lon="-77.65237">
        <ele>240.2</ele>
      </trkpt>
      <trkpt lat="39.07941" lon="-77.65235">
        <ele>240.3</ele>
      </trkpt>
      <trkpt lat="39.07967" lon="-77.65234">
        <ele>242.4</ele>
      </trkpt>
      <trkpt lat="39.08048" lon="-77.65241">
        <ele>245.2</ele>
      </trkpt>
      <trkpt lat="39.08129" lon="-77.65248">
        <ele>245.4</ele>
      </trkpt>
      <trkpt lat="39.08202" lon="-77.65256">
        <ele>242.3</ele>
      </trkpt>
      <trkpt lat="39.08218" lon="-77.65256">
        <ele>241.4</ele>
      </trkpt>
      <trkpt lat="39.08243" lon="-77.65254">
        <ele>240.1</ele>
      </trkpt>
      <trkpt lat="39.08264" lon="-77.6525">
        <ele>239.4</ele>
      </trkpt>
      <trkpt lat="39.0835" lon="-77.65224">
        <ele>237.0</ele>
      </trkpt>
      <trkpt lat="39.08421" lon="-77.65205">
        <ele>235.3</ele>
      </trkpt>
      <trkpt lat="39.08434" lon="-77.652">
        <ele>235.0</ele>
      </trkpt>
      <trkpt lat="39.08446" lon="-77.65194">
        <ele>234.5</ele>
      </trkpt>
      <trkpt lat="39.08465" lon="-77.65181">
        <ele>233.6</ele>
      </trkpt>
      <trkpt lat="39.08529" lon="-77.65132">
        <ele>229.7</ele>
      </trkpt>
      <trkpt lat="39.08593" lon="-77.65082">
        <ele>222.3</ele>
      </trkpt>
      <trkpt lat="39.08657" lon="-77.65033">
        <ele>216.0</ele>
      </trkpt>
      <trkpt lat="39.08692" lon="-77.65008">
        <ele>213.8</ele>
      </trkpt>
      <trkpt lat="39.08731" lon="-77.64978">
        <ele>211.8</ele>
      </trkpt>
      <trkpt lat="39.08769" lon="-77.64949">
        <ele>209.0</ele>
      </trkpt>
      <trkpt lat="39.0883" lon="-77.64904">
        <ele>206.0</ele>
      </trkpt>
      <trkpt lat="39.08869" lon="-77.64878">
        <ele>203.5</ele>
      </trkpt>
      <trkpt lat="39.08906" lon="-77.64852">
        <ele>203.5</ele>
      </trkpt>
      <trkpt lat="39.08977" lon="-77.64807">
        <ele>202.4</ele>
      </trkpt>
      <trkpt lat="39.08994" lon="-77.64794">
        <ele>202.0</ele>
      </trkpt>
      <trkpt lat="39.09056" lon="-77.64748">
        <ele>199.2</ele>
      </trkpt>
      <trkpt lat="39.09119" lon="-77.64701">
        <ele>195.8</ele>
      </trkpt>
      <trkpt lat="39.09181" lon="-77.64654">
        <ele>191.1</ele>
      </trkpt>
      <trkpt lat="39.09219" lon="-77.64627">
        <ele>189.6</ele>
      </trkpt>
      <trkpt lat="39.09234" lon="-77.64619">
        <ele>189.2</ele>
      </trkpt>
      <trkpt lat="39.09238" lon="-77.64619">
        <ele>189.1</ele>
      </trkpt>
      <trkpt lat="39.09247" lon="-77.6462">
        <ele>188.4</ele>
      </trkpt>
      <trkpt lat="39.09252" lon="-77.64623">
        <ele>187.8</ele>
      </trkpt>
      <trkpt lat="39.09323" lon="-77.64685">
        <ele>177.2</ele>
      </trkpt>
      <trkpt lat="39.09331" lon="-77.64687">
        <ele>176.5</ele>
      </trkpt>
      <trkpt lat="39.09346" lon="-77.64688">
        <ele>176.4</ele>
      </trkpt>
      <trkpt lat="39.09337" lon="-77.6472">
        <ele>176.4</ele>
      </trkpt>
      <trkpt lat="39.09315" lon="-77.64787">
        <ele>178.1</ele>
      </trkpt>
      <trkpt lat="39.09307" lon="-77.64819">
        <ele>179.0</ele>
      </trkpt>
      <trkpt lat="39.09301" lon="-77.64851">
        <ele>179.2</ele>
      </trkpt>
      <trkpt lat="39.09301" lon="-77.64861">
        <ele>179.3</ele>
      </trkpt>
      <trkpt lat="39.09304" lon="-77.64875">
        <ele>179.6</ele>
      </trkpt>
      <trkpt lat="39.09329" lon="-77.64959">
        <ele>183.6</ele>
      </trkpt>
      <trkpt lat="39.09346" lon="-77.65014">
        <ele>185.8</ele>
      </trkpt>
      <trkpt lat="39.09363" lon="-77.65069">
        <ele>188.8</ele>
      </trkpt>
      <trkpt lat="39.09371" lon="-77.65104">
        <ele>190.4</ele>
      </trkpt>
      <trkpt lat="39.09375" lon="-77.65125">
        <ele>191.2</ele>
      </trkpt>
      <trkpt lat="39.09375" lon="-77.65134">
        <ele>191.4</ele>
      </trkpt>
      <trkpt lat="39.09373" lon="-77.65158">
        <ele>192.2</ele>
      </trkpt>
      <trkpt lat="39.09365" lon="-77.65181">
        <ele>192.7</ele>
      </trkpt>
      <trkpt lat="39.09357" lon="-77.65196">
        <ele>192.7</ele>
      </trkpt>
      <trkpt lat="39.09347" lon="-77.6521">
        <ele>192.4</ele>
      </trkpt>
      <trkpt lat="39.09336" lon="-77.65221">
        <ele>191.9</ele>
      </trkpt>
      <trkpt lat="39.0932" lon="-77.65232">
        <ele>190.8</ele>
      </trkpt>
      <trkpt lat="39.09279" lon="-77.65263">
        <ele>188.1</ele>
      </trkpt>
      <trkpt lat="39.09251" lon="-77.65291">
        <ele>186.6</ele>
      </trkpt>
      <trkpt lat="39.09238" lon="-77.65305">
        <ele>185.2</ele>
      </trkpt>
      <trkpt lat="39.09222" lon="-77.65328">
        <ele>182.4</ele>
      </trkpt>
      <trkpt lat="39.09216" lon="-77.65344">
        <ele>181.5</ele>
      </trkpt>
      <trkpt lat="39.09215" lon="-77.65363">
        <ele>180.7</ele>
      </trkpt>
      <trkpt lat="39.09218" lon="-77.65384">
        <ele>180.1</ele>
      </trkpt>
      <trkpt lat="39.09231" lon="-77.65465">
        <ele>177.7</ele>
      </trkpt>
      <trkpt lat="39.09233" lon="-77.65491">
        <ele>177.5</ele>
      </trkpt>
      <trkpt lat="39.09234" lon="-77.65508">
        <ele>177.3</ele>
      </trkpt>
      <trkpt lat="39.09232" lon="-77.65527">
        <ele>176.9</ele>
      </trkpt>
      <trkpt lat="39.09227" lon="-77.65549">
        <ele>175.9</ele>
      </trkpt>
      <trkpt lat="39.0922" lon="-77.65566">
        <ele>175.0</ele>
      </trkpt>
      <trkpt lat="39.09214" lon="-77.65577">
        <ele>174.8</ele>
      </trkpt>
      <trkpt lat="39.09196" lon="-77.65599">
        <ele>174.0</ele>
      </trkpt>
      <trkpt lat="39.09167" lon="-77.6563">
        <ele>172.0</ele>
      </trkpt>
      <trkpt lat="39.09151" lon="-77.65645">
        <ele>171.0</ele>
      </trkpt>
      <trkpt lat="39.09133" lon="-77.65661">
        <ele>168.7</ele>
      </trkpt>
      <trkpt lat="39.091" lon="-77.6568">
        <ele>165.9</ele>
      </trkpt>
      <trkpt lat="39.0909" lon="-77.6569">
        <ele>164.6</ele>
      </trkpt>
      <trkpt lat="39.09082" lon="-77.65704">
        <ele>163.3</ele>
      </trkpt>
      <trkpt lat="39.09072" lon="-77.65728">
        <ele>161.1</ele>
      </trkpt>
      <trkpt lat="39.09062" lon="-77.65764">
        <ele>160.7</ele>
      </trkpt>
      <trkpt lat="39.09053" lon="-77.65798">
        <ele>159.3</ele>
      </trkpt>
      <trkpt lat="39.09049" lon="-77.65809">
        <ele>158.4</ele>
      </trkpt>
      <trkpt lat="39.09044" lon="-77.6582">
        <ele>157.7</ele>
      </trkpt>
      <trkpt lat="39.09023" lon="-77.6586">
        <ele>156.5</ele>
      </trkpt>
      <trkpt lat="39.09016" lon="-77.65878">
        <ele>155.8</ele>
      </trkpt>
      <trkpt lat="39.09015" lon="-77.65886">
        <ele>155.3</ele>
      </trkpt>
      <trkpt lat="39.09014" lon="-77.65899">
        <ele>154.7</ele>
      </trkpt>
      <trkpt lat="39.09014" lon="-77.65924">
        <ele>154.0</ele>
      </trkpt>
      <trkpt lat="39.09017" lon="-77.65941">
        <ele>153.8</ele>
      </trkpt>
      <trkpt lat="39.0902" lon="-77.65954">
        <ele>153.7</ele>
      </trkpt>
      <trkpt lat="39.09023" lon="-77.65961">
        <ele>153.7</ele>
      </trkpt>
      <trkpt lat="39.09034" lon="-77.65979">
        <ele>153.7</ele>
      </trkpt>
      <trkpt lat="39.09054" lon="-77.6601">
        <ele>153.1</ele>
      </trkpt>
      <trkpt lat="39.09057" lon="-77.66018">
        <ele>152.9</ele>
      </trkpt>
      <trkpt lat="39.09063" lon="-77.66035">
        <ele>152.2</ele>
      </trkpt>
      <trkpt lat="39.09066" lon="-77.66059">
        <ele>150.8</ele>
      </trkpt>
      <trkpt lat="39.09067" lon="-77.66084">
        <ele>149.7</ele>
      </trkpt>
      <trkpt lat="39.09063" lon="-77.66153">
        <ele>150.4</ele>
      </trkpt>
      <trkpt lat="39.09062" lon="-77.66189">
        <ele>150.8</ele>
      </trkpt>
      <trkpt lat="39.09062" lon="-77.66226">
        <ele>150.7</ele>
      </trkpt>
      <trkpt lat="39.09064" lon="-77.66322">
        <ele>147.1</ele>
      </trkpt>
      <trkpt lat="39.09068" lon="-77.66427">
        <ele>141.6</ele>
      </trkpt>
      <trkpt lat="39.09073" lon="-77.66528">
        <ele>143.1</ele>
      </trkpt>
      <trkpt lat="39.09078" lon="-77.66629">
        <ele>139.4</ele>
      </trkpt>
      <trkpt lat="39.09083" lon="-77.66731">
        <ele>136.4</ele>
      </trkpt>
      <trkpt lat="39.09088" lon="-77.66832">
        <ele>133.6</ele>
      </trkpt>
      <trkpt lat="39.09088" lon="-77.66846">
        <ele>133.3</ele>
      </trkpt>
      <trkpt lat="39.09085" lon="-77.66859">
        <ele>133.1</ele>
      </trkpt>
      <trkpt lat="39.09082" lon="-77.66866">
        <ele>132.8</ele>
      </trkpt>
      <trkpt lat="39.09078" lon="-77.66872">
        <ele>132.4</ele>
      </trkpt>
      <trkpt lat="39.09068" lon="-77.66882">
        <ele>131.3</ele>
      </trkpt>
      <trkpt lat="39.09002" lon="-77.66929">
        <ele>132.0</ele>
      </trkpt>
      <trkpt lat="39.08959" lon="-77.66965">
        <ele>136.1</ele>
      </trkpt>
      <trkpt lat="39.08902" lon="-77.67006">
        <ele>139.1</ele>
      </trkpt>
      <trkpt lat="39.08845" lon="-77.67051">
        <ele>142.9</ele>
      </trkpt>
      <trkpt lat="39.08821" lon="-77.67067">
        <ele>143.9</ele>
      </trkpt>
      <trkpt lat="39.0879" lon="-77.6709">
        <ele>144.1</ele>
      </trkpt>
      <trkpt lat="39.08754" lon="-77.67112">
        <ele>144.8</ele>
      </trkpt>
      <trkpt lat="39.08754" lon="-77.67112">
        <ele>144.8</ele>
      </trkpt>
      <trkpt lat="39.08728" lon="-77.67125">
        <ele>144.5</ele>
      </trkpt>
      <trkpt lat="39.08688" lon="-77.67142">
        <ele>142.6</ele>
      </trkpt>
      <trkpt lat="39.0866" lon="-77.67151">
        <ele>141.1</ele>
      </trkpt>
      <trkpt lat="39.08652" lon="-77.67151">
        <ele>140.4</ele>
      </trkpt>
      <trkpt lat="39.08632" lon="-77.67148">
        <ele>138.5</ele>
      </trkpt>
      <trkpt lat="39.08618" lon="-77.67144">
        <ele>136.7</ele>
      </trkpt>
      <trkpt lat="39.08583" lon="-77.67129">
        <ele>134.3</ele>
      </trkpt>
      <trkpt lat="39.08574" lon="-77.67126">
        <ele>133.4</ele>
      </trkpt>
      <trkpt lat="39.08568" lon="-77.67126">
        <ele>133.0</ele>
      </trkpt>
      <trkpt lat="39.08559" lon="-77.67127">
        <ele>132.3</ele>
      </trkpt>
      <trkpt lat="39.08535" lon="-77.67134">
        <ele>132.0</ele>
      </trkpt>
      <trkpt lat="39.08526" lon="-77.67139">
        <ele>132.6</ele>
      </trkpt>
      <trkpt lat="39.08517" lon="-77.67144">
        <ele>133.4</ele>
      </trkpt>
      <trkpt lat="39.08507" lon="-77.67158">
        <ele>134.5</ele>
      </trkpt>
      <trkpt lat="39.08498" lon="-77.67173">
        <ele>135.4</ele>
      </trkpt>
      <trkpt lat="39.0848" lon="-77.672">
        <ele>137.1</ele>
      </trkpt>
      <trkpt lat="39.08462" lon="-77.67223">
        <ele>139.1</ele>
      </trkpt>
      <trkpt lat="39.08422" lon="-77.6726">
        <ele>141.6</ele>
      </trkpt>
      <trkpt lat="39.08397" lon="-77.67284">
        <ele>142.6</ele>
      </trkpt>
      <trkpt lat="39.08384" lon="-77.67299">
        <ele>143.9</ele>
      </trkpt>
      <trkpt lat="39.08378" lon="-77.67309">
        <ele>144.3</ele>
      </trkpt>
      <trkpt lat="39.0837" lon="-77.67324">
        <ele>144.4</ele>
      </trkpt>
      <trkpt lat="39.08364" lon="-77.67337">
        <ele>144.3</ele>
      </trkpt>
      <trkpt lat="39.08361" lon="-77.67349">
        <ele>144.1</ele>
      </trkpt>
      <trkpt lat="39.0835" lon="-77.67397">
        <ele>143.7</ele>
      </trkpt>
      <trkpt lat="39.08343" lon="-77.67411">
        <ele>143.9</ele>
      </trkpt>
      <trkpt lat="39.08319" lon="-77.67435">
        <ele>144.5</ele>
      </trkpt>
      <trkpt lat="39.08299" lon="-77.67451">
        <ele>144.1</ele>
      </trkpt>
      <trkpt lat="39.08252" lon="-77.67492">
        <ele>142.5</ele>
      </trkpt>
      <trkpt lat="39.08234" lon="-77.67511">
        <ele>141.0</ele>
      </trkpt>
      <trkpt lat="39.08241" lon="-77.67543">
        <ele>140.9</ele>
      </trkpt>
      <trkpt lat="39.08254" lon="-77.67614">
        <ele>139.6</ele>
      </trkpt>
      <trkpt lat="39.0827" lon="-77.67719">
        <ele>136.2</ele>
      </trkpt>
      <trkpt lat="39.08283" lon="-77.67789">
        <ele>134.7</ele>
      </trkpt>
      <trkpt lat="39.08296" lon="-77.6786">
        <ele>132.0</ele>
      </trkpt>
      <trkpt lat="39.08307" lon="-77.67936">
        <ele>127.7</ele>
      </trkpt>
      <trkpt lat="39.08309" lon="-77.6794">
        <ele>127.5</ele>
      </trkpt>
      <trkpt lat="39.08313" lon="-77.67948">
        <ele>127.1</ele>
      </trkpt>
      <trkpt lat="39.08324" lon="-77.67951">
        <ele>126.8</ele>
      </trkpt>
      <trkpt lat="39.08345" lon="-77.67947">
        <ele>126.5</ele>
      </trkpt>
      <trkpt lat="39.08372" lon="-77.67939">
        <ele>125.3</ele>
      </trkpt>
      <trkpt lat="39.08397" lon="-77.67933">
        <ele>122.8</ele>
      </trkpt>
      <trkpt lat="39.08415" lon="-77.67938">
        <ele>121.0</ele>
      </trkpt>
      <trkpt lat="39.08449" lon="-77.67964">
        <ele>121.6</ele>
      </trkpt>
      <trkpt lat="39.08466" lon="-77.67968">
        <ele>123.8</ele>
      </trkpt>
      <trkpt lat="39.08507" lon="-77.67961">
        <ele>127.9</ele>
      </trkpt>
      <trkpt lat="39.08528" lon="-77.67956">
        <ele>128.8</ele>
      </trkpt>
      <trkpt lat="39.08545" lon="-77.67949">
        <ele>129.0</ele>
      </trkpt>
      <trkpt lat="39.08566" lon="-77.67939">
        <ele>128.9</ele>
      </trkpt>
      <trkpt lat="39.08628" lon="-77.67903">
        <ele>124.2</ele>
      </trkpt>
      <trkpt lat="39.08648" lon="-77.67895">
        <ele>121.9</ele>
      </trkpt>
      <trkpt lat="39.08664" lon="-77.67894">
        <ele>119.6</ele>
      </trkpt>
      <trkpt lat="39.08687" lon="-77.67899">
        <ele>117.6</ele>
      </trkpt>
      <trkpt lat="39.08726" lon="-77.6792">
        <ele>117.5</ele>
      </trkpt>
      <trkpt lat="39.08749" lon="-77.67938">
        <ele>119.8</ele>
      </trkpt>
      <trkpt lat="39.08773" lon="-77.67967">
        <ele>119.6</ele>
      </trkpt>
      <trkpt lat="39.08776" lon="-77.67975">
        <ele>118.8</ele>
      </trkpt>
      <trkpt lat="39.08783" lon="-77.67999">
        <ele>116.5</ele>
      </trkpt>
      <trkpt lat="39.08783" lon="-77.67999">
        <ele>116.5</ele>
      </trkpt>
      <trkpt lat="39.08796" lon="-77.68053">
        <ele>113.5</ele>
      </trkpt>
      <trkpt lat="39.08808" lon="-77.6808">
        <ele>111.1</ele>
      </trkpt>
      <trkpt lat="39.08823" lon="-77.68104">
        <ele>109.1</ele>
      </trkpt>
      <trkpt lat="39.08837" lon="-77.68121">
        <ele>108.8</ele>
      </trkpt>
      <trkpt lat="39.08859" lon="-77.68145">
        <ele>111.6</ele>
      </trkpt>
      <trkpt lat="39.08911" lon="-77.68188">
        <ele>115.0</ele>
      </trkpt>
      <trkpt lat="39.08933" lon="-77.68205">
        <ele>114.8</ele>
      </trkpt>
      <trkpt lat="39.08948" lon="-77.68214">
        <ele>114.7</ele>
      </trkpt>
      <trkpt lat="39.09022" lon="-77.68223">
        <ele>113.5</ele>
      </trkpt>
      <trkpt lat="39.09093" lon="-77.6822">
        <ele>107.1</ele>
      </trkpt>
      <trkpt lat="39.09112" lon="-77.68213">
        <ele>105.5</ele>
      </trkpt>
      <trkpt lat="39.09135" lon="-77.68199">
        <ele>102.6</ele>
      </trkpt>
      <trkpt lat="39.09146" lon="-77.68193">
        <ele>101.6</ele>
      </trkpt>
      <trkpt lat="39.09159" lon="-77.68195">
        <ele>100.1</ele>
      </trkpt>
      <trkpt lat="39.0917" lon="-77.68203">
        <ele>99.2</ele>
      </trkpt>
      <trkpt lat="39.09175" lon="-77.68214">
        <ele>98.8</ele>
      </trkpt>
      <trkpt lat="39.09196" lon="-77.68241">
        <ele>99.1</ele>
      </trkpt>
      <trkpt lat="39.0921" lon="-77.68258">
        <ele>99.3</ele>
      </trkpt>
      <trkpt lat="39.09222" lon="-77.68274">
        <ele>99.5</ele>
      </trkpt>
      <trkpt lat="39.09248" lon="-77.68302">
        <ele>99.9</ele>
      </trkpt>
      <trkpt lat="39.09299" lon="-77.68337">
        <ele>106.9</ele>
      </trkpt>
      <trkpt lat="39.09319" lon="-77.68354">
        <ele>109.7</ele>
      </trkpt>
      <trkpt lat="39.09338" lon="-77.68375">
        <ele>112.3</ele>
      </trkpt>
      <trkpt lat="39.09356" lon="-77.684">
        <ele>114.7</ele>
      </trkpt>
      <trkpt lat="39.09388" lon="-77.6843">
        <ele>118.9</ele>
      </trkpt>
      <trkpt lat="39.09426" lon="-77.6845">
        <ele>122.8</ele>
      </trkpt>
      <trkpt lat="39.09458" lon="-77.6846">
        <ele>126.4</ele>
      </trkpt>
      <trkpt lat="39.09479" lon="-77.68468">
        <ele>129.3</ele>
      </trkpt>
      <trkpt lat="39.09487" lon="-77.68474">
        <ele>130.9</ele>
      </trkpt>
      <trkpt lat="39.09503" lon="-77.68521">
        <ele>134.6</ele>
      </trkpt>
      <trkpt lat="39.09532" lon="-77.68612">
        <ele>138.7</ele>
      </trkpt>
      <trkpt lat="39.09562" lon="-77.68699">
        <ele>144.3</ele>
      </trkpt>
      <trkpt lat="39.09587" lon="-77.68764">
        <ele>144.5</ele>
      </trkpt>
      <trkpt lat="39.09611" lon="-77.6883">
        <ele>139.1</ele>
      </trkpt>
      <trkpt lat="39.09654" lon="-77.6893">
        <ele>130.6</ele>
      </trkpt>
      <trkpt lat="39.09697" lon="-77.69031">
        <ele>127.6</ele>
      </trkpt>
      <trkpt lat="39.0974" lon="-77.69131">
        <ele>133.1</ele>
      </trkpt>
      <trkpt lat="39.09783" lon="-77.69231">
        <ele>137.6</ele>
      </trkpt>
      <trkpt lat="39.09817" lon="-77.69314">
        <ele>137.7</ele>
      </trkpt>
      <trkpt lat="39.09852" lon="-77.69397">
        <ele>138.2</ele>
      </trkpt>
      <trkpt lat="39.09869" lon="-77.69432">
        <ele>137.7</ele>
      </trkpt>
      <trkpt lat="39.09883" lon="-77.69451">
        <ele>136.8</ele>
      </trkpt>
      <trkpt lat="39.09915" lon="-77.69478">
        <ele>136.7</ele>
      </trkpt>
      <trkpt lat="39.09934" lon="-77.6949">
        <ele>137.9</ele>
      </trkpt>
      <trkpt lat="39.09952" lon="-77.695">
        <ele>138.9</ele>
      </trkpt>
      <trkpt lat="39.09968" lon="-77.69506">
        <ele>139.2</ele>
      </trkpt>
      <trkpt lat="39.09985" lon="-77.69511">
        <ele>139.4</ele>
      </trkpt>
      <trkpt lat="39.10023" lon="-77.69515">
        <ele>142.0</ele>
      </trkpt>
      <trkpt lat="39.10094" lon="-77.69516">
        <ele>147.0</ele>
      </trkpt>
      <trkpt lat="39.10165" lon="-77.69517">
        <ele>148.1</ele>
      </trkpt>
      <trkpt lat="39.10159" lon="-77.69455">
        <ele>146.6</ele>
      </trkpt>
      <trkpt lat="39.10153" lon="-77.69393">
        <ele>141.7</ele>
      </trkpt>
      <trkpt lat="39.10152" lon="-77.6935">
        <ele>141.0</ele>
      </trkpt>
      <trkpt lat="39.10157" lon="-77.69247">
        <ele>140.8</ele>
      </trkpt>
      <trkpt lat="39.10159" lon="-77.69193">
        <ele>137.5</ele>
      </trkpt>
      <trkpt lat="39.10159" lon="-77.69193">
        <ele>137.5</ele>
      </trkpt>
      <trkpt lat="39.10162" lon="-77.69126">
        <ele>134.2</ele>
      </trkpt>
      <trkpt lat="39.10164" lon="-77.69065">
        <ele>138.1</ele>
      </trkpt>
      <trkpt lat="39.10168" lon="-77.68969">
        <ele>135.7</ele>
      </trkpt>
      <trkpt lat="39.10172" lon="-77.68872">
        <ele>138.2</ele>
      </trkpt>
      <trkpt lat="39.10176" lon="-77.68776">
        <ele>142.4</ele>
      </trkpt>
      <trkpt lat="39.1018" lon="-77.6868">
        <ele>147.0</ele>
      </trkpt>
      <trkpt lat="39.10184" lon="-77.68584">
        <ele>145.6</ele>
      </trkpt>
      <trkpt lat="39.10188" lon="-77.68544">
        <ele>144.9</ele>
      </trkpt>
      <trkpt lat="39.10193" lon="-77.68503">
        <ele>144.3</ele>
      </trkpt>
      <trkpt lat="39.10198" lon="-77.68475">
        <ele>143.9</ele>
      </trkpt>
      <trkpt lat="39.102" lon="-77.6845">
        <ele>143.3</ele>
      </trkpt>
      <trkpt lat="39.10199" lon="-77.68418">
        <ele>140.2</ele>
      </trkpt>
      <trkpt lat="39.10197" lon="-77.68399">
        <ele>138.9</ele>
      </trkpt>
      <trkpt lat="39.10186" lon="-77.68324">
        <ele>140.3</ele>
      </trkpt>
      <trkpt lat="39.1018" lon="-77.68231">
        <ele>139.5</ele>
      </trkpt>
      <trkpt lat="39.10174" lon="-77.6816">
        <ele>138.0</ele>
      </trkpt>
      <trkpt lat="39.10166" lon="-77.68082">
        <ele>134.5</ele>
      </trkpt>
      <trkpt lat="39.10158" lon="-77.68003">
        <ele>129.5</ele>
      </trkpt>
      <trkpt lat="39.10151" lon="-77.67924">
        <ele>126.2</ele>
      </trkpt>
      <trkpt lat="39.10121" lon="-77.67921">
        <ele>124.2</ele>
      </trkpt>
      <trkpt lat="39.10112" lon="-77.67919">
        <ele>123.8</ele>
      </trkpt>
      <trkpt lat="39.10106" lon="-77.67917">
        <ele>123.4</ele>
      </trkpt>
      <trkpt lat="39.10101" lon="-77.67912">
        <ele>122.8</ele>
      </trkpt>
      <trkpt lat="39.10099" lon="-77.67909">
        <ele>122.6</ele>
      </trkpt>
      <trkpt lat="39.10077" lon="-77.67854">
        <ele>118.3</ele>
      </trkpt>
      <trkpt lat="39.10074" lon="-77.67831">
        <ele>115.5</ele>
      </trkpt>
      <trkpt lat="39.10075" lon="-77.67815">
        <ele>114.2</ele>
      </trkpt>
      <trkpt lat="39.10083" lon="-77.67779">
        <ele>113.2</ele>
      </trkpt>
      <trkpt lat="39.10084" lon="-77.6775">
        <ele>110.9</ele>
      </trkpt>
      <trkpt lat="39.10083" lon="-77.6771">
        <ele>108.9</ele>
      </trkpt>
      <trkpt lat="39.10077" lon="-77.67655">
        <ele>106.9</ele>
      </trkpt>
      <trkpt lat="39.10074" lon="-77.67636">
        <ele>106.3</ele>
      </trkpt>
      <trkpt lat="39.10065" lon="-77.67596">
        <ele>105.9</ele>
      </trkpt>
      <trkpt lat="39.10062" lon="-77.67575">
        <ele>105.7</ele>
      </trkpt>
      <trkpt lat="39.10059" lon="-77.67552">
        <ele>105.5</ele>
      </trkpt>
      <trkpt lat="39.10058" lon="-77.67517">
        <ele>105.3</ele>
      </trkpt>
      <trkpt lat="39.10052" lon="-77.67481">
        <ele>105.1</ele>
      </trkpt>
      <trkpt lat="39.10045" lon="-77.67445">
        <ele>105.5</ele>
      </trkpt>
      <trkpt lat="39.10037" lon="-77.67413">
        <ele>106.7</ele>
      </trkpt>
      <trkpt lat="39.10029" lon="-77.67389">
        <ele>107.2</ele>
      </trkpt>
      <trkpt lat="39.1002" lon="-77.67366">
        <ele>107.4</ele>
      </trkpt>
      <trkpt lat="39.10011" lon="-77.67351">
        <ele>107.9</ele>
      </trkpt>
      <trkpt lat="39.10003" lon="-77.67341">
        <ele>109.0</ele>
      </trkpt>
      <trkpt lat="39.10003" lon="-77.67341">
        <ele>109.0</ele>
      </trkpt>
      <trkpt lat="39.09994" lon="-77.6733">
        <ele>110.3</ele>
      </trkpt>
      <trkpt lat="39.09974" lon="-77.67315">
        <ele>111.2</ele>
      </trkpt>
      <trkpt lat="39.09968" lon="-77.67309">
        <ele>111.4</ele>
      </trkpt>
      <trkpt lat="39.09963" lon="-77.67302">
        <ele>111.7</ele>
      </trkpt>
      <trkpt lat="39.09951" lon="-77.67281">
        <ele>113.3</ele>
      </trkpt>
      <trkpt lat="39.09947" lon="-77.67264">
        <ele>113.6</ele>
      </trkpt>
      <trkpt lat="39.09943" lon="-77.67243">
        <ele>113.6</ele>
      </trkpt>
      <trkpt lat="39.09941" lon="-77.67211">
        <ele>113.3</ele>
      </trkpt>
      <trkpt lat="39.09937" lon="-77.67174">
        <ele>113.1</ele>
      </trkpt>
      <trkpt lat="39.09927" lon="-77.67103">
        <ele>111.0</ele>
      </trkpt>
      <trkpt lat="39.09889" lon="-77.6713">
        <ele>114.8</ele>
      </trkpt>
      <trkpt lat="39.09873" lon="-77.6714">
        <ele>117.4</ele>
      </trkpt>
      <trkpt lat="39.09851" lon="-77.6715">
        <ele>121.3</ele>
      </trkpt>
      <trkpt lat="39.0982" lon="-77.67156">
        <ele>124.8</ele>
      </trkpt>
      <trkpt lat="39.09778" lon="-77.67162">
        <ele>129.7</ele>
      </trkpt>
      <trkpt lat="39.09702" lon="-77.67177">
        <ele>133.4</ele>
      </trkpt>
      <trkpt lat="39.09626" lon="-77.67192">
        <ele>132.8</ele>
      </trkpt>
      <trkpt lat="39.09569" lon="-77.67207">
        <ele>129.1</ele>
      </trkpt>
      <trkpt lat="39.09531" lon="-77.67223">
        <ele>126.5</ele>
      </trkpt>
      <trkpt lat="39.09501" lon="-77.67238">
        <ele>125.1</ele>
      </trkpt>
      <trkpt lat="39.09484" lon="-77.67248">
        <ele>123.3</ele>
      </trkpt>
      <trkpt lat="39.09472" lon="-77.6726">
        <ele>121.5</ele>
      </trkpt>
      <trkpt lat="39.0945" lon="-77.67292">
        <ele>119.9</ele>
      </trkpt>
      <trkpt lat="39.09435" lon="-77.67312">
        <ele>120.1</ele>
      </trkpt>
      <trkpt lat="39.09421" lon="-77.67334">
        <ele>120.6</ele>
      </trkpt>
      <trkpt lat="39.09409" lon="-77.67365">
        <ele>120.1</ele>
      </trkpt>
      <trkpt lat="39.09398" lon="-77.67383">
        <ele>119.8</ele>
      </trkpt>
      <trkpt lat="39.09389" lon="-77.67397">
        <ele>118.8</ele>
      </trkpt>
      <trkpt lat="39.09386" lon="-77.674">
        <ele>118.4</ele>
      </trkpt>
      <trkpt lat="39.0938" lon="-77.67403">
        <ele>117.9</ele>
      </trkpt>
      <trkpt lat="39.09373" lon="-77.67404">
        <ele>117.7</ele>
      </trkpt>
      <trkpt lat="39.09365" lon="-77.67402">
        <ele>117.6</ele>
      </trkpt>
      <trkpt lat="39.09373" lon="-77.67433">
        <ele>115.7</ele>
      </trkpt>
      <trkpt lat="39.0938" lon="-77.67478">
        <ele>111.8</ele>
      </trkpt>
      <trkpt lat="39.09381" lon="-77.67492">
        <ele>111.6</ele>
      </trkpt>
      <trkpt lat="39.0938" lon="-77.67499">
        <ele>111.5</ele>
      </trkpt>
      <trkpt lat="39.09371" lon="-77.67526">
        <ele>111.6</ele>
      </trkpt>
      <trkpt lat="39.09371" lon="-77.67543">
        <ele>111.1</ele>
      </trkpt>
      <trkpt lat="39.09372" lon="-77.67556">
        <ele>110.7</ele>
      </trkpt>
      <trkpt lat="39.09369" lon="-77.67576">
        <ele>109.8</ele>
      </trkpt>
      <trkpt lat="39.09362" lon="-77.67599">
        <ele>108.8</ele>
      </trkpt>
      <trkpt lat="39.09348" lon="-77.67637">
        <ele>108.2</ele>
      </trkpt>
      <trkpt lat="39.09337" lon="-77.67654">
        <ele>106.7</ele>
      </trkpt>
      <trkpt lat="39.09337" lon="-77.67654">
        <ele>106.7</ele>
      </trkpt>
      <trkpt lat="39.09331" lon="-77.67664">
        <ele>106.0</ele>
      </trkpt>
      <trkpt lat="39.09272" lon="-77.67739">
        <ele>106.2</ele>
      </trkpt>
      <trkpt lat="39.09244" lon="-77.67775">
        <ele>105.7</ele>
      </trkpt>
      <trkpt lat="39.09202" lon="-77.67836">
        <ele>104.9</ele>
      </trkpt>
      <trkpt lat="39.09191" lon="-77.67862">
        <ele>104.8</ele>
      </trkpt>
      <trkpt lat="39.09186" lon="-77.67889">
        <ele>103.3</ele>
      </trkpt>
      <trkpt lat="39.09186" lon="-77.67952">
        <ele>101.3</ele>
      </trkpt>
      <trkpt lat="39.09186" lon="-77.68015">
        <ele>99.4</ele>
      </trkpt>
      <trkpt lat="39.09184" lon="-77.68051">
        <ele>99.2</ele>
      </trkpt>
      <trkpt lat="39.0918" lon="-77.68102">
        <ele>99.3</ele>
      </trkpt>
      <trkpt lat="39.09175" lon="-77.68121">
        <ele>99.8</ele>
      </trkpt>
      <trkpt lat="39.09173" lon="-77.68138">
        <ele>99.8</ele>
      </trkpt>
      <trkpt lat="39.09174" lon="-77.68169">
        <ele>99.2</ele>
      </trkpt>
      <trkpt lat="39.09174" lon="-77.6819">
        <ele>99.1</ele>
      </trkpt>
      <trkpt lat="39.0917" lon="-77.68203">
        <ele>99.2</ele>
      </trkpt>
      <trkpt lat="39.09159" lon="-77.68195">
        <ele>100.1</ele>
      </trkpt>
      <trkpt lat="39.09146" lon="-77.68193">
        <ele>101.6</ele>
      </trkpt>
      <trkpt lat="39.09135" lon="-77.68199">
        <ele>102.6</ele>
      </trkpt>
      <trkpt lat="39.09112" lon="-77.68213">
        <ele>105.5</ele>
      </trkpt>
      <trkpt lat="39.09093" lon="-77.6822">
        <ele>107.1</ele>
      </trkpt>
      <trkpt lat="39.09022" lon="-77.68223">
        <ele>113.5</ele>
      </trkpt>
      <trkpt lat="39.08948" lon="-77.68214">
        <ele>114.7</ele>
      </trkpt>
      <trkpt lat="39.08933" lon="-77.68205">
        <ele>114.8</ele>
      </trkpt>
      <trkpt lat="39.08911" lon="-77.68188">
        <ele>115.0</ele>
      </trkpt>
      <trkpt lat="39.08859" lon="-77.68145">
        <ele>111.6</ele>
      </trkpt>
      <trkpt lat="39.08837" lon="-77.68121">
        <ele>108.8</ele>
      </trkpt>
      <trkpt lat="39.08823" lon="-77.68104">
        <ele>109.1</ele>
      </trkpt>
      <trkpt lat="39.08808" lon="-77.6808">
        <ele>111.1</ele>
      </trkpt>
      <trkpt lat="39.08796" lon="-77.68053">
        <ele>113.5</ele>
      </trkpt>
      <trkpt lat="39.08776" lon="-77.67975">
        <ele>118.8</ele>
      </trkpt>
      <trkpt lat="39.08773" lon="-77.67967">
        <ele>119.6</ele>
      </trkpt>
      <trkpt lat="39.08749" lon="-77.67938">
        <ele>119.8</ele>
      </trkpt>
      <trkpt lat="39.08726" lon="-77.6792">
        <ele>117.5</ele>
      </trkpt>
      <trkpt lat="39.08687" lon="-77.67899">
        <ele>117.6</ele>
      </trkpt>
      <trkpt lat="39.08664" lon="-77.67894">
        <ele>119.6</ele>
      </trkpt>
      <trkpt lat="39.08648" lon="-77.67895">
        <ele>121.9</ele>
      </trkpt>
      <trkpt lat="39.08628" lon="-77.67903">
        <ele>124.2</ele>
      </trkpt>
      <trkpt lat="39.08566" lon="-77.67939">
        <ele>128.9</ele>
      </trkpt>
      <trkpt lat="39.08545" lon="-77.67949">
        <ele>129.0</ele>
      </trkpt>
      <trkpt lat="39.08528" lon="-77.67956">
        <ele>128.8</ele>
      </trkpt>
      <trkpt lat="39.08507" lon="-77.67961">
        <ele>127.9</ele>
      </trkpt>
      <trkpt lat="39.08466" lon="-77.67968">
        <ele>123.8</ele>
      </trkpt>
      <trkpt lat="39.08449" lon="-77.67964">
        <ele>121.6</ele>
      </trkpt>
      <trkpt lat="39.08415" lon="-77.67938">
        <ele>121.0</ele>
      </trkpt>
      <trkpt lat="39.08397" lon="-77.67933">
        <ele>122.8</ele>
      </trkpt>
      <trkpt lat="39.08372" lon="-77.67939">
        <ele>125.3</ele>
      </trkpt>
      <trkpt lat="39.08345" lon="-77.67947">
        <ele>126.5</ele>
      </trkpt>
      <trkpt lat="39.08324" lon="-77.67951">
        <ele>126.8</ele>
      </trkpt>
      <trkpt lat="39.08313" lon="-77.67948">
        <ele>127.1</ele>
      </trkpt>
      <trkpt lat="39.08307" lon="-77.67936">
        <ele>127.7</ele>
      </trkpt>
      <trkpt lat="39.08302" lon="-77.67907">
        <ele>129.5</ele>
      </trkpt>
      <trkpt lat="39.08302" lon="-77.67907">
        <ele>129.5</ele>
      </trkpt>
      <trkpt lat="39.08296" lon="-77.6786">
        <ele>132.0</ele>
      </trkpt>
      <trkpt lat="39.08283" lon="-77.67789">
        <ele>134.7</ele>
      </trkpt>
      <trkpt lat="39.0827" lon="-77.67719">
        <ele>136.2</ele>
      </trkpt>
      <trkpt lat="39.08254" lon="-77.67614">
        <ele>139.6</ele>
      </trkpt>
      <trkpt lat="39.08241" lon="-77.67543">
        <ele>140.9</ele>
      </trkpt>
      <trkpt lat="39.08234" lon="-77.67511">
        <ele>141.0</ele>
      </trkpt>
      <trkpt lat="39.08252" lon="-77.67492">
        <ele>142.5</ele>
      </trkpt>
      <trkpt lat="39.08299" lon="-77.67451">
        <ele>144.1</ele>
      </trkpt>
      <trkpt lat="39.08319" lon="-77.67435">
        <ele>144.5</ele>
      </trkpt>
      <trkpt lat="39.08343" lon="-77.67411">
        <ele>143.9</ele>
      </trkpt>
      <trkpt lat="39.0835" lon="-77.67397">
        <ele>143.7</ele>
      </trkpt>
      <trkpt lat="39.08361" lon="-77.67349">
        <ele>144.1</ele>
      </trkpt>
      <trkpt lat="39.08364" lon="-77.67337">
        <ele>144.3</ele>
      </trkpt>
      <trkpt lat="39.0837" lon="-77.67324">
        <ele>144.4</ele>
      </trkpt>
      <trkpt lat="39.08378" lon="-77.67309">
        <ele>144.3</ele>
      </trkpt>
      <trkpt lat="39.08384" lon="-77.67299">
        <ele>143.9</ele>
      </trkpt>
      <trkpt lat="39.08397" lon="-77.67284">
        <ele>142.6</ele>
      </trkpt>
      <trkpt lat="39.08422" lon="-77.6726">
        <ele>141.6</ele>
      </trkpt>
      <trkpt lat="39.08462" lon="-77.67223">
        <ele>139.1</ele>
      </trkpt>
      <trkpt lat="39.0848" lon="-77.672">
        <ele>137.1</ele>
      </trkpt>
      <trkpt lat="39.08498" lon="-77.67173">
        <ele>135.4</ele>
      </trkpt>
      <trkpt lat="39.08507" lon="-77.67158">
        <ele>134.5</ele>
      </trkpt>
      <trkpt lat="39.08517" lon="-77.67144">
        <ele>133.4</ele>
      </trkpt>
      <trkpt lat="39.08526" lon="-77.67139">
        <ele>132.6</ele>
      </trkpt>
      <trkpt lat="39.08535" lon="-77.67134">
        <ele>132.0</ele>
      </trkpt>
      <trkpt lat="39.08559" lon="-77.67127">
        <ele>132.3</ele>
      </trkpt>
      <trkpt lat="39.08568" lon="-77.67126">
        <ele>133.0</ele>
      </trkpt>
      <trkpt lat="39.08574" lon="-77.67126">
        <ele>133.4</ele>
      </trkpt>
      <trkpt lat="39.08583" lon="-77.67129">
        <ele>134.3</ele>
      </trkpt>
      <trkpt lat="39.08618" lon="-77.67144">
        <ele>136.7</ele>
      </trkpt>
      <trkpt lat="39.08632" lon="-77.67148">
        <ele>138.5</ele>
      </trkpt>
      <trkpt lat="39.08652" lon="-77.67151">
        <ele>140.4</ele>
      </trkpt>
      <trkpt lat="39.0866" lon="-77.67151">
        <ele>141.1</ele>
      </trkpt>
      <trkpt lat="39.08688" lon="-77.67142">
        <ele>142.6</ele>
      </trkpt>
      <trkpt lat="39.08728" lon="-77.67125">
        <ele>144.5</ele>
      </trkpt>
      <trkpt lat="39.08754" lon="-77.67112">
        <ele>144.8</ele>
      </trkpt>
      <trkpt lat="39.0879" lon="-77.6709">
        <ele>144.1</ele>
      </trkpt>
      <trkpt lat="39.08821" lon="-77.67067">
        <ele>143.9</ele>
      </trkpt>
      <trkpt lat="39.08845" lon="-77.67051">
        <ele>142.9</ele>
      </trkpt>
      <trkpt lat="39.08902" lon="-77.67006">
        <ele>139.1</ele>
      </trkpt>
      <trkpt lat="39.08959" lon="-77.66965">
        <ele>136.1</ele>
      </trkpt>
      <trkpt lat="39.09002" lon="-77.66929">
        <ele>132.0</ele>
      </trkpt>
      <trkpt lat="39.09068" lon="-77.66882">
        <ele>131.3</ele>
      </trkpt>
      <trkpt lat="39.09078" lon="-77.66872">
        <ele>132.4</ele>
      </trkpt>
      <trkpt lat="39.09082" lon="-77.66866">
        <ele>132.8</ele>
      </trkpt>
      <trkpt lat="39.09085" lon="-77.66859">
        <ele>133.1</ele>
      </trkpt>
      <trkpt lat="39.09088" lon="-77.66846">
        <ele>133.3</ele>
      </trkpt>
      <trkpt lat="39.09088" lon="-77.66832">
        <ele>133.6</ele>
      </trkpt>
      <trkpt lat="39.09083" lon="-77.66731">
        <ele>136.4</ele>
      </trkpt>
      <trkpt lat="39.09078" lon="-77.66629">
        <ele>139.4</ele>
      </trkpt>
      <trkpt lat="39.09073" lon="-77.66528">
        <ele>143.1</ele>
      </trkpt>
      <trkpt lat="39.09068" lon="-77.66427">
        <ele>141.6</ele>
      </trkpt>
      <trkpt lat="39.09066" lon="-77.66369">
        <ele>143.8</ele>
      </trkpt>
      <trkpt lat="39.09064" lon="-77.66311">
        <ele>147.8</ele>
      </trkpt>
      <trkpt lat="39.09064" lon="-77.66311">
        <ele>147.8</ele>
      </trkpt>
      <trkpt lat="39.09062" lon="-77.66226">
        <ele>150.7</ele>
      </trkpt>
      <trkpt lat="39.09062" lon="-77.66189">
        <ele>150.8</ele>
      </trkpt>
      <trkpt lat="39.09063" lon="-77.66153">
        <ele>150.4</ele>
      </trkpt>
      <trkpt lat="39.09067" lon="-77.66084">
        <ele>149.7</ele>
      </trkpt>
      <trkpt lat="39.09066" lon="-77.66059">
        <ele>150.8</ele>
      </trkpt>
      <trkpt lat="39.09063" lon="-77.66035">
        <ele>152.2</ele>
      </trkpt>
      <trkpt lat="39.09057" lon="-77.66018">
        <ele>152.9</ele>
      </trkpt>
      <trkpt lat="39.09054" lon="-77.6601">
        <ele>153.1</ele>
      </trkpt>
      <trkpt lat="39.09034" lon="-77.65979">
        <ele>153.7</ele>
      </trkpt>
      <trkpt lat="39.09023" lon="-77.65961">
        <ele>153.7</ele>
      </trkpt>
      <trkpt lat="39.0902" lon="-77.65954">
        <ele>153.7</ele>
      </trkpt>
      <trkpt lat="39.09017" lon="-77.65941">
        <ele>153.8</ele>
      </trkpt>
      <trkpt lat="39.09014" lon="-77.65924">
        <ele>154.0</ele>
      </trkpt>
      <trkpt lat="39.09014" lon="-77.65899">
        <ele>154.7</ele>
      </trkpt>
      <trkpt lat="39.09015" lon="-77.65886">
        <ele>155.3</ele>
      </trkpt>
      <trkpt lat="39.09016" lon="-77.65878">
        <ele>155.8</ele>
      </trkpt>
      <trkpt lat="39.09023" lon="-77.6586">
        <ele>156.5</ele>
      </trkpt>
      <trkpt lat="39.09044" lon="-77.6582">
        <ele>157.7</ele>
      </trkpt>
      <trkpt lat="39.09049" lon="-77.65809">
        <ele>158.4</ele>
      </trkpt>
      <trkpt lat="39.09053" lon="-77.65798">
        <ele>159.3</ele>
      </trkpt>
      <trkpt lat="39.09062" lon="-77.65764">
        <ele>160.7</ele>
      </trkpt>
      <trkpt lat="39.09072" lon="-77.65728">
        <ele>161.1</ele>
      </trkpt>
      <trkpt lat="39.09082" lon="-77.65704">
        <ele>163.3</ele>
      </trkpt>
      <trkpt lat="39.0909" lon="-77.6569">
        <ele>164.6</ele>
      </trkpt>
      <trkpt lat="39.091" lon="-77.6568">
        <ele>165.9</ele>
      </trkpt>
      <trkpt lat="39.09133" lon="-77.65661">
        <ele>168.7</ele>
      </trkpt>
      <trkpt lat="39.09151" lon="-77.65645">
        <ele>171.0</ele>
      </trkpt>
      <trkpt lat="39.09167" lon="-77.6563">
        <ele>172.0</ele>
      </trkpt>
      <trkpt lat="39.09196" lon="-77.65599">
        <ele>174.0</ele>
      </trkpt>
      <trkpt lat="39.09214" lon="-77.65577">
        <ele>174.8</ele>
      </trkpt>
      <trkpt lat="39.0922" lon="-77.65566">
        <ele>175.0</ele>
      </trkpt>
      <trkpt lat="39.09227" lon="-77.65549">
        <ele>175.9</ele>
      </trkpt>
      <trkpt lat="39.09232" lon="-77.65527">
        <ele>176.9</ele>
      </trkpt>
      <trkpt lat="39.09234" lon="-77.65508">
        <ele>177.3</ele>
      </trkpt>
      <trkpt lat="39.09233" lon="-77.65491">
        <ele>177.5</ele>
      </trkpt>
      <trkpt lat="39.09231" lon="-77.65465">
        <ele>177.7</ele>
      </trkpt>
      <trkpt lat="39.09218" lon="-77.65384">
        <ele>180.1</ele>
      </trkpt>
      <trkpt lat="39.09215" lon="-77.65363">
        <ele>180.7</ele>
      </trkpt>
      <trkpt lat="39.09216" lon="-77.65344">
        <ele>181.5</ele>
      </trkpt>
      <trkpt lat="39.09222" lon="-77.65328">
        <ele>182.4</ele>
      </trkpt>
      <trkpt lat="39.09238" lon="-77.65305">
        <ele>185.2</ele>
      </trkpt>
      <trkpt lat="39.09251" lon="-77.65291">
        <ele>186.6</ele>
      </trkpt>
      <trkpt lat="39.09279" lon="-77.65263">
        <ele>188.1</ele>
      </trkpt>
      <trkpt lat="39.0932" lon="-77.65232">
        <ele>190.8</ele>
      </trkpt>
      <trkpt lat="39.09336" lon="-77.65221">
        <ele>191.9</ele>
      </trkpt>
      <trkpt lat="39.09347" lon="-77.6521">
        <ele>192.4</ele>
      </trkpt>
      <trkpt lat="39.09357" lon="-77.65196">
        <ele>192.7</ele>
      </trkpt>
      <trkpt lat="39.09365" lon="-77.65181">
        <ele>192.7</ele>
      </trkpt>
      <trkpt lat="39.09373" lon="-77.65158">
        <ele>192.2</ele>
      </trkpt>
      <trkpt lat="39.09375" lon="-77.65134">
        <ele>191.4</ele>
      </trkpt>
      <trkpt lat="39.09375" lon="-77.65125">
        <ele>191.2</ele>
      </trkpt>
      <trkpt lat="39.09371" lon="-77.65104">
        <ele>190.4</ele>
      </trkpt>
      <trkpt lat="39.09363" lon="-77.65069">
        <ele>188.8</ele>
      </trkpt>
      <trkpt lat="39.09333" lon="-77.64972">
        <ele>184.7</ele>
      </trkpt>
      <trkpt lat="39.09304" lon="-77.64875">
        <ele>179.6</ele>
      </trkpt>
      <trkpt lat="39.09301" lon="-77.64861">
        <ele>179.3</ele>
      </trkpt>
      <trkpt lat="39.09301" lon="-77.64851">
        <ele>179.2</ele>
      </trkpt>
      <trkpt lat="39.09307" lon="-77.64819">
        <ele>179.0</ele>
      </trkpt>
      <trkpt lat="39.09315" lon="-77.64787">
        <ele>178.1</ele>
      </trkpt>
      <trkpt lat="39.09337" lon="-77.6472">
        <ele>176.4</ele>
      </trkpt>
      <trkpt lat="39.09346" lon="-77.64688">
        <ele>176.4</ele>
      </trkpt>
      <trkpt lat="39.09361" lon="-77.64614">
        <ele>176.5</ele>
      </trkpt>
      <trkpt lat="39.09376" lon="-77.64539">
        <ele>175.0</ele>
      </trkpt>
      <trkpt lat="39.09377" lon="-77.64524">
        <ele>174.9</ele>
      </trkpt>
      <trkpt lat="39.09374" lon="-77.64474">
        <ele>174.0</ele>
      </trkpt>
      <trkpt lat="39.09376" lon="-77.6446">
        <ele>173.6</ele>
      </trkpt>
      <trkpt lat="39.09393" lon="-77.64377">
        <ele>171.9</ele>
      </trkpt>
      <trkpt lat="39.09398" lon="-77.64352">
        <ele>171.5</ele>
      </trkpt>
      <trkpt lat="39.09401" lon="-77.64327">
        <ele>171.3</ele>
      </trkpt>
      <trkpt lat="39.09403" lon="-77.64275">
        <ele>171.0</ele>
      </trkpt>
      <trkpt lat="39.09403" lon="-77.64186">
        <ele>168.8</ele>
      </trkpt>
      <trkpt lat="39.09402" lon="-77.64156">
        <ele>168.5</ele>
      </trkpt>
      <trkpt lat="39.09396" lon="-77.64119">
        <ele>168.4</ele>
      </trkpt>
      <trkpt lat="39.0937" lon="-77.64043">
        <ele>167.4</ele>
      </trkpt>
      <trkpt lat="39.09358" lon="-77.64003">
        <ele>166.1</ele>
      </trkpt>
      <trkpt lat="39.09356" lon="-77.63961">
        <ele>164.8</ele>
      </trkpt>
      <trkpt lat="39.09362" lon="-77.63919">
        <ele>164.7</ele>
      </trkpt>
      <trkpt lat="39.09366" lon="-77.63911">
        <ele>164.9</ele>
      </trkpt>
      <trkpt lat="39.09372" lon="-77.63905">
        <ele>165.1</ele>
      </trkpt>
      <trkpt lat="39.0943" lon="-77.63884">
        <ele>168.7</ele>
      </trkpt>
      <trkpt lat="39.09465" lon="-77.63869">
        <ele>173.6</ele>
      </trkpt>
      <trkpt lat="39.09501" lon="-77.63852">
        <ele>176.9</ele>
      </trkpt>
      <trkpt lat="39.0953" lon="-77.63842">
        <ele>176.7</ele>
      </trkpt>
      <trkpt lat="39.09542" lon="-77.63831">
        <ele>176.6</ele>
      </trkpt>
      <trkpt lat="39.09552" lon="-77.63819">
        <ele>175.4</ele>
      </trkpt>
      <trkpt lat="39.09593" lon="-77.63735">
        <ele>168.4</ele>
      </trkpt>
      <trkpt lat="39.09602" lon="-77.63727">
        <ele>168.5</ele>
      </trkpt>
      <trkpt lat="39.09611" lon="-77.63722">
        <ele>168.8</ele>
      </trkpt>
      <trkpt lat="39.09696" lon="-77.63699">
        <ele>172.3</ele>
      </trkpt>
      <trkpt lat="39.0978" lon="-77.63677">
        <ele>177.8</ele>
      </trkpt>
      <trkpt lat="39.09798" lon="-77.63673">
        <ele>179.2</ele>
      </trkpt>
      <trkpt lat="39.09844" lon="-77.6366">
        <ele>181.0</ele>
      </trkpt>
      <trkpt lat="39.09879" lon="-77.63648">
        <ele>182.0</ele>
      </trkpt>
      <trkpt lat="39.09958" lon="-77.6361">
        <ele>186.6</ele>
      </trkpt>
      <trkpt lat="39.10038" lon="-77.63573">
        <ele>187.6</ele>
      </trkpt>
      <trkpt lat="39.10117" lon="-77.63535">
        <ele>190.8</ele>
      </trkpt>
      <trkpt lat="39.10197" lon="-77.63498">
        <ele>195.2</ele>
      </trkpt>
      <trkpt lat="39.10245" lon="-77.6348">
        <ele>195.9</ele>
      </trkpt>
      <trkpt lat="39.10304" lon="-77.63452">
        <ele>194.2</ele>
      </trkpt>
      <trkpt lat="39.10363" lon="-77.63425">
        <ele>194.0</ele>
      </trkpt>
      <trkpt lat="39.10422" lon="-77.63398">
        <ele>193.3</ele>
      </trkpt>
      <trkpt lat="39.10425" lon="-77.63398">
        <ele>193.3</ele>
      </trkpt>
      <trkpt lat="39.10432" lon="-77.63403">
        <ele>193.1</ele>
      </trkpt>
      <trkpt lat="39.10471" lon="-77.63459">
        <ele>192.5</ele>
      </trkpt>
      <trkpt lat="39.10478" lon="-77.63464">
        <ele>192.5</ele>
      </trkpt>
      <trkpt lat="39.10481" lon="-77.63465">
        <ele>192.5</ele>
      </trkpt>
      <trkpt lat="39.10485" lon="-77.63464">
        <ele>192.8</ele>
      </trkpt>
      <trkpt lat="39.10554" lon="-77.63423">
        <ele>198.6</ele>
      </trkpt>
      <trkpt lat="39.10622" lon="-77.63381">
        <ele>204.3</ele>
      </trkpt>
      <trkpt lat="39.10691" lon="-77.6334">
        <ele>210.7</ele>
      </trkpt>
      <trkpt lat="39.1076" lon="-77.63299">
        <ele>216.3</ele>
      </trkpt>
      <trkpt lat="39.1076" lon="-77.63299">
        <ele>216.3</ele>
      </trkpt>
      <trkpt lat="39.10798" lon="-77.63276">
        <ele>217.8</ele>
      </trkpt>
      <trkpt lat="39.1083" lon="-77.63262">
        <ele>219.0</ele>
      </trkpt>
      <trkpt lat="39.10839" lon="-77.63262">
        <ele>219.6</ele>
      </trkpt>
      <trkpt lat="39.10916" lon="-77.63279">
        <ele>220.8</ele>
      </trkpt>
      <trkpt lat="39.10925" lon="-77.63279">
        <ele>220.8</ele>
      </trkpt>
      <trkpt lat="39.10941" lon="-77.63254">
        <ele>222.4</ele>
      </trkpt>
      <trkpt lat="39.10948" lon="-77.63241">
        <ele>223.4</ele>
      </trkpt>
      <trkpt lat="39.10976" lon="-77.63174">
        <ele>227.8</ele>
      </trkpt>
      <trkpt lat="39.11002" lon="-77.63123">
        <ele>232.9</ele>
      </trkpt>
      <trkpt lat="39.11041" lon="-77.63061">
        <ele>238.3</ele>
      </trkpt>
      <trkpt lat="39.1108" lon="-77.62959">
        <ele>242.0</ele>
      </trkpt>
      <trkpt lat="39.11086" lon="-77.62921">
        <ele>241.9</ele>
      </trkpt>
      <trkpt lat="39.11089" lon="-77.62888">
        <ele>240.1</ele>
      </trkpt>
      <trkpt lat="39.11091" lon="-77.62825">
        <ele>235.1</ele>
      </trkpt>
      <trkpt lat="39.11096" lon="-77.62746">
        <ele>232.0</ele>
      </trkpt>
      <trkpt lat="39.11104" lon="-77.62704">
        <ele>229.6</ele>
      </trkpt>
      <trkpt lat="39.11111" lon="-77.62685">
        <ele>229.1</ele>
      </trkpt>
      <trkpt lat="39.11144" lon="-77.6262">
        <ele>225.9</ele>
      </trkpt>
      <trkpt lat="39.11177" lon="-77.62556">
        <ele>221.3</ele>
      </trkpt>
      <trkpt lat="39.11183" lon="-77.62537">
        <ele>219.7</ele>
      </trkpt>
      <trkpt lat="39.11198" lon="-77.62442">
        <ele>215.2</ele>
      </trkpt>
      <trkpt lat="39.11207" lon="-77.62394">
        <ele>214.3</ele>
      </trkpt>
      <trkpt lat="39.11217" lon="-77.6235">
        <ele>214.2</ele>
      </trkpt>
      <trkpt lat="39.11229" lon="-77.62311">
        <ele>214.5</ele>
      </trkpt>
      <trkpt lat="39.11268" lon="-77.6222">
        <ele>217.0</ele>
      </trkpt>
      <trkpt lat="39.1129" lon="-77.62171">
        <ele>217.3</ele>
      </trkpt>
      <trkpt lat="39.11334" lon="-77.62096">
        <ele>215.1</ele>
      </trkpt>
      <trkpt lat="39.11384" lon="-77.62017">
        <ele>214.4</ele>
      </trkpt>
      <trkpt lat="39.11423" lon="-77.61963">
        <ele>212.9</ele>
      </trkpt>
      <trkpt lat="39.11462" lon="-77.61908">
        <ele>210.5</ele>
      </trkpt>
      <trkpt lat="39.11481" lon="-77.61874">
        <ele>208.1</ele>
      </trkpt>
      <trkpt lat="39.11505" lon="-77.61819">
        <ele>204.3</ele>
      </trkpt>
      <trkpt lat="39.11511" lon="-77.61802">
        <ele>202.4</ele>
      </trkpt>
      <trkpt lat="39.11511" lon="-77.61785">
        <ele>200.6</ele>
      </trkpt>
      <trkpt lat="39.115" lon="-77.61721">
        <ele>196.7</ele>
      </trkpt>
      <trkpt lat="39.1149" lon="-77.6164">
        <ele>195.6</ele>
      </trkpt>
      <trkpt lat="39.1148" lon="-77.6156">
        <ele>195.2</ele>
      </trkpt>
      <trkpt lat="39.1147" lon="-77.615">
        <ele>191.1</ele>
      </trkpt>
      <trkpt lat="39.11462" lon="-77.61441">
        <ele>186.7</ele>
      </trkpt>
      <trkpt lat="39.11453" lon="-77.61382">
        <ele>184.1</ele>
      </trkpt>
      <trkpt lat="39.1145" lon="-77.61328">
        <ele>182.9</ele>
      </trkpt>
      <trkpt lat="39.11452" lon="-77.61302">
        <ele>182.4</ele>
      </trkpt>
      <trkpt lat="39.11456" lon="-77.6128">
        <ele>180.6</ele>
      </trkpt>
      <trkpt lat="39.11485" lon="-77.61177">
        <ele>173.7</ele>
      </trkpt>
      <trkpt lat="39.11488" lon="-77.61156">
        <ele>172.8</ele>
      </trkpt>
      <trkpt lat="39.11486" lon="-77.61054">
        <ele>163.2</ele>
      </trkpt>
      <trkpt lat="39.11483" lon="-77.60953">
        <ele>158.6</ele>
      </trkpt>
      <trkpt lat="39.11481" lon="-77.60852">
        <ele>159.2</ele>
      </trkpt>
      <trkpt lat="39.11482" lon="-77.60826">
        <ele>158.7</ele>
      </trkpt>
      <trkpt lat="39.11492" lon="-77.60743">
        <ele>157.0</ele>
      </trkpt>
      <trkpt lat="39.11491" lon="-77.60708">
        <ele>154.4</ele>
      </trkpt>
      <trkpt lat="39.11484" lon="-77.60676">
        <ele>152.7</ele>
      </trkpt>
      <trkpt lat="39.11478" lon="-77.60658">
        <ele>152.7</ele>
      </trkpt>
      <trkpt lat="39.11443" lon="-77.60593">
        <ele>152.7</ele>
      </trkpt>
      <trkpt lat="39.11395" lon="-77.60513">
        <ele>145.6</ele>
      </trkpt>
      <trkpt lat="39.11377" lon="-77.60477">
        <ele>140.7</ele>
      </trkpt>
      <trkpt lat="39.11368" lon="-77.60448">
        <ele>137.2</ele>
      </trkpt>
      <trkpt lat="39.11367" lon="-77.60422">
        <ele>134.3</ele>
      </trkpt>
      <trkpt lat="39.11379" lon="-77.60358">
        <ele>129.6</ele>
      </trkpt>
      <trkpt lat="39.11392" lon="-77.60295">
        <ele>123.9</ele>
      </trkpt>
      <trkpt lat="39.11392" lon="-77.60295">
        <ele>123.9</ele>
      </trkpt>
      <trkpt lat="39.11399" lon="-77.60261">
        <ele>121.5</ele>
      </trkpt>
      <trkpt lat="39.11366" lon="-77.60223">
        <ele>118.7</ele>
      </trkpt>
      <trkpt lat="39.11335" lon="-77.60171">
        <ele>118.2</ele>
      </trkpt>
      <trkpt lat="39.11299" lon="-77.60107">
        <ele>118.3</ele>
      </trkpt>
      <trkpt lat="39.11263" lon="-77.60043">
        <ele>118.5</ele>
      </trkpt>
      <trkpt lat="39.11226" lon="-77.59979">
        <ele>116.2</ele>
      </trkpt>
      <trkpt lat="39.11214" lon="-77.59955">
        <ele>115.1</ele>
      </trkpt>
      <trkpt lat="39.11205" lon="-77.59929">
        <ele>113.6</ele>
      </trkpt>
      <trkpt lat="39.11188" lon="-77.59869">
        <ele>117.4</ele>
      </trkpt>
      <trkpt lat="39.11174" lon="-77.59797">
        <ele>115.1</ele>
      </trkpt>
      <trkpt lat="39.11156" lon="-77.59723">
        <ele>114.4</ele>
      </trkpt>
      <trkpt lat="39.11121" lon="-77.59627">
        <ele>112.7</ele>
      </trkpt>
      <trkpt lat="39.11121" lon="-77.59627">
        <ele>112.7</ele>
      </trkpt>
      <trkpt lat="39.11102" lon="-77.59574">
        <ele>112.0</ele>
      </trkpt>
      <trkpt lat="39.11072" lon="-77.59474">
        <ele>113.9</ele>
      </trkpt>
      <trkpt lat="39.11041" lon="-77.59374">
        <ele>113.1</ele>
      </trkpt>
      <trkpt lat="39.11032" lon="-77.59339">
        <ele>111.6</ele>
      </trkpt>
      <trkpt lat="39.11021" lon="-77.5928">
        <ele>110.2</ele>
      </trkpt>
      <trkpt lat="39.11018" lon="-77.59239">
        <ele>109.6</ele>
      </trkpt>
      <trkpt lat="39.11015" lon="-77.59212">
        <ele>108.3</ele>
      </trkpt>
      <trkpt lat="39.11008" lon="-77.5918">
        <ele>106.9</ele>
      </trkpt>
      <trkpt lat="39.10997" lon="-77.59139">
        <ele>106.2</ele>
      </trkpt>
      <trkpt lat="39.10985" lon="-77.59106">
        <ele>106.9</ele>
      </trkpt>
      <trkpt lat="39.10958" lon="-77.59053">
        <ele>108.2</ele>
      </trkpt>
      <trkpt lat="39.10929" lon="-77.59">
        <ele>108.6</ele>
      </trkpt>
      <trkpt lat="39.10914" lon="-77.5897">
        <ele>108.2</ele>
      </trkpt>
      <trkpt lat="39.10897" lon="-77.58927">
        <ele>108.6</ele>
      </trkpt>
      <trkpt lat="39.10884" lon="-77.58887">
        <ele>110.5</ele>
      </trkpt>
      <trkpt lat="39.10871" lon="-77.58837">
        <ele>111.0</ele>
      </trkpt>
      <trkpt lat="39.10863" lon="-77.58802">
        <ele>111.4</ele>
      </trkpt>
      <trkpt lat="39.10857" lon="-77.58766">
        <ele>111.8</ele>
      </trkpt>
      <trkpt lat="39.10853" lon="-77.58728">
        <ele>112.2</ele>
      </trkpt>
      <trkpt lat="39.10851" lon="-77.58694">
        <ele>112.6</ele>
      </trkpt>
      <trkpt lat="39.10849" lon="-77.58636">
        <ele>113.4</ele>
      </trkpt>
      <trkpt lat="39.10848" lon="-77.58578">
        <ele>113.7</ele>
      </trkpt>
      <trkpt lat="39.10848" lon="-77.5849">
        <ele>114.7</ele>
      </trkpt>
      <trkpt lat="39.10848" lon="-77.58403">
        <ele>113.3</ele>
      </trkpt>
      <trkpt lat="39.10848" lon="-77.58315">
        <ele>114.2</ele>
      </trkpt>
      <trkpt lat="39.10852" lon="-77.58244">
        <ele>114.8</ele>
      </trkpt>
      <trkpt lat="39.1086" lon="-77.58184">
        <ele>115.1</ele>
      </trkpt>
      <trkpt lat="39.10867" lon="-77.58124">
        <ele>115.5</ele>
      </trkpt>
      <trkpt lat="39.10872" lon="-77.58105">
        <ele>115.5</ele>
      </trkpt>
      <trkpt lat="39.10893" lon="-77.58051">
        <ele>113.2</ele>
      </trkpt>
      <trkpt lat="39.10909" lon="-77.58017">
        <ele>112.7</ele>
      </trkpt>
      <trkpt lat="39.10932" lon="-77.57979">
        <ele>112.6</ele>
      </trkpt>
      <trkpt lat="39.10977" lon="-77.57923">
        <ele>113.1</ele>
      </trkpt>
      <trkpt lat="39.11022" lon="-77.57868">
        <ele>113.2</ele>
      </trkpt>
      <trkpt lat="39.11067" lon="-77.57812">
        <ele>112.5</ele>
      </trkpt>
      <trkpt lat="39.11104" lon="-77.57769">
        <ele>111.8</ele>
      </trkpt>
      <trkpt lat="39.1114" lon="-77.57725">
        <ele>109.3</ele>
      </trkpt>
      <trkpt lat="39.11165" lon="-77.57697">
        <ele>109.2</ele>
      </trkpt>
      <trkpt lat="39.11218" lon="-77.57633">
        <ele>108.7</ele>
      </trkpt>
      <trkpt lat="39.11271" lon="-77.57569">
        <ele>107.2</ele>
      </trkpt>
      <trkpt lat="39.11264" lon="-77.57577">
        <ele>107.5</ele>
      </trkpt>
      <trkpt lat="39.11264" lon="-77.57577">
        <ele>107.5</ele>
      </trkpt>
      <trkpt lat="39.113" lon="-77.57527">
        <ele>106.6</ele>
      </trkpt>
      <trkpt lat="39.11341" lon="-77.57458">
        <ele>104.1</ele>
      </trkpt>
      <trkpt lat="39.11348" lon="-77.57373">
        <ele>103.1</ele>
      </trkpt>
      <trkpt lat="39.11352" lon="-77.57261">
        <ele>101.6</ele>
      </trkpt>
      <trkpt lat="39.11351" lon="-77.57221">
        <ele>101.2</ele>
      </trkpt>
      <trkpt lat="39.11347" lon="-77.57137">
        <ele>100.2</ele>
      </trkpt>
      <trkpt lat="39.11335" lon="-77.57055">
        <ele>100.0</ele>
      </trkpt>
      <trkpt lat="39.11323" lon="-77.56972">
        <ele>98.3</ele>
      </trkpt>
      <trkpt lat="39.11299" lon="-77.56869">
        <ele>96.9</ele>
      </trkpt>
      <trkpt lat="39.11271" lon="-77.56776">
        <ele>96.5</ele>
      </trkpt>
      <trkpt lat="39.11244" lon="-77.56696">
        <ele>95.8</ele>
      </trkpt>
      <trkpt lat="39.11216" lon="-77.56637">
        <ele>95.4</ele>
      </trkpt>
      <trkpt lat="39.11201" lon="-77.56617">
        <ele>95.1</ele>
      </trkpt>
      <trkpt lat="39.11197" lon="-77.56605">
        <ele>94.8</ele>
      </trkpt>
      <trkpt lat="39.11155" lon="-77.56522">
        <ele>94.5</ele>
      </trkpt>
      <trkpt lat="39.11149" lon="-77.56509">
        <ele>94.2</ele>
      </trkpt>
      <trkpt lat="39.1114" lon="-77.56481">
        <ele>94.2</ele>
      </trkpt>
      <trkpt lat="39.11136" lon="-77.56464">
        <ele>94.3</ele>
      </trkpt>
      <trkpt lat="39.11106" lon="-77.56406">
        <ele>94.5</ele>
      </trkpt>
      <trkpt lat="39.11097" lon="-77.56386">
        <ele>94.6</ele>
      </trkpt>
      <trkpt lat="39.11097" lon="-77.56386">
        <ele>94.6</ele>
      </trkpt>
      <trkpt lat="39.11097" lon="-77.56386">
        <ele>94.6</ele>
      </trkpt>
      <trkpt lat="39.11092" lon="-77.56374">
        <ele>94.7</ele>
      </trkpt>
      <trkpt lat="39.11087" lon="-77.56367">
        <ele>94.6</ele>
      </trkpt>
      <trkpt lat="39.11081" lon="-77.56362">
        <ele>94.6</ele>
      </trkpt>
      <trkpt lat="39.11064" lon="-77.56355">
        <ele>94.2</ele>
      </trkpt>
      <trkpt lat="39.11049" lon="-77.56345">
        <ele>93.9</ele>
      </trkpt>
      <trkpt lat="39.11044" lon="-77.56334">
        <ele>94.0</ele>
      </trkpt>
      <trkpt lat="39.11044" lon="-77.56319">
        <ele>94.3</ele>
      </trkpt>
      <trkpt lat="39.11084" lon="-77.56328">
        <ele>95.6</ele>
      </trkpt>
      <trkpt lat="39.11099" lon="-77.56327">
        <ele>96.1</ele>
      </trkpt>
      <trkpt lat="39.11116" lon="-77.56323">
        <ele>96.6</ele>
      </trkpt>
      <trkpt lat="39.11163" lon="-77.56302">
        <ele>97.7</ele>
      </trkpt>
      <trkpt lat="39.11211" lon="-77.56282">
        <ele>99.1</ele>
      </trkpt>
      <trkpt lat="39.11251" lon="-77.5627">
        <ele>98.9</ele>
      </trkpt>
      <trkpt lat="39.11299" lon="-77.56248">
        <ele>98.7</ele>
      </trkpt>
      <trkpt lat="39.11348" lon="-77.56226">
        <ele>98.5</ele>
      </trkpt>
      <trkpt lat="39.11338" lon="-77.56192">
        <ele>99.7</ele>
      </trkpt>
      <trkpt lat="39.11391" lon="-77.56151">
        <ele>99.5</ele>
      </trkpt>
    </trkseg>
  </trk>
</gpx>