<?xml version='1.0' encoding='UTF-8'?>
<gpx xmlns="http://www.topografix.com/GPX/1/1" xmlns:xsi="http://www.w3.org/2001/XMLSchema-instance" creator="RouteMaker reference fixture" version="1.1" xsi:schemaLocation="http://www.topografix.com/GPX/1/1 http://www.topografix.com/GPX/1/1/gpx.xsd">
 <metadata>
  <name>To Brookside Gardens</name>
  <copyright author="OpenStreetMap contributors">
   <year>2020</year>
   <license>https://www.openstreetmap.org/copyright</license>
  </copyright>
  </metadata>
 <trk>
  <name>To Brookside Gardens</name>
  <type>cycling</type>
  <trkseg>
   <trkpt lat="38.91071" lon="-77.00150000000001">
    <ele>21.71</ele>
   </trkpt>
   <trkpt lat="38.91123500028908" lon="-77.00123500196537">
    <ele>22.61</ele>
   </trkpt>
   <trkpt lat="38.91176" lon="-77.00097000000001">
    <ele>23.35</ele>
   </trkpt>
   <trkpt lat="38.911910000000006" lon="-77.00091">
    <ele>23.44</ele>
   </trkpt>
   <trkpt lat="38.912060000000004" lon="-77.00091">
    <ele>23.919999999999998</ele>
   </trkpt>
   <trkpt lat="38.91252" lon="-77.00116000000001">
    <ele>24.41</ele>
   </trkpt>
   <trkpt lat="38.91255" lon="-77.00116000000001">
    <ele>24.41</ele>
   </trkpt>
   <trkpt lat="38.91328000319243" lon="-77.00077335321694">
    <ele>24.75</ele>
   </trkpt>
   <trkpt lat="38.91401000510959" lon="-77.00038669848006">
    <ele>25.300000000000004</ele>
   </trkpt>
   <trkpt lat="38.914740005751376" lon="-77.000000035789">
    <ele>27.22</ele>
   </trkpt>
   <trkpt lat="38.91547000511776" lon="-76.9996133651434">
    <ele>26.6</ele>
   </trkpt>
   <trkpt lat="38.9162000032087" lon="-76.99922668654294">
    <ele>27.900000000000002</ele>
   </trkpt>
   <trkpt lat="38.91693" lon="-76.99884">
    <ele>28.28</ele>
   </trkpt>
   <trkpt lat="38.91773000313231" lon="-76.99841001940287">
    <ele>28.940000000000005</ele>
   </trkpt>
   <trkpt lat="38.9185300046874" lon="-76.99798002911076">
    <ele>30.28</ele>
   </trkpt>
   <trkpt lat="38.91933000466518" lon="-76.99755002912322">
    <ele>32.050000000000004</ele>
   </trkpt>
   <trkpt lat="38.920130003065594" lon="-76.99712001943978">
    <ele>33.02</ele>
   </trkpt>
   <trkpt lat="38.920930000000006" lon="-76.99669">
    <ele>33.75</ele>
   </trkpt>
   <trkpt lat="38.92125" lon="-76.99642">
    <ele>34.370000000000005</ele>
   </trkpt>
   <trkpt lat="38.92163" lon="-76.99632000000001">
    <ele>34.7</ele>
   </trkpt>
   <trkpt lat="38.921780000000005" lon="-76.99616">
    <ele>35.26</ele>
   </trkpt>
   <trkpt lat="38.92195" lon="-76.99609000000001">
    <ele>35.57</ele>
   </trkpt>
   <trkpt lat="38.92215" lon="-76.99606">
    <ele>35.99</ele>
   </trkpt>
   <trkpt lat="38.92257" lon="-76.99584">
    <ele>36.39000000000001</ele>
   </trkpt>
   <trkpt lat="38.92291" lon="-76.99562">
    <ele>36.94</ele>
   </trkpt>
   <trkpt lat="38.923030000000004" lon="-76.99557">
    <ele>36.94</ele>
   </trkpt>
   <trkpt lat="38.923860000000005" lon="-76.99525000000001">
    <ele>37.71</ele>
   </trkpt>
   <trkpt lat="38.92423" lon="-76.99512">
    <ele>38.24</ele>
   </trkpt>
   <trkpt lat="38.92439" lon="-76.99508">
    <ele>38.470000000000006</ele>
   </trkpt>
   <trkpt lat="38.924530000000004" lon="-76.995">
    <ele>38.470000000000006</ele>
   </trkpt>
   <trkpt lat="38.92513" lon="-76.99485">
    <ele>40.53</ele>
   </trkpt>
   <trkpt lat="38.925630000000005" lon="-76.99481">
    <ele>43.120000000000005</ele>
   </trkpt>
   <trkpt lat="38.92568" lon="-76.99487">
    <ele>43.120000000000005</ele>
   </trkpt>
   <trkpt lat="38.92568" lon="-76.99495">
    <ele>43.22</ele>
   </trkpt>
   <trkpt lat="38.92634" lon="-76.99497000000001">
    <ele>42.93</ele>
   </trkpt>
   <trkpt lat="38.92634" lon="-76.99501000000001">
    <ele>42.93</ele>
   </trkpt>
   <trkpt lat="38.92696" lon="-76.99501000000001">
    <ele>42.52</ele>
   </trkpt>
   <trkpt lat="38.927290000000006" lon="-76.99503">
    <ele>42.59</ele>
   </trkpt>
   <trkpt lat="38.92736" lon="-76.99499">
    <ele>42.59</ele>
   </trkpt>
   <trkpt lat="38.927420000000005" lon="-76.99499">
    <ele>42.59</ele>
   </trkpt>
   <trkpt lat="38.92792" lon="-76.99501000000001">
    <ele>43.34</ele>
   </trkpt>
   <trkpt lat="38.92880000000646" lon="-76.99500750009304">
    <ele>44.93000000000001</ele>
   </trkpt>
   <trkpt lat="38.92968000001286" lon="-76.99500500012404">
    <ele>46.2</ele>
   </trkpt>
   <trkpt lat="38.930560000019206" lon="-76.99500250009301">
    <ele>48.040000000000006</ele>
   </trkpt>
   <trkpt lat="38.93144" lon="-76.995">
    <ele>49.760000000000005</ele>
   </trkpt>
   <trkpt lat="38.93192999986834" lon="-76.99500999992823">
    <ele>51.10000000000001</ele>
   </trkpt>
   <trkpt lat="38.93242" lon="-76.99502000000001">
    <ele>53.07000000000001</ele>
   </trkpt>
   <trkpt lat="38.93247" lon="-76.99498000000001">
    <ele>53.050000000000004</ele>
   </trkpt>
   <trkpt lat="38.93249" lon="-76.99498000000001">
    <ele>52.94</ele>
   </trkpt>
   <trkpt lat="38.932500000000005" lon="-76.99476">
    <ele>52.4</ele>
   </trkpt>
   <trkpt lat="38.93256" lon="-76.99472">
    <ele>51.63</ele>
   </trkpt>
   <trkpt lat="38.93304000018172" lon="-76.9948149993854">
    <ele>49.79</ele>
   </trkpt>
   <trkpt lat="38.93352" lon="-76.99491">
    <ele>49.38000000000001</ele>
   </trkpt>
   <trkpt lat="38.93368" lon="-76.99508">
    <ele>49.2</ele>
   </trkpt>
   <trkpt lat="38.933730000000004" lon="-76.99511000000001">
    <ele>49.2</ele>
   </trkpt>
   <trkpt lat="38.93383" lon="-76.99512">
    <ele>49.09</ele>
   </trkpt>
   <trkpt lat="38.933930000000004" lon="-76.99508">
    <ele>48.95</ele>
   </trkpt>
   <trkpt lat="38.934090000000005" lon="-76.99517">
    <ele>48.900000000000006</ele>
   </trkpt>
   <trkpt lat="38.93428" lon="-76.99534000000001">
    <ele>49.120000000000005</ele>
   </trkpt>
   <trkpt lat="38.9343" lon="-76.99541">
    <ele>49.190000000000005</ele>
   </trkpt>
   <trkpt lat="38.93457" lon="-76.99548">
    <ele>48.39</ele>
   </trkpt>
   <trkpt lat="38.934650000000005" lon="-76.99553">
    <ele>47.14</ele>
   </trkpt>
   <trkpt lat="38.93553" lon="-76.99571">
    <ele>46.26</ele>
   </trkpt>
   <trkpt lat="38.93587" lon="-76.9958">
    <ele>47.2</ele>
   </trkpt>
   <trkpt lat="38.93663285965301" lon="-76.99611283695113">
    <ele>48.540000000000006</ele>
   </trkpt>
   <trkpt lat="38.93739571847103" lon="-76.99642568063295">
    <ele>49.11</ele>
   </trkpt>
   <trkpt lat="38.93815857645398" lon="-76.99673853104584">
    <ele>49.53</ele>
   </trkpt>
   <trkpt lat="38.93892143360185" lon="-76.99705138819007">
    <ele>49.150000000000006</ele>
   </trkpt>
   <trkpt lat="38.93968428991458" lon="-76.99736425206598">
    <ele>48.86</ele>
   </trkpt>
   <trkpt lat="38.940447145392135" lon="-76.99767712267389">
    <ele>49.27</ele>
   </trkpt>
   <trkpt lat="38.941210000000005" lon="-76.99799">
    <ele>49.760000000000005</ele>
   </trkpt>
   <trkpt lat="38.942" lon="-76.99835">
    <ele>50.2</ele>
   </trkpt>
   <trkpt lat="38.94279166903897" lon="-76.99868331472366">
    <ele>50.89</ele>
   </trkpt>
   <trkpt lat="38.943583337129986" lon="-76.99901663689108">
    <ele>50.67000000000001</ele>
   </trkpt>
   <trkpt lat="38.94437500427301" lon="-76.99934996650263">
    <ele>49.870000000000005</ele>
   </trkpt>
   <trkpt lat="38.945166670467984" lon="-76.99968330355868">
    <ele>49.56</ele>
   </trkpt>
   <trkpt lat="38.94595833571485" lon="-77.0000166480596">
    <ele>51.760000000000005</ele>
   </trkpt>
   <trkpt lat="38.94675" lon="-77.00035000000001">
    <ele>53.62</ele>
   </trkpt>
   <trkpt lat="38.94697" lon="-77.00045">
    <ele>54.24</ele>
   </trkpt>
   <trkpt lat="38.94718" lon="-77.00059">
    <ele>55.31</ele>
   </trkpt>
   <trkpt lat="38.947230000000005" lon="-77.00067">
    <ele>55.31</ele>
   </trkpt>
   <trkpt lat="38.94733" lon="-77.00072">
    <ele>55.43000000000001</ele>
   </trkpt>
   <trkpt lat="38.94792" lon="-77.00082">
    <ele>55.080000000000005</ele>
   </trkpt>
   <trkpt lat="38.948735001420935" lon="-77.00115498843837">
    <ele>55.830000000000005</ele>
   </trkpt>
   <trkpt lat="38.94955000188431" lon="-77.00148998458">
    <ele>56.540000000000006</ele>
   </trkpt>
   <trkpt lat="38.95036500139012" lon="-77.0018249884253">
    <ele>57.57</ele>
   </trkpt>
   <trkpt lat="38.95118" lon="-77.00216">
    <ele>60.13</ele>
   </trkpt>
   <trkpt lat="38.95127" lon="-77.00224">
    <ele>60.13</ele>
   </trkpt>
   <trkpt lat="38.951350000000005" lon="-77.00238">
    <ele>61.980000000000004</ele>
   </trkpt>
   <trkpt lat="38.951370000000004" lon="-77.00250000000001">
    <ele>61.980000000000004</ele>
   </trkpt>
   <trkpt lat="38.95136" lon="-77.00273">
    <ele>61.980000000000004</ele>
   </trkpt>
   <trkpt lat="38.95138" lon="-77.00287">
    <ele>63.65000000000001</ele>
   </trkpt>
   <trkpt lat="38.951440000000005" lon="-77.00313000000001">
    <ele>64.17</ele>
   </trkpt>
   <trkpt lat="38.951510000000006" lon="-77.00323">
    <ele>64.33000000000001</ele>
   </trkpt>
   <trkpt lat="38.951640000000005" lon="-77.00332">
    <ele>64.19000000000001</ele>
   </trkpt>
   <trkpt lat="38.951950000000004" lon="-77.00332">
    <ele>62.00000000000001</ele>
   </trkpt>
   <trkpt lat="38.952090000000005" lon="-77.00338">
    <ele>62.00000000000001</ele>
   </trkpt>
   <trkpt lat="38.952310000000004" lon="-77.00359">
    <ele>60.2</ele>
   </trkpt>
   <trkpt lat="38.95272000000001" lon="-77.00394">
    <ele>58.910000000000004</ele>
   </trkpt>
   <trkpt lat="38.95295" lon="-77.00418">
    <ele>59.150000000000006</ele>
   </trkpt>
   <trkpt lat="38.9532" lon="-77.00448">
    <ele>60.36</ele>
   </trkpt>
   <trkpt lat="38.9534" lon="-77.00466">
    <ele>61.120000000000005</ele>
   </trkpt>
   <trkpt lat="38.95356" lon="-77.0047">
    <ele>61.28000000000001</ele>
   </trkpt>
   <trkpt lat="38.95426499995725" lon="-77.00469000010008">
    <ele>62.83000000000001</ele>
   </trkpt>
   <trkpt lat="38.95497" lon="-77.00468000000001">
    <ele>63.75</ele>
   </trkpt>
   <trkpt lat="38.955540000000006" lon="-77.00469000000001">
    <ele>63.82</ele>
   </trkpt>
   <trkpt lat="38.955580000000005" lon="-77.0047">
    <ele>63.9</ele>
   </trkpt>
   <trkpt lat="38.955600000000004" lon="-77.00475">
    <ele>63.95</ele>
   </trkpt>
   <trkpt lat="38.95561" lon="-77.00484">
    <ele>64.61</ele>
   </trkpt>
   <trkpt lat="38.95548000166428" lon="-77.00546500115782">
    <ele>67.55</ele>
   </trkpt>
   <trkpt lat="38.95535" lon="-77.00609">
    <ele>71.82000000000001</ele>
   </trkpt>
   <trkpt lat="38.95543" lon="-77.00612000000001">
    <ele>72.13</ele>
   </trkpt>
   <trkpt lat="38.955420000000004" lon="-77.00617000000001">
    <ele>72.17000000000002</ele>
   </trkpt>
   <trkpt lat="38.9555" lon="-77.00618">
    <ele>72.37</ele>
   </trkpt>
   <trkpt lat="38.955490000000005" lon="-77.00628">
    <ele>72.85000000000001</ele>
   </trkpt>
   <trkpt lat="38.95629750001066" lon="-77.00628">
    <ele>76.09</ele>
   </trkpt>
   <trkpt lat="38.957105000021315" lon="-77.00628">
    <ele>75.54</ele>
   </trkpt>
   <trkpt lat="38.95791250003199" lon="-77.00628">
    <ele>75.45</ele>
   </trkpt>
   <trkpt lat="38.95872000000001" lon="-77.00628">
    <ele>74.8</ele>
   </trkpt>
   <trkpt lat="38.958960000000005" lon="-77.00628">
    <ele>73.91</ele>
   </trkpt>
   <trkpt lat="38.95909" lon="-77.00632">
    <ele>73.83</ele>
   </trkpt>
   <trkpt lat="38.95915" lon="-77.00637">
    <ele>73.85000000000001</ele>
   </trkpt>
   <trkpt lat="38.95947" lon="-77.00681">
    <ele>75.36000000000001</ele>
   </trkpt>
   <trkpt lat="38.959590000000006" lon="-77.0069">
    <ele>75.99</ele>
   </trkpt>
   <trkpt lat="38.95966000000001" lon="-77.00715000000001">
    <ele>76.42</ele>
   </trkpt>
   <trkpt lat="38.95967" lon="-77.00729000000001">
    <ele>76.56</ele>
   </trkpt>
   <trkpt lat="38.95964" lon="-77.00743">
    <ele>77.26</ele>
   </trkpt>
   <trkpt lat="38.95964000206092" lon="-77.00812499976087">
    <ele>78.94000000000001</ele>
   </trkpt>
   <trkpt lat="38.95964" lon="-77.00882">
    <ele>80.08000000000001</ele>
   </trkpt>
   <trkpt lat="38.95971" lon="-77.00894000000001">
    <ele>80.09</ele>
   </trkpt>
   <trkpt lat="38.960530000000006" lon="-77.00926000000001">
    <ele>81.33000000000001</ele>
   </trkpt>
   <trkpt lat="38.961000000000006" lon="-77.00947000000001">
    <ele>79.66000000000001</ele>
   </trkpt>
   <trkpt lat="38.961420000000004" lon="-77.00976">
    <ele>77.81</ele>
   </trkpt>
   <trkpt lat="38.96190000066881" lon="-77.0101599972785">
    <ele>76.15</ele>
   </trkpt>
   <trkpt lat="38.96238" lon="-77.01056000000001">
    <ele>73.19</ele>
   </trkpt>
   <trkpt lat="38.9624" lon="-77.01057">
    <ele>73.19</ele>
   </trkpt>
   <trkpt lat="38.96255" lon="-77.01072">
    <ele>72.62</ele>
   </trkpt>
   <trkpt lat="38.96294" lon="-77.01101000000001">
    <ele>72.27</ele>
   </trkpt>
   <trkpt lat="38.9634" lon="-77.01127000000001">
    <ele>73.14000000000001</ele>
   </trkpt>
   <trkpt lat="38.9641366677832" lon="-77.01163332577227">
    <ele>75.49</ele>
   </trkpt>
   <trkpt lat="38.96487333443988" lon="-77.01199665910056">
    <ele>76.86000000000001</ele>
   </trkpt>
   <trkpt lat="38.965610000000005" lon="-77.01236">
    <ele>77.58000000000001</ele>
   </trkpt>
   <trkpt lat="38.96603" lon="-77.01258">
    <ele>78.09</ele>
   </trkpt>
   <trkpt lat="38.966660000000005" lon="-77.01303">
    <ele>78.44000000000001</ele>
   </trkpt>
   <trkpt lat="38.967090000000006" lon="-77.01338000000001">
    <ele>79.32</ele>
   </trkpt>
   <trkpt lat="38.967530000000004" lon="-77.01378000000001">
    <ele>80.39</ele>
   </trkpt>
   <trkpt lat="38.967670000000005" lon="-77.01388">
    <ele>81.04</ele>
   </trkpt>
   <trkpt lat="38.967830000000006" lon="-77.01396000000001">
    <ele>81.5</ele>
   </trkpt>
   <trkpt lat="38.96828" lon="-77.01402">
    <ele>80.97</ele>
   </trkpt>
   <trkpt lat="38.968430000000005" lon="-77.01410000000001">
    <ele>80.41000000000001</ele>
   </trkpt>
   <trkpt lat="38.96914500062872" lon="-77.01447999617086">
    <ele>76.4</ele>
   </trkpt>
   <trkpt lat="38.969860000000004" lon="-77.01486000000001">
    <ele>74.65</ele>
   </trkpt>
   <trkpt lat="38.970660001714464" lon="-77.01530998982686">
    <ele>74.21000000000001</ele>
   </trkpt>
   <trkpt lat="38.9714600017008" lon="-77.01575998981899">
    <ele>74.46000000000001</ele>
   </trkpt>
   <trkpt lat="38.972260000000006" lon="-77.01621">
    <ele>77.14</ele>
   </trkpt>
   <trkpt lat="38.97232" lon="-77.01620000000001">
    <ele>77.41000000000001</ele>
   </trkpt>
   <trkpt lat="38.97232" lon="-77.01585">
    <ele>78.02000000000001</ele>
   </trkpt>
   <trkpt lat="38.972440000000006" lon="-77.01586">
    <ele>78.45</ele>
   </trkpt>
   <trkpt lat="38.973000000000006" lon="-77.01621">
    <ele>81.19000000000001</ele>
   </trkpt>
   <trkpt lat="38.97305" lon="-77.01622">
    <ele>81.19000000000001</ele>
   </trkpt>
   <trkpt lat="38.973040000000005" lon="-77.01622">
    <ele>81.19000000000001</ele>
   </trkpt>
   <trkpt lat="38.9731" lon="-77.01621">
    <ele>81.27000000000001</ele>
   </trkpt>
   <trkpt lat="38.973180000000006" lon="-77.01613">
    <ele>81.69000000000001</ele>
   </trkpt>
   <trkpt lat="38.973800000000004" lon="-77.01569">
    <ele>83.27000000000001</ele>
   </trkpt>
   <trkpt lat="38.97384" lon="-77.01568">
    <ele>83.35000000000001</ele>
   </trkpt>
   <trkpt lat="38.973870000000005" lon="-77.01565000000001">
    <ele>83.44</ele>
   </trkpt>
   <trkpt lat="38.97384" lon="-77.01558">
    <ele>83.47</ele>
   </trkpt>
   <trkpt lat="38.97433000034861" lon="-77.01524000245286">
    <ele>84.31</ele>
   </trkpt>
   <trkpt lat="38.97482" lon="-77.01490000000001">
    <ele>85.07000000000001</ele>
   </trkpt>
   <trkpt lat="38.97495" lon="-77.01479">
    <ele>85.23</ele>
   </trkpt>
   <trkpt lat="38.97518" lon="-77.01465">
    <ele>85.57000000000001</ele>
   </trkpt>
   <trkpt lat="38.975958579428216" lon="-77.01409146541127">
    <ele>87.71000000000001</ele>
   </trkpt>
   <trkpt lat="38.97673715619396" lon="-77.01353291854078">
    <ele>86.91</ele>
   </trkpt>
   <trkpt lat="38.97751573029712" lon="-77.01297435938795">
    <ele>86.18</ele>
   </trkpt>
   <trkpt lat="38.97829430173754" lon="-77.0124157879522">
    <ele>83.04</ele>
   </trkpt>
   <trkpt lat="38.979072870515104" lon="-77.01185720423298">
    <ele>79.91000000000001</ele>
   </trkpt>
   <trkpt lat="38.97985143662967" lon="-77.01129860822971">
    <ele>71.74000000000001</ele>
   </trkpt>
   <trkpt lat="38.980630000000005" lon="-77.01074000000001">
    <ele>65.13000000000001</ele>
   </trkpt>
   <trkpt lat="38.981030000000004" lon="-77.0103">
    <ele>65.56</ele>
   </trkpt>
   <trkpt lat="38.98154" lon="-77.0095">
    <ele>62.660000000000004</ele>
   </trkpt>
   <trkpt lat="38.98183000125894" lon="-77.0089850018837">
    <ele>61.06</ele>
   </trkpt>
   <trkpt lat="38.98212" lon="-77.00847">
    <ele>59.940000000000005</ele>
   </trkpt>
   <trkpt lat="38.982390001246145" lon="-77.00795500174597">
    <ele>58.730000000000004</ele>
   </trkpt>
   <trkpt lat="38.98266" lon="-77.00744">
    <ele>57.5</ele>
   </trkpt>
   <trkpt lat="38.983320000000006" lon="-77.00673">
    <ele>55.89</ele>
   </trkpt>
   <trkpt lat="38.983450000000005" lon="-77.00652000000001">
    <ele>55.53</ele>
   </trkpt>
   <trkpt lat="38.983780005246" lon="-77.00573667394835">
    <ele>54.56</ele>
   </trkpt>
   <trkpt lat="38.98411000525492" lon="-77.00495334059393">
    <ele>53.15</ele>
   </trkpt>
   <trkpt lat="38.984440000000006" lon="-77.00417">
    <ele>52.22</ele>
   </trkpt>
   <trkpt lat="38.98453000000001" lon="-77.004">
    <ele>52.10000000000001</ele>
   </trkpt>
   <trkpt lat="38.984680000000004" lon="-77.00385">
    <ele>51.88</ele>
   </trkpt>
   <trkpt lat="38.984860000000005" lon="-77.00380000000001">
    <ele>51.88</ele>
   </trkpt>
   <trkpt lat="38.98548" lon="-77.00374000000001">
    <ele>51.64000000000001</ele>
   </trkpt>
   <trkpt lat="38.985220000000005" lon="-77.00337">
    <ele>51.06</ele>
   </trkpt>
   <trkpt lat="38.98498" lon="-77.00318">
    <ele>50.96</ele>
   </trkpt>
   <trkpt lat="38.984350000000006" lon="-77.00283">
    <ele>51.39</ele>
   </trkpt>
   <trkpt lat="38.98425" lon="-77.00273">
    <ele>51.370000000000005</ele>
   </trkpt>
   <trkpt lat="38.98404" lon="-77.00246">
    <ele>51.120000000000005</ele>
   </trkpt>
   <trkpt lat="38.983830000000005" lon="-77.00193">
    <ele>49.79</ele>
   </trkpt>
   <trkpt lat="38.98371" lon="-77.00152">
    <ele>49.32</ele>
   </trkpt>
   <trkpt lat="38.98359000000001" lon="-77.00129000000001">
    <ele>49.160000000000004</ele>
   </trkpt>
   <trkpt lat="38.98324" lon="-77.00078">
    <ele>49.2</ele>
   </trkpt>
   <trkpt lat="38.982940000000006" lon="-77.00024">
    <ele>48.39</ele>
   </trkpt>
   <trkpt lat="38.98261" lon="-76.99982">
    <ele>45.38</ele>
   </trkpt>
   <trkpt lat="38.982470000000006" lon="-76.99947">
    <ele>43.78000000000001</ele>
   </trkpt>
   <trkpt lat="38.98239" lon="-76.99933">
    <ele>43.49</ele>
   </trkpt>
   <trkpt lat="38.982200000000006" lon="-76.99915">
    <ele>42.71</ele>
   </trkpt>
   <trkpt lat="38.982240000000004" lon="-76.99910000000001">
    <ele>42.71</ele>
   </trkpt>
   <trkpt lat="38.982220000000005" lon="-76.99911">
    <ele>42.77</ele>
   </trkpt>
   <trkpt lat="38.98223" lon="-76.99910000000001">
    <ele>42.71</ele>
   </trkpt>
   <trkpt lat="38.98234" lon="-76.9992">
    <ele>42.910000000000004</ele>
   </trkpt>
   <trkpt lat="38.982620000000004" lon="-76.99924">
    <ele>43.2</ele>
   </trkpt>
   <trkpt lat="38.982670000000006" lon="-76.99928000000001">
    <ele>43.510000000000005</ele>
   </trkpt>
   <trkpt lat="38.982870000000005" lon="-76.99950000000001">
    <ele>44.36</ele>
   </trkpt>
   <trkpt lat="38.983140000000006" lon="-76.99991">
    <ele>44.61</ele>
   </trkpt>
   <trkpt lat="38.983470000000004" lon="-77.00027">
    <ele>45.17</ele>
   </trkpt>
   <trkpt lat="38.98353" lon="-77.00036">
    <ele>45.25000000000001</ele>
   </trkpt>
   <trkpt lat="38.98396" lon="-77.00122">
    <ele>46.230000000000004</ele>
   </trkpt>
   <trkpt lat="38.98422" lon="-77.00211">
    <ele>47.900000000000006</ele>
   </trkpt>
   <trkpt lat="38.98429" lon="-77.00224">
    <ele>49.09</ele>
   </trkpt>
   <trkpt lat="38.984410000000004" lon="-77.00238">
    <ele>49.470000000000006</ele>
   </trkpt>
   <trkpt lat="38.98456" lon="-77.00255">
    <ele>49.93</ele>
   </trkpt>
   <trkpt lat="38.98519" lon="-77.00274">
    <ele>50.71</ele>
   </trkpt>
   <trkpt lat="38.985330000000005" lon="-77.00286000000001">
    <ele>50.86</ele>
   </trkpt>
   <trkpt lat="38.985640000000004" lon="-77.00323">
    <ele>50.97</ele>
   </trkpt>
   <trkpt lat="38.98597" lon="-77.00345">
    <ele>52.03000000000001</ele>
   </trkpt>
   <trkpt lat="38.98608" lon="-77.00359">
    <ele>52.24</ele>
   </trkpt>
   <trkpt lat="38.98608" lon="-77.00367">
    <ele>52.230000000000004</ele>
   </trkpt>
   <trkpt lat="38.986140000000006" lon="-77.00366000000001">
    <ele>52.4</ele>
   </trkpt>
   <trkpt lat="38.9861" lon="-77.00407000000001">
    <ele>51.74</ele>
   </trkpt>
   <trkpt lat="38.98612" lon="-77.00426">
    <ele>51.480000000000004</ele>
   </trkpt>
   <trkpt lat="38.98617" lon="-77.0044">
    <ele>51.440000000000005</ele>
   </trkpt>
   <trkpt lat="38.986250000000005" lon="-77.00452">
    <ele>51.54</ele>
   </trkpt>
   <trkpt lat="38.986470000000004" lon="-77.00474000000001">
    <ele>51.65</ele>
   </trkpt>
   <trkpt lat="38.986670000000004" lon="-77.00488">
    <ele>52.17</ele>
   </trkpt>
   <trkpt lat="38.98693" lon="-77.00493">
    <ele>52.31</ele>
   </trkpt>
   <trkpt lat="38.98763" lon="-77.00479">
    <ele>52.31</ele>
   </trkpt>
   <trkpt lat="38.98781" lon="-77.00479">
    <ele>52.56</ele>
   </trkpt>
   <trkpt lat="38.98800000000001" lon="-77.00488">
    <ele>52.77</ele>
   </trkpt>
   <trkpt lat="38.988510000000005" lon="-77.00528000000001">
    <ele>53.36000000000001</ele>
   </trkpt>
   <trkpt lat="38.98879" lon="-77.00545000000001">
    <ele>53.910000000000004</ele>
   </trkpt>
   <trkpt lat="38.989340000000006" lon="-77.00618">
    <ele>54.650000000000006</ele>
   </trkpt>
   <trkpt lat="38.989470000000004" lon="-77.00628">
    <ele>55.17</ele>
   </trkpt>
   <trkpt lat="38.989630000000005" lon="-77.00631000000001">
    <ele>55.38</ele>
   </trkpt>
   <trkpt lat="38.9898" lon="-77.00627">
    <ele>55.800000000000004</ele>
   </trkpt>
   <trkpt lat="38.990500000000004" lon="-77.00582">
    <ele>57.06</ele>
   </trkpt>
   <trkpt lat="38.99072" lon="-77.00578">
    <ele>57.77</ele>
   </trkpt>
   <trkpt lat="38.990860000000005" lon="-77.00578">
    <ele>57.77</ele>
   </trkpt>
   <trkpt lat="38.99143" lon="-77.00605">
    <ele>57.63000000000001</ele>
   </trkpt>
   <trkpt lat="38.99157" lon="-77.00608000000001">
    <ele>57.63000000000001</ele>
   </trkpt>
   <trkpt lat="38.991710000000005" lon="-77.00605">
    <ele>57.220000000000006</ele>
   </trkpt>
   <trkpt lat="38.99179" lon="-77.006">
    <ele>57.06</ele>
   </trkpt>
   <trkpt lat="38.99208" lon="-77.00577000000001">
    <ele>56.980000000000004</ele>
   </trkpt>
   <trkpt lat="38.99244" lon="-77.00542">
    <ele>57.690000000000005</ele>
   </trkpt>
   <trkpt lat="38.99271" lon="-77.00511">
    <ele>58.77</ele>
   </trkpt>
   <trkpt lat="38.9928" lon="-77.00505000000001">
    <ele>58.96</ele>
   </trkpt>
   <trkpt lat="38.99293" lon="-77.00502">
    <ele>59.09</ele>
   </trkpt>
   <trkpt lat="38.99307" lon="-77.00505000000001">
    <ele>59.09</ele>
   </trkpt>
   <trkpt lat="38.99338" lon="-77.00515">
    <ele>58.900000000000006</ele>
   </trkpt>
   <trkpt lat="38.99356" lon="-77.0052">
    <ele>58.900000000000006</ele>
   </trkpt>
   <trkpt lat="38.99371" lon="-77.00516">
    <ele>58.870000000000005</ele>
   </trkpt>
   <trkpt lat="38.993860000000005" lon="-77.00511">
    <ele>58.92000000000001</ele>
   </trkpt>
   <trkpt lat="38.99392" lon="-77.00506">
    <ele>59.160000000000004</ele>
   </trkpt>
   <trkpt lat="38.994020000000006" lon="-77.00488">
    <ele>59.25</ele>
   </trkpt>
   <trkpt lat="38.994110000000006" lon="-77.0044">
    <ele>59.27</ele>
   </trkpt>
   <trkpt lat="38.994150000000005" lon="-77.00431">
    <ele>59.230000000000004</ele>
   </trkpt>
   <trkpt lat="38.99421" lon="-77.00422">
    <ele>59.160000000000004</ele>
   </trkpt>
   <trkpt lat="38.99436" lon="-77.00411000000001">
    <ele>58.68</ele>
   </trkpt>
   <trkpt lat="38.9945" lon="-77.00408">
    <ele>58.68</ele>
   </trkpt>
   <trkpt lat="38.994640000000004" lon="-77.00408">
    <ele>58.61</ele>
   </trkpt>
   <trkpt lat="38.994780000000006" lon="-77.00417">
    <ele>58.64</ele>
   </trkpt>
   <trkpt lat="38.99494" lon="-77.00431">
    <ele>58.800000000000004</ele>
   </trkpt>
   <trkpt lat="38.995160000000006" lon="-77.00458">
    <ele>59.45</ele>
   </trkpt>
   <trkpt lat="38.99578" lon="-77.00536000000001">
    <ele>62.44</ele>
   </trkpt>
   <trkpt lat="38.99586" lon="-77.00591">
    <ele>63.46</ele>
   </trkpt>
   <trkpt lat="38.99602" lon="-77.00671000000001">
    <ele>62.550000000000004</ele>
   </trkpt>
   <trkpt lat="38.99608000249815" lon="-77.00747499935765">
    <ele>61.94</ele>
   </trkpt>
   <trkpt lat="38.996140000000004" lon="-77.00824">
    <ele>63.55000000000001</ele>
   </trkpt>
   <trkpt lat="38.99626000000001" lon="-77.00868000000001">
    <ele>63.79</ele>
   </trkpt>
   <trkpt lat="38.996390000000005" lon="-77.00890000000001">
    <ele>64.08000000000001</ele>
   </trkpt>
   <trkpt lat="38.99654" lon="-77.00908000000001">
    <ele>64.60000000000001</ele>
   </trkpt>
   <trkpt lat="38.99667" lon="-77.00918">
    <ele>64.60000000000001</ele>
   </trkpt>
   <trkpt lat="38.99694" lon="-77.00931">
    <ele>64.84</ele>
   </trkpt>
   <trkpt lat="38.99739" lon="-77.00939000000001">
    <ele>65.0</ele>
   </trkpt>
   <trkpt lat="38.99801" lon="-77.00952000000001">
    <ele>64.61</ele>
   </trkpt>
   <trkpt lat="38.998110000000004" lon="-77.00955">
    <ele>64.56</ele>
   </trkpt>
   <trkpt lat="38.998490000000004" lon="-77.00976">
    <ele>64.48</ele>
   </trkpt>
   <trkpt lat="38.998960000000004" lon="-77.01022">
    <ele>65.33</ele>
   </trkpt>
   <trkpt lat="38.999120000000005" lon="-77.01035">
    <ele>65.92</ele>
   </trkpt>
   <trkpt lat="38.999390000000005" lon="-77.01052">
    <ele>66.33</ele>
   </trkpt>
   <trkpt lat="38.999790000000004" lon="-77.01067">
    <ele>66.05000000000001</ele>
   </trkpt>
   <trkpt lat="39.00018" lon="-77.01075">
    <ele>65.19000000000001</ele>
   </trkpt>
   <trkpt lat="39.000510000000006" lon="-77.01089">
    <ele>64.80000000000001</ele>
   </trkpt>
   <trkpt lat="39.00067000000001" lon="-77.01102">
    <ele>64.85000000000001</ele>
   </trkpt>
   <trkpt lat="39.00130000103311" lon="-77.01153499533339">
    <ele>65.67</ele>
   </trkpt>
   <trkpt lat="39.00193" lon="-77.01205">
    <ele>66.88000000000001</ele>
   </trkpt>
   <trkpt lat="39.002100000000006" lon="-77.01223">
    <ele>67.33</ele>
   </trkpt>
   <trkpt lat="39.002210000000005" lon="-77.0124">
    <ele>67.46000000000001</ele>
   </trkpt>
   <trkpt lat="39.00265" lon="-77.01325">
    <ele>68.0</ele>
   </trkpt>
   <trkpt lat="39.002750000000006" lon="-77.01338000000001">
    <ele>68.0</ele>
   </trkpt>
   <trkpt lat="39.0032" lon="-77.01379">
    <ele>68.23</ele>
   </trkpt>
   <trkpt lat="39.00336" lon="-77.01397">
    <ele>68.64</ele>
   </trkpt>
   <trkpt lat="39.00347" lon="-77.01413000000001">
    <ele>68.64</ele>
   </trkpt>
   <trkpt lat="39.00376000084359" lon="-77.01458999801991">
    <ele>69.08</ele>
   </trkpt>
   <trkpt lat="39.00405000000001" lon="-77.01505">
    <ele>69.32000000000001</ele>
   </trkpt>
   <trkpt lat="39.004380000000005" lon="-77.01554">
    <ele>69.61</ele>
   </trkpt>
   <trkpt lat="39.00462" lon="-77.01578">
    <ele>69.73</ele>
   </trkpt>
   <trkpt lat="39.00521500094167" lon="-77.0162649958699">
    <ele>70.28</ele>
   </trkpt>
   <trkpt lat="39.005810000000004" lon="-77.01675">
    <ele>70.58</ele>
   </trkpt>
   <trkpt lat="39.006040000000006" lon="-77.01688">
    <ele>70.64</ele>
   </trkpt>
   <trkpt lat="39.006400000000006" lon="-77.01696000000001">
    <ele>71.0</ele>
   </trkpt>
   <trkpt lat="39.00659" lon="-77.01702">
    <ele>71.03000000000002</ele>
   </trkpt>
   <trkpt lat="39.00672" lon="-77.0171">
    <ele>71.10000000000001</ele>
   </trkpt>
   <trkpt lat="39.0069" lon="-77.01725">
    <ele>71.41</ele>
   </trkpt>
   <trkpt lat="39.007000000000005" lon="-77.01743">
    <ele>71.53000000000002</ele>
   </trkpt>
   <trkpt lat="39.007070000000006" lon="-77.01769">
    <ele>71.58</ele>
   </trkpt>
   <trkpt lat="39.00716500205335" lon="-77.01837999922778">
    <ele>71.58</ele>
   </trkpt>
   <trkpt lat="39.00726" lon="-77.01907">
    <ele>71.84</ele>
   </trkpt>
   <trkpt lat="39.00735" lon="-77.01957">
    <ele>72.67000000000002</ele>
   </trkpt>
   <trkpt lat="39.00742" lon="-77.01974000000001">
    <ele>72.67000000000002</ele>
   </trkpt>
   <trkpt lat="39.0077" lon="-77.02011">
    <ele>73.29</ele>
   </trkpt>
   <trkpt lat="39.007920000000006" lon="-77.02055">
    <ele>72.89000000000001</ele>
   </trkpt>
   <trkpt lat="39.008140000000004" lon="-77.02087">
    <ele>72.87</ele>
   </trkpt>
   <trkpt lat="39.008340000000004" lon="-77.02109">
    <ele>72.91</ele>
   </trkpt>
   <trkpt lat="39.008520000000004" lon="-77.02122">
    <ele>73.07000000000001</ele>
   </trkpt>
   <trkpt lat="39.00869" lon="-77.02131">
    <ele>73.3</ele>
   </trkpt>
   <trkpt lat="39.00929" lon="-77.0215">
    <ele>73.51</ele>
   </trkpt>
   <trkpt lat="39.009550000000004" lon="-77.02167">
    <ele>74.1</ele>
   </trkpt>
   <trkpt lat="39.00965" lon="-77.02176">
    <ele>74.1</ele>
   </trkpt>
   <trkpt lat="39.009840000000004" lon="-77.02204">
    <ele>74.12</ele>
   </trkpt>
   <trkpt lat="39.00996000000001" lon="-77.02226">
    <ele>74.48</ele>
   </trkpt>
   <trkpt lat="39.01019" lon="-77.02287000000001">
    <ele>74.86000000000001</ele>
   </trkpt>
   <trkpt lat="39.01034000000001" lon="-77.02337">
    <ele>75.33000000000001</ele>
   </trkpt>
   <trkpt lat="39.01039" lon="-77.0236">
    <ele>75.51</ele>
   </trkpt>
   <trkpt lat="39.01043000000001" lon="-77.02471000000001">
    <ele>76.30000000000001</ele>
   </trkpt>
   <trkpt lat="39.010470000000005" lon="-77.02504">
    <ele>76.53</ele>
   </trkpt>
   <trkpt lat="39.010540000000006" lon="-77.02534">
    <ele>76.73</ele>
   </trkpt>
   <trkpt lat="39.01082" lon="-77.0261">
    <ele>77.65</ele>
   </trkpt>
   <trkpt lat="39.010920000000006" lon="-77.02649000000001">
    <ele>77.84</ele>
   </trkpt>
   <trkpt lat="39.01099000000001" lon="-77.02758">
    <ele>78.41000000000001</ele>
   </trkpt>
   <trkpt lat="39.01106" lon="-77.02786">
    <ele>78.61000000000001</ele>
   </trkpt>
   <trkpt lat="39.0112" lon="-77.02821">
    <ele>79.03</ele>
   </trkpt>
   <trkpt lat="39.01136" lon="-77.02851000000001">
    <ele>79.24000000000001</ele>
   </trkpt>
   <trkpt lat="39.01158" lon="-77.02879">
    <ele>79.82000000000001</ele>
   </trkpt>
   <trkpt lat="39.01176" lon="-77.02897">
    <ele>79.97000000000001</ele>
   </trkpt>
   <trkpt lat="39.01221" lon="-77.02932000000001">
    <ele>80.86</ele>
   </trkpt>
   <trkpt lat="39.01292" lon="-77.02995">
    <ele>81.63000000000001</ele>
   </trkpt>
   <trkpt lat="39.013130000000004" lon="-77.03017000000001">
    <ele>81.66000000000001</ele>
   </trkpt>
   <trkpt lat="39.0137" lon="-77.03066000000001">
    <ele>81.67</ele>
   </trkpt>
   <trkpt lat="39.01402" lon="-77.03086">
    <ele>81.64</ele>
   </trkpt>
   <trkpt lat="39.01451" lon="-77.03112">
    <ele>81.58</ele>
   </trkpt>
   <trkpt lat="39.014520000000005" lon="-77.03113">
    <ele>81.58</ele>
   </trkpt>
   <trkpt lat="39.015115000090105" lon="-77.03130499851562">
    <ele>81.91000000000001</ele>
   </trkpt>
   <trkpt lat="39.015710000000006" lon="-77.03148">
    <ele>83.17</ele>
   </trkpt>
   <trkpt lat="39.01603" lon="-77.03166">
    <ele>83.93</ele>
   </trkpt>
   <trkpt lat="39.01633" lon="-77.03196000000001">
    <ele>85.17</ele>
   </trkpt>
   <trkpt lat="39.01641" lon="-77.03203">
    <ele>85.08</ele>
   </trkpt>
   <trkpt lat="39.01661" lon="-77.0321">
    <ele>84.78</ele>
   </trkpt>
   <trkpt lat="39.01679" lon="-77.03215">
    <ele>84.61</ele>
   </trkpt>
   <trkpt lat="39.017580000137606" lon="-77.03219999944942">
    <ele>85.45000000000002</ele>
   </trkpt>
   <trkpt lat="39.018370000000004" lon="-77.03225">
    <ele>86.47</ele>
   </trkpt>
   <trkpt lat="39.019100000080265" lon="-77.03231499933446">
    <ele>87.05</ele>
   </trkpt>
   <trkpt lat="39.019830000000006" lon="-77.03238">
    <ele>86.94</ele>
   </trkpt>
   <trkpt lat="39.02008" lon="-77.03237">
    <ele>87.17000000000002</ele>
   </trkpt>
   <trkpt lat="39.02046" lon="-77.03224">
    <ele>87.38000000000001</ele>
   </trkpt>
   <trkpt lat="39.02065" lon="-77.03207">
    <ele>87.38000000000001</ele>
   </trkpt>
   <trkpt lat="39.02084" lon="-77.03188">
    <ele>87.46000000000001</ele>
   </trkpt>
   <trkpt lat="39.02134" lon="-77.03103">
    <ele>88.10000000000001</ele>
   </trkpt>
   <trkpt lat="39.021640000000005" lon="-77.03057000000001">
    <ele>88.52</ele>
   </trkpt>
   <trkpt lat="39.02183" lon="-77.03019">
    <ele>88.8</ele>
   </trkpt>
   <trkpt lat="39.02196" lon="-77.03004">
    <ele>88.91</ele>
   </trkpt>
   <trkpt lat="39.02215" lon="-77.02987">
    <ele>89.23</ele>
   </trkpt>
   <trkpt lat="39.02228" lon="-77.02982">
    <ele>89.44</ele>
   </trkpt>
   <trkpt lat="39.022540000000006" lon="-77.02982">
    <ele>89.44</ele>
   </trkpt>
   <trkpt lat="39.02266" lon="-77.02983">
    <ele>89.91</ele>
   </trkpt>
   <trkpt lat="39.02317" lon="-77.03009">
    <ele>90.41</ele>
   </trkpt>
   <trkpt lat="39.023360000000004" lon="-77.03013">
    <ele>90.41</ele>
   </trkpt>
   <trkpt lat="39.023610000000005" lon="-77.03008000000001">
    <ele>90.81</ele>
   </trkpt>
   <trkpt lat="39.023830000000004" lon="-77.02995">
    <ele>90.98</ele>
   </trkpt>
   <trkpt lat="39.02443" lon="-77.02951">
    <ele>91.4</ele>
   </trkpt>
   <trkpt lat="39.024680000000004" lon="-77.02941000000001">
    <ele>91.67</ele>
   </trkpt>
   <trkpt lat="39.02521" lon="-77.02926000000001">
    <ele>92.6</ele>
   </trkpt>
   <trkpt lat="39.0260233336251" lon="-77.0290733376302">
    <ele>93.08000000000001</ele>
   </trkpt>
   <trkpt lat="39.02683666695272" lon="-77.02888667096491">
    <ele>93.73</ele>
   </trkpt>
   <trkpt lat="39.02765" lon="-77.0287">
    <ele>94.27000000000001</ele>
   </trkpt>
   <trkpt lat="39.02797" lon="-77.02866">
    <ele>94.72000000000001</ele>
   </trkpt>
   <trkpt lat="39.02848500005563" lon="-77.02864000014364">
    <ele>95.10000000000001</ele>
   </trkpt>
   <trkpt lat="39.029" lon="-77.02862">
    <ele>95.4</ele>
   </trkpt>
   <trkpt lat="39.029360000000004" lon="-77.02866">
    <ele>95.53</ele>
   </trkpt>
   <trkpt lat="39.029610000000005" lon="-77.02879">
    <ele>95.69000000000001</ele>
   </trkpt>
   <trkpt lat="39.03027500041613" lon="-77.02914999653856">
    <ele>96.27000000000001</ele>
   </trkpt>
   <trkpt lat="39.03094" lon="-77.02951">
    <ele>96.88000000000001</ele>
   </trkpt>
   <trkpt lat="39.03112" lon="-77.02956">
    <ele>97.37</ele>
   </trkpt>
   <trkpt lat="39.03144" lon="-77.0296">
    <ele>97.54</ele>
   </trkpt>
   <trkpt lat="39.032310000170895" lon="-77.0294200022091">
    <ele>98.38000000000001</ele>
   </trkpt>
   <trkpt lat="39.03318" lon="-77.02924">
    <ele>98.98</ele>
   </trkpt>
   <trkpt lat="39.03367" lon="-77.02924">
    <ele>99.84</ele>
   </trkpt>
   <trkpt lat="39.03405" lon="-77.02933">
    <ele>100.01</ele>
   </trkpt>
   <trkpt lat="39.03428" lon="-77.02944000000001">
    <ele>100.08</ele>
   </trkpt>
   <trkpt lat="39.03506500134853" lon="-77.0299899939303">
    <ele>101.39</ele>
   </trkpt>
   <trkpt lat="39.03585" lon="-77.03054">
    <ele>102.65</ele>
   </trkpt>
   <trkpt lat="39.035990000000005" lon="-77.03059">
    <ele>102.98</ele>
   </trkpt>
   <trkpt lat="39.036170000000006" lon="-77.03059">
    <ele>103.36</ele>
   </trkpt>
   <trkpt lat="39.0364" lon="-77.03056000000001">
    <ele>104.81000000000002</ele>
   </trkpt>
   <trkpt lat="39.036390000000004" lon="-77.03044000000001">
    <ele>105.03000000000002</ele>
   </trkpt>
   <trkpt lat="39.036410000000004" lon="-77.0304">
    <ele>105.18</ele>
   </trkpt>
   <trkpt lat="39.03667" lon="-77.03038000000001">
    <ele>105.51</ele>
   </trkpt>
   <trkpt lat="39.03676" lon="-77.03031">
    <ele>105.60000000000001</ele>
   </trkpt>
   <trkpt lat="39.03685" lon="-77.03035000000001">
    <ele>105.60000000000001</ele>
   </trkpt>
   <trkpt lat="39.037400000000005" lon="-77.03063">
    <ele>105.9</ele>
   </trkpt>
   <trkpt lat="39.037560000000006" lon="-77.03072">
    <ele>106.63</ele>
   </trkpt>
   <trkpt lat="39.038270000000004" lon="-77.03129000000001">
    <ele>107.37</ele>
   </trkpt>
   <trkpt lat="39.03869" lon="-77.03165000000001">
    <ele>108.26</ele>
   </trkpt>
   <trkpt lat="39.039120000000004" lon="-77.03192">
    <ele>108.91000000000001</ele>
   </trkpt>
   <trkpt lat="39.03945" lon="-77.0321">
    <ele>110.28</ele>
   </trkpt>
   <trkpt lat="39.0397" lon="-77.03232000000001">
    <ele>110.89</ele>
   </trkpt>
   <trkpt lat="39.03999" lon="-77.03245000000001">
    <ele>112.34</ele>
   </trkpt>
   <trkpt lat="39.040090000000006" lon="-77.03255">
    <ele>112.0</ele>
   </trkpt>
   <trkpt lat="39.04021" lon="-77.03273">
    <ele>110.38000000000001</ele>
   </trkpt>
   <trkpt lat="39.040420001311105" lon="-77.03329499818143">
    <ele>108.69000000000001</ele>
   </trkpt>
   <trkpt lat="39.04063" lon="-77.03386">
    <ele>108.51</ele>
   </trkpt>
   <trkpt lat="39.04084000149749" lon="-77.03446499801399">
    <ele>108.78000000000002</ele>
   </trkpt>
   <trkpt lat="39.041050000000006" lon="-77.03507">
    <ele>108.91000000000001</ele>
   </trkpt>
   <trkpt lat="39.04112000000001" lon="-77.03518000000001">
    <ele>108.91000000000001</ele>
   </trkpt>
   <trkpt lat="39.041320000000006" lon="-77.03532000000001">
    <ele>109.02000000000001</ele>
   </trkpt>
   <trkpt lat="39.041500000000006" lon="-77.03554000000001">
    <ele>109.6</ele>
   </trkpt>
   <trkpt lat="39.041740000000004" lon="-77.03573">
    <ele>110.11000000000001</ele>
   </trkpt>
   <trkpt lat="39.041850000000004" lon="-77.03599000000001">
    <ele>110.55000000000001</ele>
   </trkpt>
   <trkpt lat="39.041920000000005" lon="-77.03609">
    <ele>110.88000000000001</ele>
   </trkpt>
   <trkpt lat="39.041970000000006" lon="-77.03613">
    <ele>111.02000000000001</ele>
   </trkpt>
   <trkpt lat="39.042390000000005" lon="-77.03608000000001">
    <ele>112.92</ele>
   </trkpt>
   <trkpt lat="39.042660000000005" lon="-77.03592">
    <ele>114.94000000000001</ele>
   </trkpt>
   <trkpt lat="39.043000000000006" lon="-77.03582">
    <ele>117.77000000000001</ele>
   </trkpt>
   <trkpt lat="39.043200000000006" lon="-77.03586">
    <ele>118.49000000000001</ele>
   </trkpt>
   <trkpt lat="39.04339" lon="-77.03582">
    <ele>119.15</ele>
   </trkpt>
   <trkpt lat="39.043510000000005" lon="-77.03586">
    <ele>119.74000000000001</ele>
   </trkpt>
   <trkpt lat="39.043600000000005" lon="-77.03583">
    <ele>120.11</ele>
   </trkpt>
   <trkpt lat="39.043760000000006" lon="-77.03591">
    <ele>120.58</ele>
   </trkpt>
   <trkpt lat="39.044050000000006" lon="-77.03626000000001">
    <ele>120.82000000000001</ele>
   </trkpt>
   <trkpt lat="39.04413" lon="-77.03636">
    <ele>120.76</ele>
   </trkpt>
   <trkpt lat="39.044230000000006" lon="-77.03641">
    <ele>120.76</ele>
   </trkpt>
   <trkpt lat="39.04490750000453" lon="-77.03643999913652">
    <ele>121.96000000000001</ele>
   </trkpt>
   <trkpt lat="39.04558500000135" lon="-77.03646999884847">
    <ele>123.72000000000001</ele>
   </trkpt>
   <trkpt lat="39.0462624999905" lon="-77.03649999913588">
    <ele>126.25</ele>
   </trkpt>
   <trkpt lat="39.046940000000006" lon="-77.03653000000001">
    <ele>129.85000000000002</ele>
   </trkpt>
   <trkpt lat="39.0473" lon="-77.03658">
    <ele>130.31</ele>
   </trkpt>
   <trkpt lat="39.047450000000005" lon="-77.03667">
    <ele>130.62</ele>
   </trkpt>
   <trkpt lat="39.047700000000006" lon="-77.03695">
    <ele>129.94</ele>
   </trkpt>
   <trkpt lat="39.0478" lon="-77.03703">
    <ele>129.15</ele>
   </trkpt>
   <trkpt lat="39.04789" lon="-77.03707">
    <ele>128.19</ele>
   </trkpt>
   <trkpt lat="39.047990000000006" lon="-77.03707">
    <ele>127.61</ele>
   </trkpt>
   <trkpt lat="39.04813" lon="-77.03694">
    <ele>126.88000000000002</ele>
   </trkpt>
   <trkpt lat="39.04843" lon="-77.03662">
    <ele>125.81</ele>
   </trkpt>
   <trkpt lat="39.04849" lon="-77.03657000000001">
    <ele>125.81</ele>
   </trkpt>
   <trkpt lat="39.048610000000004" lon="-77.03649">
    <ele>125.99000000000001</ele>
   </trkpt>
   <trkpt lat="39.04907" lon="-77.03632">
    <ele>126.37</ele>
   </trkpt>
   <trkpt lat="39.04921" lon="-77.03623">
    <ele>126.63000000000002</ele>
   </trkpt>
   <trkpt lat="39.0493" lon="-77.03605">
    <ele>126.88000000000002</ele>
   </trkpt>
   <trkpt lat="39.049330000000005" lon="-77.03592">
    <ele>126.88000000000002</ele>
   </trkpt>
   <trkpt lat="39.0493350021227" lon="-77.03521499995935">
    <ele>127.58</ele>
   </trkpt>
   <trkpt lat="39.04934" lon="-77.03451000000001">
    <ele>127.79</ele>
   </trkpt>
   <trkpt lat="39.049960000000006" lon="-77.03452">
    <ele>126.68</ele>
   </trkpt>
   <trkpt lat="39.050050000000006" lon="-77.03448">
    <ele>126.68</ele>
   </trkpt>
   <trkpt lat="39.05066" lon="-77.03444">
    <ele>124.59</ele>
   </trkpt>
   <trkpt lat="39.05127" lon="-77.03452">
    <ele>123.49000000000001</ele>
   </trkpt>
   <trkpt lat="39.05151" lon="-77.03461">
    <ele>123.43</ele>
   </trkpt>
   <trkpt lat="39.05174" lon="-77.03462">
    <ele>123.58000000000001</ele>
   </trkpt>
   <trkpt lat="39.05187" lon="-77.03465000000001">
    <ele>123.2</ele>
   </trkpt>
   <trkpt lat="39.052040000000005" lon="-77.03478000000001">
    <ele>122.26</ele>
   </trkpt>
   <trkpt lat="39.05232" lon="-77.03488">
    <ele>121.86000000000001</ele>
   </trkpt>
   <trkpt lat="39.052640000000004" lon="-77.03489">
    <ele>121.31000000000002</ele>
   </trkpt>
   <trkpt lat="39.0529" lon="-77.03496000000001">
    <ele>120.53000000000002</ele>
   </trkpt>
   <trkpt lat="39.0533" lon="-77.03511">
    <ele>120.14000000000001</ele>
   </trkpt>
   <trkpt lat="39.05333" lon="-77.03524">
    <ele>119.78000000000002</ele>
   </trkpt>
   <trkpt lat="39.05355" lon="-77.03568">
    <ele>118.62</ele>
   </trkpt>
   <trkpt lat="39.053630000000005" lon="-77.03581000000001">
    <ele>118.05000000000001</ele>
   </trkpt>
   <trkpt lat="39.05416" lon="-77.03631">
    <ele>114.73</ele>
   </trkpt>
   <trkpt lat="39.054500000000004" lon="-77.03712">
    <ele>108.55000000000001</ele>
   </trkpt>
   <trkpt lat="39.054640000000006" lon="-77.03733000000001">
    <ele>107.4</ele>
   </trkpt>
   <trkpt lat="39.054905003478936" lon="-77.0382299966921">
    <ele>107.19000000000001</ele>
   </trkpt>
   <trkpt lat="39.055170000000004" lon="-77.03913">
    <ele>106.92000000000002</ele>
   </trkpt>
   <trkpt lat="39.055330000000005" lon="-77.03944000000001">
    <ele>106.68</ele>
   </trkpt>
   <trkpt lat="39.05547" lon="-77.03957000000001">
    <ele>106.8</ele>
   </trkpt>
   <trkpt lat="39.055600000000005" lon="-77.03962">
    <ele>106.94000000000001</ele>
   </trkpt>
   <trkpt lat="39.055730000000004" lon="-77.03958">
    <ele>107.13</ele>
   </trkpt>
   <trkpt lat="39.055800000000005" lon="-77.03948000000001">
    <ele>107.13</ele>
   </trkpt>
   <trkpt lat="39.056140000000006" lon="-77.04021">
    <ele>111.2</ele>
   </trkpt>
   <trkpt lat="39.05615" lon="-77.04048">
    <ele>111.89</ele>
   </trkpt>
   <trkpt lat="39.056020000000004" lon="-77.04155">
    <ele>117.79</ele>
   </trkpt>
   <trkpt lat="39.056000000000004" lon="-77.0416">
    <ele>117.79</ele>
   </trkpt>
   <trkpt lat="39.05585000000001" lon="-77.04183">
    <ele>119.08</ele>
   </trkpt>
   <trkpt lat="39.055820000000004" lon="-77.04214">
    <ele>121.89000000000001</ele>
   </trkpt>
   <trkpt lat="39.05579" lon="-77.04223">
    <ele>121.89000000000001</ele>
   </trkpt>
   <trkpt lat="39.055620000000005" lon="-77.04253">
    <ele>124.12</ele>
   </trkpt>
   <trkpt lat="39.055550000000004" lon="-77.04258">
    <ele>124.12</ele>
   </trkpt>
   <trkpt lat="39.05548" lon="-77.04253">
    <ele>124.12</ele>
   </trkpt>
   <trkpt lat="39.055330000000005" lon="-77.04230000000001">
    <ele>127.28</ele>
   </trkpt>
   <trkpt lat="39.05512" lon="-77.04213">
    <ele>127.96000000000002</ele>
   </trkpt>
   <trkpt lat="39.054970000000004" lon="-77.04213">
    <ele>128.42000000000002</ele>
   </trkpt>
   <trkpt lat="39.0549" lon="-77.04218">
    <ele>129.12</ele>
   </trkpt>
   <trkpt lat="39.05478" lon="-77.04231">
    <ele>130.25</ele>
   </trkpt>
   <trkpt lat="39.05474" lon="-77.04239000000001">
    <ele>130.25</ele>
   </trkpt>
   <trkpt lat="39.05474" lon="-77.04267">
    <ele>131.72</ele>
   </trkpt>
   <trkpt lat="39.054640000000006" lon="-77.04285">
    <ele>132.15</ele>
   </trkpt>
   <trkpt lat="39.05445" lon="-77.04310000000001">
    <ele>132.49</ele>
   </trkpt>
   <trkpt lat="39.05415000119895" lon="-77.04365500257279">
    <ele>132.94</ele>
   </trkpt>
   <trkpt lat="39.053850000000004" lon="-77.04421">
    <ele>134.13</ele>
   </trkpt>
   <trkpt lat="39.05369" lon="-77.04437">
    <ele>134.11</ele>
   </trkpt>
   <trkpt lat="39.05342" lon="-77.04480000000001">
    <ele>134.57000000000002</ele>
   </trkpt>
   <trkpt lat="39.053230000000006" lon="-77.04518">
    <ele>134.02</ele>
   </trkpt>
   <trkpt lat="39.05315" lon="-77.04522">
    <ele>134.02</ele>
   </trkpt>
   <trkpt lat="39.05314001606954" lon="-77.04619000052149">
    <ele>133.34</ele>
   </trkpt>
   <trkpt lat="39.05313002410445" lon="-77.04716000076861">
    <ele>129.66</ele>
   </trkpt>
   <trkpt lat="39.053120024104736" lon="-77.04813000074112">
    <ele>130.33</ele>
   </trkpt>
   <trkpt lat="39.05311001607039" lon="-77.04910000043881">
    <ele>133.22</ele>
   </trkpt>
   <trkpt lat="39.0531" lon="-77.05007">
    <ele>134.10000000000002</ele>
   </trkpt>
   <trkpt lat="39.053070000000005" lon="-77.05074">
    <ele>134.94</ele>
   </trkpt>
   <trkpt lat="39.05315" lon="-77.05106">
    <ele>134.69</ele>
   </trkpt>
   <trkpt lat="39.05321" lon="-77.05141">
    <ele>134.66</ele>
   </trkpt>
   <trkpt lat="39.0529" lon="-77.05149">
    <ele>134.42000000000002</ele>
   </trkpt>
   <trkpt lat="39.05288" lon="-77.0514">
    <ele>134.42000000000002</ele>
   </trkpt>
   <trkpt lat="39.052730000000004" lon="-77.05144">
    <ele>134.15</ele>
   </trkpt>
   <trkpt lat="39.052870000000006" lon="-77.05215000000001">
    <ele>131.01999999999998</ele>
   </trkpt>
   <trkpt lat="39.05357" lon="-77.05198">
    <ele>132.32000000000002</ele>
   </trkpt>
   <trkpt lat="39.05371" lon="-77.05203">
    <ele>132.74</ele>
   </trkpt>
   <trkpt lat="39.05397000000001" lon="-77.05215000000001">
    <ele>134.42000000000002</ele>
   </trkpt>
   <trkpt lat="39.05413" lon="-77.05215000000001">
    <ele>134.78</ele>
   </trkpt>
   <trkpt lat="39.05487500016544" lon="-77.05191500250145">
    <ele>135.11</ele>
   </trkpt>
   <trkpt lat="39.055620000000005" lon="-77.05168">
    <ele>130.59</ele>
   </trkpt>
   <trkpt lat="39.05639" lon="-77.05151000000001">
    <ele>127.23</ele>
   </trkpt>
   <trkpt lat="39.057170000000006" lon="-77.0514">
    <ele>127.51</ele>
   </trkpt>
   <trkpt lat="39.05742" lon="-77.05138000000001">
    <ele>128.19</ele>
   </trkpt>
   <trkpt lat="39.05742" lon="-77.05131">
    <ele>128.37</ele>
   </trkpt>
   <trkpt lat="39.05747" lon="-77.05103000000001">
    <ele>130.39000000000001</ele>
   </trkpt>
   <trkpt lat="39.057480000000005" lon="-77.05082">
    <ele>131.47</ele>
   </trkpt>
   <trkpt lat="39.05756" lon="-77.05046">
    <ele>133.61</ele>
   </trkpt>
   <trkpt lat="39.05756" lon="-77.05023000000001">
    <ele>134.41</ele>
   </trkpt>
   <trkpt lat="39.057680000000005" lon="-77.05023000000001">
    <ele>134.57000000000002</ele>
   </trkpt>
   <trkpt lat="39.05773000000001" lon="-77.05024">
    <ele>134.48000000000002</ele>
   </trkpt>
   <trkpt lat="39.0578" lon="-77.05028">
    <ele>134.47</ele>
   </trkpt>
   <trkpt lat="39.0581" lon="-77.05029">
    <ele>134.53</ele>
   </trkpt>
   <trkpt lat="39.05812" lon="-77.05031000000001">
    <ele>134.62</ele>
   </trkpt>
   <trkpt lat="39.05814" lon="-77.05028">
    <ele>134.62</ele>
   </trkpt>
   <trkpt lat="39.05818" lon="-77.05028">
    <ele>134.62</ele>
   </trkpt>
   <trkpt lat="39.05836" lon="-77.05032">
    <ele>134.6</ele>
   </trkpt>
   <trkpt lat="39.05841" lon="-77.05028">
    <ele>134.6</ele>
   </trkpt>
   <trkpt lat="39.05913" lon="-77.0505">
    <ele>133.59</ele>
   </trkpt>
   <trkpt lat="39.05923000000001" lon="-77.05054000000001">
    <ele>133.44</ele>
   </trkpt>
   <trkpt lat="39.05924" lon="-77.05056">
    <ele>133.44</ele>
   </trkpt>
   <trkpt lat="39.059270000000005" lon="-77.05055">
    <ele>133.44</ele>
   </trkpt>
   <trkpt lat="39.059400000000004" lon="-77.05063000000001">
    <ele>133.48000000000002</ele>
   </trkpt>
   <trkpt lat="39.059490000000004" lon="-77.05082">
    <ele>133.70000000000002</ele>
   </trkpt>
   <trkpt lat="39.059850000000004" lon="-77.05114">
    <ele>134.15</ele>
   </trkpt>
   <trkpt lat="39.05989" lon="-77.05118">
    <ele>134.15</ele>
   </trkpt>
   <trkpt lat="39.06002" lon="-77.05117000000001">
    <ele>134.26000000000002</ele>
   </trkpt>
   <trkpt lat="39.06015" lon="-77.05134000000001">
    <ele>134.65</ele>
   </trkpt>
   <trkpt lat="39.06017000000001" lon="-77.05157000000001">
    <ele>135.59</ele>
   </trkpt>
   <trkpt lat="39.060190000000006" lon="-77.05162">
    <ele>135.59</ele>
   </trkpt>
   <trkpt lat="39.060660000000006" lon="-77.05221">
    <ele>138.40000000000003</ele>
   </trkpt>
   <trkpt lat="39.060700000000004" lon="-77.05229">
    <ele>139.03</ele>
   </trkpt>
   <trkpt lat="39.06076" lon="-77.05261">
    <ele>139.49</ele>
   </trkpt>
   <trkpt lat="39.06091" lon="-77.05279">
    <ele>138.97</ele>
   </trkpt>
   <trkpt lat="39.06096" lon="-77.05282000000001">
    <ele>138.97</ele>
   </trkpt>
   <trkpt lat="39.061020000000006" lon="-77.05283">
    <ele>138.58</ele>
   </trkpt>
   <trkpt lat="39.0611" lon="-77.05279">
    <ele>138.58</ele>
   </trkpt>
   <trkpt lat="39.061220000000006" lon="-77.05266">
    <ele>138.13</ele>
   </trkpt>
   <trkpt lat="39.061370000000004" lon="-77.05288">
    <ele>137.46</ele>
   </trkpt>
   <trkpt lat="39.06143" lon="-77.05293">
    <ele>137.46</ele>
   </trkpt>
   <trkpt lat="39.061930000000004" lon="-77.0536">
    <ele>135.12</ele>
   </trkpt>
  </trkseg>
 </trk>
</gpx>