{"type":"FeatureCollection","features":[{"type":"Feature","geometry":{"type":"Point","coordinates":[-77.227163019584822,38.883632911446448]},"properties":{"NAME":"Dunn Loring-Merrifield","LINE":"orange","ADDRESS":"2700 GALLOWS ROAD, VIENNA, VA","GIS_ID":"MetroStnFullPt_87"}},{"type":"Feature","geometry":{"type":"Point","coordinates":[-77.272624618164727,38.877608896429727]},"properties":{"NAME":"Vienna/Fairfax-GMU","LINE":"orange","ADDRESS":"2900 NUTLEY ST., FAIRFAX, VA","GIS_ID":"MetroStnFullPt_88"}},{"type":"Feature","geometry":{"type":"Point","coordinates":[-77.084998112919138,38.959491669766372]},"properties":{"NAME":"Friendship Heights","LINE":"red","ADDRESS":"5337 WISCONSIN AVENUE NW, WASHINGTON, DC","GIS_ID":"MetroStnFullPt_89"}},{"type":"Feature","geometry":{"type":"Point","coordinates":[-77.059541215532576,38.861890164124183]},"properties":{"NAME":"Pentagon City","LINE":"blue, yellow","ADDRESS":"1250 SOUTH HAYES ST., ARLINGTON, VA","GIS_ID":"MetroStnFullPt_90"}},{"type":"Feature","geometry":{"type":"Point","coordinates":[-77.028134284523574,38.893188656707864]},"properties":{"NAME":"Federal Triangle","LINE":"blue, orange, silver","ADDRESS":"350 12TH STREET NW, WASHINGTON, DC","GIS_ID":"MetroStnFullPt_91"}},{"type":"Feature","geometry":{"type":"Point","coordinates":[-77.360187399370133,38.952775788432071]},"properties":{"NAME":"Reston Town Center","LINE":"silver","ADDRESS":"12023-A SUNSET HILLS RD, RESTON, VA 20190","GIS_ID":"MetroStnFullPt_92"}},{"type":"Feature","geometry":{"type":"Point","coordinates":[-77.385180409381235,38.95282878221893]},"properties":{"NAME":"Herndon","LINE":"silver","ADDRESS":"585-A HERNDON PKY, HERNDON, VA 20170","GIS_ID":"MetroStnFullPt_93"}},{"type":"Feature","geometry":{"type":"Point","coordinates":[-77.41529741726589,38.960765780680454]},"properties":{"NAME":"Innovation Center","LINE":"silver","ADDRESS":"13747-A SUNRISE VALLEY DR, HERNDON, VA 20171","GIS_ID":"MetroStnFullPt_94"}},{"type":"Feature","geometry":{"type":"Point","coordinates":[-77.448150430955721,38.95579178330631]},"properties":{"NAME":"Washington Dulles International Airport","LINE":"silver","ADDRESS":"44920 SAARINEN CIR, DULLES, VA 20166","GIS_ID":"MetroStnFullPt_95"}},{"type":"Feature","geometry":{"type":"Point","coordinates":[-77.46068743533155,38.992047788112892]},"properties":{"NAME":"Loudoun Gateway","LINE":"silver","ADDRESS":"22505-A LOCK RIDGE RD, STERLING, VA 20166","GIS_ID":"MetroStnFullPt_96"}},{"type":"Feature","geometry":{"type":"Point","coordinates":[-77.491539438276121,39.005290792818442]},"properties":{"NAME":"Ashburn","LINE":"silver","ADDRESS":"43625-A CROSON LN, ASHBURN, VA 20147","GIS_ID":"MetroStnFullPt_97"}},{"type":"Feature","geometry":{"type":"Point","coordinates":[-77.046406673931145,38.834013690411389]},"properties":{"NAME":"Potomac Yard","LINE":"blue, yellow","ADDRESS":"2900 POTOMAC GREENS DRIVE, ALEXANDRIA, VA 22314 ","GIS_ID":"MetroStnFullPt_98"}},{"type":"Feature","geometry":{"type":"Point","coordinates":[-76.911466463474113,38.826454124031571]},"properties":{"NAME":"Branch Ave","LINE":"green","ADDRESS":"4704 OLD SOPER ROAD, SUITLAND, MD","GIS_ID":"MetroStnFullPt_35"}},{"type":"Feature","geometry":{"type":"Point","coordinates":[-77.053669863319442,38.814151435238429]},"properties":{"NAME":"Braddock Road","LINE":"blue, yellow","ADDRESS":"700 N. WEST ST., ALEXANDRIA, VA","GIS_ID":"MetroStnFullPt_36"}},{"type":"Feature","geometry":{"type":"Point","coordinates":[-77.060813499566521,38.806593883404894]},"properties":{"NAME":"King St-Old Town","LINE":"blue, yellow","ADDRESS":"1900 KING STREET, ALEXANDRIA, VA","GIS_ID":"MetroStnFullPt_37"}},{"type":"Feature","geometry":{"type":"Point","coordinates":[-77.070876683091768,38.800433214239149]},"properties":{"NAME":"Eisenhower Ave","LINE":"yellow","ADDRESS":"2400 EISENHOWER AVENUE, ALEXANDRIA, VA","GIS_ID":"MetroStnFullPt_38"}},{"type":"Feature","geometry":{"type":"Point","coordinates":[-77.075208083878422,38.793923615968112]},"properties":{"NAME":"Huntington","LINE":"yellow","ADDRESS":"2701 HUNTINGTON AVENUE, ALEXANDRIA, VA","GIS_ID":"MetroStnFullPt_39"}},{"type":"Feature","geometry":{"type":"Point","coordinates":[-76.995373012832104,38.862970896776609]},"properties":{"NAME":"Anacostia","LINE":"green","ADDRESS":"1101 HOWARD ROAD SE, WASHINGTON, DC","GIS_ID":"MetroStnFullPt_40"}},{"type":"Feature","geometry":{"type":"Point","coordinates":[-76.996003402308119,38.884630045165217]},"properties":{"NAME":"Eastern Market","LINE":"blue, orange, silver","ADDRESS":"725 PENNSYLVANIA AVENUE SE, WASHINGTON, DC","GIS_ID":"MetroStnFullPt_41"}},{"type":"Feature","geometry":{"type":"Point","coordinates":[-76.985497591770695,38.88127105766857]},"properties":{"NAME":"Potomac Ave","LINE":"blue, orange, silver","ADDRESS":"1400 POTOMAC AVENUE SE, WASHINGTON, DC","GIS_ID":"MetroStnFullPt_42"}},{"type":"Feature","geometry":{"type":"Point","coordinates":[-76.977091171271226,38.88671687528953]},"properties":{"NAME":"Stadium-Armory","LINE":"blue, orange, silver","ADDRESS":"290 19TH STREET SE, WASHINGTON, DC","GIS_ID":"MetroStnFullPt_43"}},{"type":"Feature","geometry":{"type":"Point","coordinates":[-76.99593919445644,38.921067480859527]},"properties":{"NAME":"Rhode Island Ave-Brentwood","LINE":"red","ADDRESS":"801 RHODE ISLAND AVENUE NE, WASHINGTON, DC","GIS_ID":"MetroStnFullPt_44"}},{"type":"Feature","geometry":{"type":"Point","coordinates":[-76.946749994777903,38.899199012181313]},"properties":{"NAME":"Minnesota Ave","LINE":"orange","ADDRESS":"4120 MINNESOTA AVENUE NE, WASHINGTON, DC","GIS_ID":"MetroStnFullPt_45"}},{"type":"Feature","geometry":{"type":"Point","coordinates":[-77.062988480550672,38.943273081969913]},"properties":{"NAME":"Van Ness-UDC","LINE":"red","ADDRESS":"4230 CONNECTICUT AVENUE NW, WASHINGTON, DC","GIS_ID":"MetroStnFullPt_46"}},{"type":"Feature","geometry":{"type":"Point","coordinates":[-77.058044817105184,38.934770682924885]},"properties":{"NAME":"Cleveland Park","LINE":"red","ADDRESS":"3514 CONNECTICUT AVENUE NW, WASHINGTON, DC","GIS_ID":"MetroStnFullPt_47"}},{"type":"Feature","geometry":{"type":"Point","coordinates":[-77.241560351712437,38.928959627656745]},"properties":{"NAME":"Spring Hill","LINE":"silver","ADDRESS":"1576 SPRING HILL ROAD VIENNA, VA 22182","GIS_ID":"MetroStnFullPt_49"}},{"type":"Feature","geometry":{"type":"Point","coordinates":[-77.233880199547997,38.920963179051263]},"properties":{"NAME":"Greensboro","LINE":"silver","ADDRESS":"8305 LEESBURG PIKE VIENNA, VA 22182","GIS_ID":"MetroStnFullPt_50"}},{"type":"Feature","geometry":{"type":"Point","coordinates":[-77.221718033048305,38.920682054050808]},"properties":{"NAME":"Tysons","LINE":"silver","ADDRESS":"1943 CHAIN BRIDGE ROAD MCLEAN, VA 22102","GIS_ID":"MetroStnFullPt_51"}},{"type":"Feature","geometry":{"type":"Point","coordinates":[-77.210081293205334,38.924529551669941]},"properties":{"NAME":"McLean","LINE":"silver","ADDRESS":"1824 DOLLEY MADISON BOULIVARD MCLEAN, VA 22102","GIS_ID":"MetroStnFullPt_52"}},{"type":"Feature","geometry":{"type":"Point","coordinates":[-76.871843527307774,38.947792657505921]},"properties":{"NAME":"New Carrollton","LINE":"orange","ADDRESS":"4700 GARDEN CITY DRIVE, NEW CARROLLTON, MD","GIS_ID":"MetroStnFullPt_70"}},{"type":"Feature","geometry":{"type":"Point","coordinates":[-76.891200213525238,38.933514032529558]},"properties":{"NAME":"Landover","LINE":"orange","ADDRESS":"3000 PENNSY DRIVE, HYATTSVILLE, MD","GIS_ID":"MetroStnFullPt_71"}},{"type":"Feature","geometry":{"type":"Point","coordinates":[-76.916630296868263,38.916639648388617]},"properties":{"NAME":"Cheverly","LINE":"orange","ADDRESS":"5501 COLUMBIA PARK, CHEVERLY, MD \n","GIS_ID":"MetroStnFullPt_72"}},{"type":"Feature","geometry":{"type":"Point","coordinates":[-77.003022726418308,38.907024000729109]},"properties":{"NAME":"NoMa-Gallaudet U","LINE":"red","ADDRESS":"1301 2ND STREET NE, WASHINGTON, DC","GIS_ID":"MetroStnFullPt_74"}},{"type":"Feature","geometry":{"type":"Point","coordinates":[-77.070910984991926,38.895986880106442]},"properties":{"NAME":"Rosslyn","LINE":"blue, orange, silver","ADDRESS":"1850 N. MOORE STREET, ARLINGTON, VA","GIS_ID":"MetroStnFullPt_75"}},{"type":"Feature","geometry":{"type":"Point","coordinates":[-77.06281242553689,38.884694640371208]},"properties":{"NAME":"Arlington Cemetery","LINE":"blue","ADDRESS":"1000 NORTH MEMORIAL DRIVE, ARLINGTON, VA","GIS_ID":"MetroStnFullPt_76"}},{"type":"Feature","geometry":{"type":"Point","coordinates":[-77.043416651605568,38.909605845165814]},"properties":{"NAME":"Dupont Circle","LINE":"red","ADDRESS":"1525 20TH STREET NW, WASHINGTON, DC","GIS_ID":"MetroStnFullPt_77"}},{"type":"Feature","geometry":{"type":"Point","coordinates":[-77.053717966069172,38.869470480374495]},"properties":{"NAME":"Pentagon","LINE":"blue, yellow","ADDRESS":"2 SOUTH ROTARY ROAD, ARLINGTON, VA","GIS_ID":"MetroStnFullPt_78"}},{"type":"Feature","geometry":{"type":"Point","coordinates":[-77.050292100575447,38.857912097349271]},"properties":{"NAME":"Crystal City","LINE":"blue, yellow","ADDRESS":"1750 SOUTH CLARK ST., ARLINGTON, VA","GIS_ID":"MetroStnFullPt_79"}},{"type":"Feature","geometry":{"type":"Point","coordinates":[-77.00508792929439,38.876488867248852]},"properties":{"NAME":"Navy Yard-Ballpark","LINE":"green","ADDRESS":"1155 NEW JERSEY AVENUE SE, WASHINGTON, DC","GIS_ID":"MetroStnFullPt_80"}},{"type":"Feature","geometry":{"type":"Point","coordinates":[-77.033636460453792,38.901340583179568]},"properties":{"NAME":"McPherson Sq","LINE":"blue, orange, silver","ADDRESS":"1402 I STREET NW, WASHINGTON, DC","GIS_ID":"MetroStnFullPt_81"}},{"type":"Feature","geometry":{"type":"Point","coordinates":[-76.975056405296158,38.841093556640999]},"properties":{"NAME":"Southern Avenue","LINE":"green","ADDRESS":"1411 SOUTHERN AVENUE, TEMPLE HILLS, MD","GIS_ID":"MetroStnFullPt_83"}},{"type":"Feature","geometry":{"type":"Point","coordinates":[-77.07958963107609,38.948859229297142]},"properties":{"NAME":"Tenleytown-AU","LINE":"red","ADDRESS":"4501 WISCONSIN AVENUE NW, WASHINGTON, DC","GIS_ID":"MetroStnFullPt_85"}},{"type":"Feature","geometry":{"type":"Point","coordinates":[-77.189097159278717,38.900788331406986]},"properties":{"NAME":"West Falls Church","LINE":"orange","ADDRESS":"7040 HAYCOCK ROAD, FALLS CHURCH, VA","GIS_ID":"MetroStnFullPt_86"}},{"type":"Feature","geometry":{"type":"Point","coordinates":[-77.340062219286438,38.947740664285128]},"properties":{"NAME":"Wiehle-Reston East","LINE":"silver","ADDRESS":"1862 WIEHLE AVENUE RESTON, VA 20190","GIS_ID":"MetroStnFullPt_53"}},{"type":"Feature","geometry":{"type":"Point","coordinates":[-77.018178986794283,38.976086332994093]},"properties":{"NAME":"Takoma","LINE":"red","ADDRESS":"327 CEDAR STREET NW, WASHINGTON, DC","GIS_ID":"MetroStnFullPt_58"}},{"type":"Feature","geometry":{"type":"Point","coordinates":[-77.053559663734816,39.06179158336699]},"properties":{"NAME":"Glenmont","LINE":"red","ADDRESS":"12501 GEORGIA AVENUE, SILVER SPRING, MD","GIS_ID":"MetroStnFullPt_59"}},{"type":"Feature","geometry":{"type":"Point","coordinates":[-77.050109355332282,39.037534956767026]},"properties":{"NAME":"Wheaton","LINE":"red","ADDRESS":"11171 GEORGIA AVENUE, SILVER SPRING, MD","GIS_ID":"MetroStnFullPt_60"}},{"type":"Feature","geometry":{"type":"Point","coordinates":[-77.042918853073218,39.0149620841024]},"properties":{"NAME":"Forest Glen","LINE":"red","ADDRESS":"9730 GEORGIA AVENUE, FOREST GLEN, MD","GIS_ID":"MetroStnFullPt_61"}},{"type":"Feature","geometry":{"type":"Point","coordinates":[-77.031020119998871,38.993957179812398]},"properties":{"NAME":"Silver Spring","LINE":"red","ADDRESS":"8400 COLESVILLE ROAD, SILVER SPRING, MD","GIS_ID":"MetroStnFullPt_62"}},{"type":"Feature","geometry":{"type":"Point","coordinates":[-76.994536563197386,38.933218785528275]},"properties":{"NAME":"Brookland-CUA","LINE":"red","ADDRESS":"890 MONROE STREET NE, WASHINGTON, DC","GIS_ID":"MetroStnFullPt_63"}},{"type":"Feature","geometry":{"type":"Point","coordinates":[-76.935259041154367,38.908186287849297]},"properties":{"NAME":"Deanwood","LINE":"orange","ADDRESS":"4720 MINNESOTA AVENUE NE, WASHINGTON, DC","GIS_ID":"MetroStnFullPt_69"}},{"type":"Feature","geometry":{"type":"Point","coordinates":[-77.164629676964481,39.119935150311079]},"properties":{"NAME":"Shady Grove","LINE":"red","ADDRESS":"15903 SOMERVILLE DRIVE, DERWOOD, MD","GIS_ID":"MetroStnFullPt_1"}},{"type":"Feature","geometry":{"type":"Point","coordinates":[-77.14612767389842,39.084329426442849]},"properties":{"NAME":"Rockville","LINE":"red","ADDRESS":"251 HUNGERFORD DRIVE, ROCKVILLE, MD","GIS_ID":"MetroStnFullPt_2"}},{"type":"Feature","geometry":{"type":"Point","coordinates":[-77.120820277145768,39.062475467151565]},"properties":{"NAME":"Twinbrook","LINE":"red","ADDRESS":"1600 CHAPMAN AVENUE, ROCKVILLE, MD","GIS_ID":"MetroStnFullPt_3"}},{"type":"Feature","geometry":{"type":"Point","coordinates":[-77.112832181040702,39.048159170201302]},"properties":{"NAME":"North Bethesda","LINE":"red","ADDRESS":"5500 MARINELLI ROAD, ROCKVILLE, MD","GIS_ID":"MetroStnFullPt_4"}},{"type":"Feature","geometry":{"type":"Point","coordinates":[-77.103852038055805,39.029276759445167]},"properties":{"NAME":"Grosvenor-Strathmore","LINE":"red","ADDRESS":"10300 ROCKVILLE PIKE, BETHESDA, MD","GIS_ID":"MetroStnFullPt_5"}},{"type":"Feature","geometry":{"type":"Point","coordinates":[-77.096954604639294,39.000064288152586]},"properties":{"NAME":"Medical Center","LINE":"red","ADDRESS":"8810 ROCKVILLE PIKE, BETHESDA, MD","GIS_ID":"MetroStnFullPt_6"}},{"type":"Feature","geometry":{"type":"Point","coordinates":[-77.094131504479648,38.984401461156097]},"properties":{"NAME":"Bethesda","LINE":"red","ADDRESS":"7450 WISCONSIN AVENUE, BETHESDA, MD","GIS_ID":"MetroStnFullPt_7"}},{"type":"Feature","geometry":{"type":"Point","coordinates":[-77.050280032533095,38.900705794771007]},"properties":{"NAME":"Foggy Bottom-GWU","LINE":"blue, orange, silver","ADDRESS":"890 23RD STREET NW, WASHINGTON, DC","GIS_ID":"MetroStnFullPt_8"}},{"type":"Feature","geometry":{"type":"Point","coordinates":[-77.087133535354013,38.89018331326664]},"properties":{"NAME":"Court House","LINE":"orange, silver","ADDRESS":"2100 WILSON BLVD, ARLINGTON, VA","GIS_ID":"MetroStnFullPt_9"}},{"type":"Feature","geometry":{"type":"Point","coordinates":[-77.095396405018093,38.8867126201147]},"properties":{"NAME":"Clarendon","LINE":"orange, silver","ADDRESS":"3100 WILSON BLVD, ARLINGTON, VA","GIS_ID":"MetroStnFullPt_10"}},{"type":"Feature","geometry":{"type":"Point","coordinates":[-77.156885345742268,38.885960944964268]},"properties":{"NAME":"East Falls Church","LINE":"orange, silver","ADDRESS":"2001 N. SYCAMORE ST., ARLINGTON, VA","GIS_ID":"MetroStnFullPt_11"}},{"type":"Feature","geometry":{"type":"Point","coordinates":[-77.102979603029453,38.883373931887242]},"properties":{"NAME":"Virginia Square-GMU","LINE":"orange, silver","ADDRESS":"3600 FAIRFAX DRIVE, ARLINGTON, VA","GIS_ID":"MetroStnFullPt_12"}},{"type":"Feature","geometry":{"type":"Point","coordinates":[-77.113171146973514,38.882190653275593]},"properties":{"NAME":"Ballston-MU","LINE":"orange, silver","ADDRESS":"4230 FAIRFAX DRIVE, ARLINGTON, VA","GIS_ID":"MetroStnFullPt_13"}},{"type":"Feature","geometry":{"type":"Point","coordinates":[-77.040697705681097,38.901320680204925]},"properties":{"NAME":"Farragut West","LINE":"blue, orange, silver","ADDRESS":"841 17TH STREET NW, WASHINGTON, DC","GIS_ID":"MetroStnFullPt_14"}},{"type":"Feature","geometry":{"type":"Point","coordinates":[-77.039703117578853,38.903209732711467]},"properties":{"NAME":"Farragut North","LINE":"red","ADDRESS":"1720 L STREET NW, WASHINGTON, DC","GIS_ID":"MetroStnFullPt_15"}},{"type":"Feature","geometry":{"type":"Point","coordinates":[-77.052420316427089,38.925092927480087]},"properties":{"NAME":"Woodley Park-Zoo/Adams Morgan","LINE":"red","ADDRESS":"2622 CONNECTICUT AVENUE NW, WASHINGTON, DC","GIS_ID":"MetroStnFullPt_16"}},{"type":"Feature","geometry":{"type":"Point","coordinates":[-77.028068520069084,38.888026485865971]},"properties":{"NAME":"Smithsonian","LINE":"blue, orange, silver","ADDRESS":"1201 JEFFERSON DRIVE SW, WASHINGTON, DC","GIS_ID":"MetroStnFullPt_18"}},{"type":"Feature","geometry":{"type":"Point","coordinates":[-77.021916672210935,38.893673008704532]},"properties":{"NAME":"Archives-Navy Memorial-Penn Quarter","LINE":"green, yellow","ADDRESS":"300 7TH STREET NW, WASHINGTON, DC","GIS_ID":"MetroStnFullPt_19"}},{"type":"Feature","geometry":{"type":"Point","coordinates":[-77.017507490594255,38.876469648772314]},"properties":{"NAME":"Waterfront","LINE":"green","ADDRESS":"399 M STREET SW, WASHINGTON, DC","GIS_ID":"MetroStnFullPt_20"}},{"type":"Feature","geometry":{"type":"Point","coordinates":[-77.044044583032218,38.853424162228634]},"properties":{"NAME":"Ronald Reagan Washington National Airport","LINE":"blue, yellow","ADDRESS":"2400 S. SMITH BLVD., ARLINGTON, VA","GIS_ID":"MetroStnFullPt_21"}},{"type":"Feature","geometry":{"type":"Point","coordinates":[-77.015870498750701,38.885080138819063]},"properties":{"NAME":"Federal Center SW","LINE":"blue, orange, silver","ADDRESS":"401 3RD STREET SW, WASHINGTON, DC","GIS_ID":"MetroStnFullPt_24"}},{"type":"Feature","geometry":{"type":"Point","coordinates":[-77.016641239342846,38.896098103531102]},"properties":{"NAME":"Judiciary Square","LINE":"red","ADDRESS":"435 4TH STREET NW, WASHINGTON, DC","GIS_ID":"MetroStnFullPt_25"}},{"type":"Feature","geometry":{"type":"Point","coordinates":[-77.005141698391597,38.885070284996473]},"properties":{"NAME":"Capitol South","LINE":"blue, orange, silver","ADDRESS":"355 1ST STREET SE, WASHINGTON, DC","GIS_ID":"MetroStnFullPt_26"}},{"type":"Feature","geometry":{"type":"Point","coordinates":[-77.028080283595187,38.898322259103722]},"properties":{"NAME":"Metro Center","LINE":"red, blue, orange, silver","ADDRESS":"607 13TH STREET NW, WASHINGTON, DC","GIS_ID":"MetroStnFullPt_27"}},{"type":"Feature","geometry":{"type":"Point","coordinates":[-77.021917674919479,38.898324595917117]},"properties":{"NAME":"Gallery Pl-Chinatown","LINE":"red, green, yellow","ADDRESS":"625 9TH STREET NW, WASHINGTON, DC","GIS_ID":"MetroStnFullPt_28"}},{"type":"Feature","geometry":{"type":"Point","coordinates":[-77.021916665377219,38.90644460270957]},"properties":{"NAME":"Mt Vernon Sq 7th St-Convention Center","LINE":"green, yellow","ADDRESS":"700 M STREET NW, WASHINGTON, DC","GIS_ID":"MetroStnFullPt_29"}},{"type":"Feature","geometry":{"type":"Point","coordinates":[-77.007416572146312,38.897773825784519]},"properties":{"NAME":"Union Station","LINE":"red","ADDRESS":"605 1ST STREET NE, WASHINGTON, DC","GIS_ID":"MetroStnFullPt_31"}},{"type":"Feature","geometry":{"type":"Point","coordinates":[-76.988514203497985,38.845665479610858]},"properties":{"NAME":"Congress Heights","LINE":"green","ADDRESS":"1300 ALABAMA AVENUE SE, WASHINGTON, DC","GIS_ID":"MetroStnFullPt_32"}},{"type":"Feature","geometry":{"type":"Point","coordinates":[-76.956264970645194,38.851309162659206]},"properties":{"NAME":"Naylor Road","LINE":"green","ADDRESS":"3101 BRANCH AVENUE, TEMPLE HILLS, MD","GIS_ID":"MetroStnFullPt_33"}},{"type":"Feature","geometry":{"type":"Point","coordinates":[-76.931872412103942,38.84397233291179]},"properties":{"NAME":"Suitland","LINE":"green","ADDRESS":"4500 SILVER HILL ROAD, SUITLAND, MD","GIS_ID":"MetroStnFullPt_34"}},{"type":"Feature","geometry":{"type":"Point","coordinates":[-76.93836712615105,38.890983463748661]},"properties":{"NAME":"Benning Road","LINE":"blue, silver","ADDRESS":"4500 CENTRAL AVENUE NE, WASHINGTON, DC","GIS_ID":"MetroStnFullPt_67"}},{"type":"Feature","geometry":{"type":"Point","coordinates":[-76.911059829977731,39.011153673492075]},"properties":{"NAME":"Greenbelt","LINE":"green","ADDRESS":"5717 GREENBELT METRO DRIVE, GREENBELT, MD","GIS_ID":"MetroStnFullPt_84"}},{"type":"Feature","geometry":{"type":"Point","coordinates":[-76.844553870884639,38.900607516533469]},"properties":{"NAME":"Downtown Largo","LINE":"blue, silver","ADDRESS":"9000 LOTTSFORD ROAD, LARGO, MD","GIS_ID":"MetroStnFullPt_73"}},{"type":"Feature","geometry":{"type":"Point","coordinates":[-76.969578946757878,38.955047970224612]},"properties":{"NAME":"West Hyattsville","LINE":"green","ADDRESS":"2700 HAMILTON ST., HYATTSVILLE, MD","GIS_ID":"MetroStnFullPt_66"}},{"type":"Feature","geometry":{"type":"Point","coordinates":[-77.021913986205021,38.913484660341908]},"properties":{"NAME":"Shaw-Howard U","LINE":"green","ADDRESS":"1801 7TH ST NW, WASHINGTON, DC","GIS_ID":"MetroStnFullPt_82"}},{"type":"Feature","geometry":{"type":"Point","coordinates":[-76.911810364184049,38.889473645298985]},"properties":{"NAME":"Capitol Heights","LINE":"blue, silver","ADDRESS":"133 CENTRAL AVENUE, CAPITOL HEIGHTS, MD","GIS_ID":"MetroStnFullPt_55"}},{"type":"Feature","geometry":{"type":"Point","coordinates":[-77.129113835529409,38.799315434162267]},"properties":{"NAME":"Van Dorn Street","LINE":"blue","ADDRESS":"5690 EISENHOWER AVENUE, ALEXANDRIA, VA","GIS_ID":"MetroStnFullPt_22"}},{"type":"Feature","geometry":{"type":"Point","coordinates":[-77.167972502339666,38.766529646761697]},"properties":{"NAME":"Franconia-Springfield","LINE":"blue","ADDRESS":"6880 FRONTIER DRIVE, SPRINGFIELD, VA","GIS_ID":"MetroStnFullPt_23"}},{"type":"Feature","geometry":{"type":"Point","coordinates":[-77.021910767767281,38.884845511314097]},"properties":{"NAME":"L'Enfant Plaza","LINE":"green, yellow, orange, blue, silver","ADDRESS":"600 MARYLAND AVENUE SW, WASHINGTON, DC","GIS_ID":"MetroStnFullPt_17"}},{"type":"Feature","geometry":{"type":"Point","coordinates":[-77.032554407321868,38.927845759198448]},"properties":{"NAME":"Columbia Heights","LINE":"green","ADDRESS":"3030 14TH STREET NW, WASHINGTON, DC","GIS_ID":"MetroStnFullPt_48"}},{"type":"Feature","geometry":{"type":"Point","coordinates":[-76.928127242047566,38.978641439764182]},"properties":{"NAME":"College Park-U of Md","LINE":"green","ADDRESS":"4931 CALVERT ROAD, COLLEGE PARK, MD","GIS_ID":"MetroStnFullPt_54"}},{"type":"Feature","geometry":{"type":"Point","coordinates":[-77.023463191446567,38.937442424092509]},"properties":{"NAME":"Georgia Ave-Petworth","LINE":"green","ADDRESS":"3750 GEORGIA AVENUE NW, WASHINGTON, DC","GIS_ID":"MetroStnFullPt_57"}},{"type":"Feature","geometry":{"type":"Point","coordinates":[-76.955883775900361,38.965393247951866]},"properties":{"NAME":"Hyattsville Crossing","LINE":"green","ADDRESS":"3575 EAST WEST HIGHWAY, HYATTSVILLE, MD","GIS_ID":"MetroStnFullPt_65"}},{"type":"Feature","geometry":{"type":"Point","coordinates":[-77.027498180322638,38.917010188924131]},"properties":{"NAME":"U Street/African-Amer Civil War Memorial/Cardozo","LINE":"green","ADDRESS":"1260 U STREET NW, WASHINGTON, DC","GIS_ID":"MetroStnFullPt_30"}},{"type":"Feature","geometry":{"type":"Point","coordinates":[-76.894110153990141,38.886755605366957]},"properties":{"NAME":"Addison Road-Seat Pleasant","LINE":"blue, silver","ADDRESS":"100 ADDISON ROAD S., CAPITOL HEIGHTS, MD","GIS_ID":"MetroStnFullPt_68"}},{"type":"Feature","geometry":{"type":"Point","coordinates":[-77.002205358432704,38.951854565233383]},"properties":{"NAME":"Fort Totten","LINE":"red, green","ADDRESS":"201 GALLOWAY STREET NE, WASHINGTON, DC","GIS_ID":"MetroStnFullPt_64"}},{"type":"Feature","geometry":{"type":"Point","coordinates":[-76.868077004438859,38.893842719144139]},"properties":{"NAME":"Morgan Boulevard","LINE":"blue, silver","ADDRESS":"300 GARRETT MORGAN BLVD., LANDOVER, MD","GIS_ID":"MetroStnFullPt_56"}}]}