{"type":"FeatureCollection","features":[{"type":"Feature","geometry":{"type":"Point","coordinates":[-77.271288341697826,38.877385698272199]},"properties":{"NAME":"VIENNA/FAIRFAX-GMU","EXIT_TO_ST":"WEST SIDE OF VADEN DR BETWEEN I - 66 W AND I - 66 E","LINE":"orange","DESCRIPTION":"Metro Station Entrance","CAPTUREYEAR":1452229200000,"GIS_ID":"MetroEntFullPt_84"}},{"type":"Feature","geometry":{"type":"Point","coordinates":[-77.168709532141065,38.766072965414239]},"properties":{"NAME":"FRANCONIA-SPRINGFIELD","EXIT_TO_ST":"SOUTH SIDE OF FRANCONIA-SPRINGFIELD PKWY","LINE":"blue","DESCRIPTION":"Metro Station Entrance","CAPTUREYEAR":1452229200000,"GIS_ID":"MetroEntFullPt_85"}},{"type":"Feature","geometry":{"type":"Point","coordinates":[-77.338923490016199,38.948298804024319]},"properties":{"NAME":"WIEHLE-RESTON EAST","EXIT_TO_ST":"WEST SIDE OF WIEHIE AVE ","LINE":"silver","DESCRIPTION":"Metro Station Entrance","CAPTUREYEAR":1452229200000,"GIS_ID":"MetroEntFullPt_90"}},{"type":"Feature","geometry":{"type":"Point","coordinates":[-77.339902396666503,38.946907785269914]},"properties":{"NAME":"WIEHLE-RESTON EAST","EXIT_TO_ST":"WEST SIDE OF WIEHIE AVE ","LINE":"silver","DESCRIPTION":"Metro Station Entrance","CAPTUREYEAR":1452229200000,"GIS_ID":"MetroEntFullPt_91"}},{"type":"Feature","geometry":{"type":"Point","coordinates":[-77.043651748430548,39.015333174268491]},"properties":{"NAME":"FOREST GLEN","EXIT_TO_ST":"SW CORNER OF FOREST GLEN RD AND GEORGIA AVE","LINE":"red","DESCRIPTION":"Metro Station Entrance","CAPTUREYEAR":1452229200000,"GIS_ID":"MetroEntFullPt_92"}},{"type":"Feature","geometry":{"type":"Point","coordinates":[-76.872402242136602,38.948407796070384]},"properties":{"NAME":"NEW CARROLLTON","EXIT_TO_ST":"WEST SIDE OF GARDEN CITY DR ","LINE":"orange","DESCRIPTION":"Metro Station Entrance","CAPTUREYEAR":1452229200000,"GIS_ID":"MetroEntFullPt_94"}},{"type":"Feature","geometry":{"type":"Point","coordinates":[-77.222570681132922,38.920583449240802]},"properties":{"NAME":"TYSONS","EXIT_TO_ST":"NW CORNER OF TYSONS BLVD AND CHAIN BRIDGE RD ","LINE":"silver","DESCRIPTION":"Metro Station Entrance","CAPTUREYEAR":1452229200000,"GIS_ID":"MetroEntFullPt_95"}},{"type":"Feature","geometry":{"type":"Point","coordinates":[-76.868548379860286,38.893771372670095]},"properties":{"NAME":"MORGAN BOULEVARD","EXIT_TO_ST":"GARRET A MORGAN BLVD AND SGT HARTMAN LN","LINE":"blue, silver","DESCRIPTION":"Metro Station Entrance","CAPTUREYEAR":1452229200000,"GIS_ID":"MetroEntFullPt_96"}},{"type":"Feature","geometry":{"type":"Point","coordinates":[-76.934722613499801,38.908267505938959]},"properties":{"NAME":"DEANWOOD","EXIT_TO_ST":"SOUTH SIDE OF POLK STREET NE AT OLIVE STREET NE","LINE":"orange","DESCRIPTION":"Metro Station Entrance","CAPTUREYEAR":1452229200000,"GIS_ID":"MetroEntFullPt_97"}},{"type":"Feature","geometry":{"type":"Point","coordinates":[-77.021544969572872,38.893376243028413]},"properties":{"NAME":"ARCHIVES-NAVY MEMORIAL-PENN QUARTER","EXIT_TO_ST":"NW CORNER OF 7TH STREET NW AND PENNSYLVANIA AVENUE NW","LINE":"green,yellow","DESCRIPTION":"Metro Station Entrance","CAPTUREYEAR":1452229200000,"GIS_ID":"MetroEntFullPt_98"}},{"type":"Feature","geometry":{"type":"Point","coordinates":[-77.02165567567026,38.899640054838414]},"properties":{"NAME":"GALLERY PL-CHINATOWN","EXIT_TO_ST":"SE CORNER OF 7TH STREET NW AND H STREET NW","LINE":"red, green, yellow","DESCRIPTION":"Metro Station Entrance","CAPTUREYEAR":1452229200000,"GIS_ID":"MetroEntFullPt_100"}},{"type":"Feature","geometry":{"type":"Point","coordinates":[-77.023768739563849,38.898055955853287]},"properties":{"NAME":"GALLERY PL-CHINATOWN","EXIT_TO_ST":"SE CORNER OF 9TH STREET NW AND G STREET NW","LINE":"red, green, yellow","DESCRIPTION":"Metro Station Entrance","CAPTUREYEAR":1452229200000,"GIS_ID":"MetroEntFullPt_101"}},{"type":"Feature","geometry":{"type":"Point","coordinates":[-76.968905646641375,38.955724232902512]},"properties":{"NAME":"WEST HYATTSVILLE","EXIT_TO_ST":"WEST SIDE OF JAMESTOWN RD ","LINE":"green","DESCRIPTION":"Metro Station Entrance","CAPTUREYEAR":1452229200000,"GIS_ID":"MetroEntFullPt_102"}},{"type":"Feature","geometry":{"type":"Point","coordinates":[-77.021577489080343,38.886254898941843]},"properties":{"NAME":"L'ENFANT PLAZA","EXIT_TO_ST":"SE CORNER OF 7TH STREET SW AND MARYLAND AVENUE SW","LINE":"green, yellow, orange, blue, silver","DESCRIPTION":"Metro Station Entrance","CAPTUREYEAR":1452229200000,"GIS_ID":"MetroEntFullPt_103"}},{"type":"Feature","geometry":{"type":"Point","coordinates":[-77.491763124560862,39.004422046615275]},"properties":{"NAME":"ASHBURN SOUTH ELEVATOR","EXIT_TO_ST":"SOUTH SIDE OF DULLES TOLL ROAD","LINE":"silver","DESCRIPTION":"Metro Station Elevator","CAPTUREYEAR":1669611600000,"GIS_ID":"MetroEntFullPt_257"}},{"type":"Feature","geometry":{"type":"Point","coordinates":[-77.016037365728195,38.884911497085305]},"properties":{"NAME":"FEDERAL CENTER SW ELEVATOR","EXIT_TO_ST":"D STREET SW BETWEEN 3RD STREET SW AND 4TH STREET SW","LINE":"blue, orange, silver","DESCRIPTION":"Metro Station Elevator","CAPTUREYEAR":1452229200000,"GIS_ID":"MetroEntFullPt_34"}},{"type":"Feature","geometry":{"type":"Point","coordinates":[-77.053365572212982,39.062283800559406]},"properties":{"NAME":"GLENMONT ELEVATOR","EXIT_TO_ST":"EAST SIDE OF GEORGIA AVE ","LINE":"red","DESCRIPTION":"Metro Station Elevator","CAPTUREYEAR":1452229200000,"GIS_ID":"MetroEntFullPt_37"}},{"type":"Feature","geometry":{"type":"Point","coordinates":[-76.946703279116008,38.898818513641196]},"properties":{"NAME":"MINNESOTA AVE ELEVATOR","EXIT_TO_ST":"NW SIDE OF MINNESOTA AVENUE NE","LINE":"orange","DESCRIPTION":"Metro Station Elevator","CAPTUREYEAR":1452229200000,"GIS_ID":"MetroEntFullPt_38"}},{"type":"Feature","geometry":{"type":"Point","coordinates":[-77.004708186378778,38.876625369410931]},"properties":{"NAME":"NAVY YARD-BALLPARK ELEVATOR","EXIT_TO_ST":"NW CORNER OF NEW JERSEY AVENUE SE AND M STREET SE","LINE":"green","DESCRIPTION":"Metro Station Elevator","CAPTUREYEAR":1452229200000,"GIS_ID":"MetroEntFullPt_39"}},{"type":"Feature","geometry":{"type":"Point","coordinates":[-77.050861307018607,38.900842875596361]},"properties":{"NAME":"FOGGY BOTTOM-GWU ELEVATOR","EXIT_TO_ST":"NW CORNER OF 23RD STREET NW AND I STREET NW","LINE":"blue, orange, silver","DESCRIPTION":"Metro Station Elevator","CAPTUREYEAR":1452229200000,"GIS_ID":"MetroEntFullPt_89"}},{"type":"Feature","geometry":{"type":"Point","coordinates":[-76.872181032327987,38.948430633653892]},"properties":{"NAME":"NEW CARROLLTON ELEVATOR","EXIT_TO_ST":"WEST SIDE OF GARDEN CITY DR ","LINE":"orange","DESCRIPTION":"Metro Station Elevator","CAPTUREYEAR":1452229200000,"GIS_ID":"MetroEntFullPt_93"}},{"type":"Feature","geometry":{"type":"Point","coordinates":[-77.094202314727326,38.983607807000787]},"properties":{"NAME":"BETHESDA ELEVATOR","EXIT_TO_ST":"NW CORNER OF MONTGOMERY LN AND MD-355 S ","LINE":"red","DESCRIPTION":"Metro Station Elevator","CAPTUREYEAR":1452229200000,"GIS_ID":"MetroEntFullPt_104"}},{"type":"Feature","geometry":{"type":"Point","coordinates":[-77.071382740839582,38.896150545100383]},"properties":{"NAME":"ROSSLYN ELEVATOR","EXIT_TO_ST":"NORTH SIDE OF WILSON BLVD BETWEEN N MOORE ST AND N LYNN ST ","LINE":"orange, silver, blue","DESCRIPTION":"Metro Station Elevator","CAPTUREYEAR":1452229200000,"GIS_ID":"MetroEntFullPt_108"}},{"type":"Feature","geometry":{"type":"Point","coordinates":[-77.006155932306555,38.885199109868047]},"properties":{"NAME":"CAPITOL SOUTH ELEVATOR","EXIT_TO_ST":"WEST SIDE OF 1ST STREET SE BETWEEN C STREET SE AND D STREET SE","LINE":"blue, orange, silver","DESCRIPTION":"Metro Station Elevator","CAPTUREYEAR":1452229200000,"GIS_ID":"MetroEntFullPt_130"}},{"type":"Feature","geometry":{"type":"Point","coordinates":[-77.053843366509767,38.869598315011395]},"properties":{"NAME":"PENTAGON ELEVATOR","EXIT_TO_ST":"NW CORNER OF N ROTARY RD AND S EADS ST","LINE":"blue, yellow","DESCRIPTION":"Metro Station Elevator","CAPTUREYEAR":1452229200000,"GIS_ID":"MetroEntFullPt_214"}},{"type":"Feature","geometry":{"type":"Point","coordinates":[-77.079278024555151,38.94810798814332]},"properties":{"NAME":"TENLEYTOWN-AU ELEVATOR","EXIT_TO_ST":"NE CORNER OF ABLEMARLE STREET NW AND WISCONSIN AVENUE NW","LINE":"red","DESCRIPTION":"Metro Station Elevator","CAPTUREYEAR":1452229200000,"GIS_ID":"MetroEntFullPt_215"}},{"type":"Feature","geometry":{"type":"Point","coordinates":[-77.044569712638079,38.91079532324855]},"properties":{"NAME":"DUPONT CIRCLE ELEVATOR","EXIT_TO_ST":"SE CORNER OF 20TH STREET NW AND Q STREET NW","LINE":"red","DESCRIPTION":"Metro Station Elevator","CAPTUREYEAR":1452229200000,"GIS_ID":"MetroEntFullPt_216"}},{"type":"Feature","geometry":{"type":"Point","coordinates":[-77.052886613394904,38.925453005147375]},"properties":{"NAME":"WOODLEY PARK-ZOO/ADAMS MORGAN ELEVATOR","EXIT_TO_ST":"SW CORNER OF CONNECTICUT AVENUE NW AND WOODLEY STREET NW","LINE":"red","DESCRIPTION":"Metro Station Elevator","CAPTUREYEAR":1452229200000,"GIS_ID":"MetroEntFullPt_217"}},{"type":"Feature","geometry":{"type":"Point","coordinates":[-77.063589016072356,38.94397332248694]},"properties":{"NAME":"VAN NESS | UDC ELEVATOR","EXIT_TO_ST":"SW CORNER OF CONNECTICUT AVENUE AND VEAZEY STREET NW","LINE":"red","DESCRIPTION":"Metro Station Elevator","CAPTUREYEAR":1452229200000,"GIS_ID":"MetroEntFullPt_218"}},{"type":"Feature","geometry":{"type":"Point","coordinates":[-77.085202056584095,38.960226118125867]},"properties":{"NAME":"FRIENDSHIP HEIGHTS ELEVATOR","EXIT_TO_ST":"EAST SIDE OF WISCONSIN AVENUE NW BETWEEN JENIFER STREET NW AND WESTERN AVENUE NW","LINE":"red","DESCRIPTION":"Metro Station Elevator","CAPTUREYEAR":1452229200000,"GIS_ID":"MetroEntFullPt_219"}},{"type":"Feature","geometry":{"type":"Point","coordinates":[-77.165009456215458,39.120084094154684]},"properties":{"NAME":"SHADY GROVE ELEVATOR","EXIT_TO_ST":"NE CORNER OF REDLAND RD AND SOMERVILLE DR ","LINE":"red","DESCRIPTION":"Metro Station Elevator","CAPTUREYEAR":1452229200000,"GIS_ID":"MetroEntFullPt_220"}},{"type":"Feature","geometry":{"type":"Point","coordinates":[-77.058425662339388,38.935782251766078]},"properties":{"NAME":"CLEVELAND PARK ELEVATOR","EXIT_TO_ST":"EAST SIDE OF CONNECTICUT AVENUE NW BETWEEN PORTER STREET NW AND ORDWAY STREET NW","LINE":"red","DESCRIPTION":"Metro Station Elevator","CAPTUREYEAR":1452229200000,"GIS_ID":"MetroEntFullPt_225"}},{"type":"Feature","geometry":{"type":"Point","coordinates":[-77.022077193002602,38.893875090275927]},"properties":{"NAME":"ARCHIVES-NAVY MEMORIAL-PENN QUARTER ELEVATOR","EXIT_TO_ST":"SW CORNER OF 7TH STREET NW AND INDIANA AVENUE NW","LINE":"green,yellow","DESCRIPTION":"Metro Station Elevator","CAPTUREYEAR":1452229200000,"GIS_ID":"MetroEntFullPt_232"}},{"type":"Feature","geometry":{"type":"Point","coordinates":[-77.360879074336978,38.95225553160531]},"properties":{"NAME":"RESTON TOWN CENTER SOUTH ELEVATOR","EXIT_TO_ST":"SOUTH SIDE OF DULLES TOLL ROAD","LINE":"silver","DESCRIPTION":"Metro Station Elevator","CAPTUREYEAR":1669611600000,"GIS_ID":"MetroEntFullPt_234"}},{"type":"Feature","geometry":{"type":"Point","coordinates":[-77.360132983857198,38.953504938027862]},"properties":{"NAME":"RESTON TOWN CENTER NORTH ELEVATOR","EXIT_TO_ST":"NORTH SIDE OF DULLES TOLL ROAD NORTH ELEVATOR","LINE":"silver","DESCRIPTION":"Metro Station Elevator","CAPTUREYEAR":1669611600000,"GIS_ID":"MetroEntFullPt_237"}},{"type":"Feature","geometry":{"type":"Point","coordinates":[-77.38491603985058,38.951764316185525]},"properties":{"NAME":"HERNDON SOUTH ELEVATOR","EXIT_TO_ST":"SOUTH SIDE OF DULLES TOLL ROAD","LINE":"silver","DESCRIPTION":"Metro Station Elevator","CAPTUREYEAR":1669611600000,"GIS_ID":"MetroEntFullPt_239"}},{"type":"Feature","geometry":{"type":"Point","coordinates":[-77.384750562920019,38.951542967135218]},"properties":{"NAME":"HERNDON SOUTH ELEVATOR","EXIT_TO_ST":"SOUTH SIDE OF DULLES TOLL ROAD","LINE":"silver","DESCRIPTION":"Metro Station Elevator","CAPTUREYEAR":1669611600000,"GIS_ID":"MetroEntFullPt_240"}},{"type":"Feature","geometry":{"type":"Point","coordinates":[-77.384877832072732,38.9535444562176]},"properties":{"NAME":"HERNDON NORTH ELEVATOR","EXIT_TO_ST":"NORTH SIDE OF DULLES TOLL ROAD","LINE":"silver","DESCRIPTION":"Metro Station Elevator","CAPTUREYEAR":1669611600000,"GIS_ID":"MetroEntFullPt_242"}},{"type":"Feature","geometry":{"type":"Point","coordinates":[-77.417259041173864,38.960013094416709]},"properties":{"NAME":"INNOVATION CENTER SOUTH ELEVATOR","EXIT_TO_ST":"SOUTH SIDE OF DULLES TOLL ROAD","LINE":"silver","DESCRIPTION":"Metro Station Elevator","CAPTUREYEAR":1669611600000,"GIS_ID":"MetroEntFullPt_245"}},{"type":"Feature","geometry":{"type":"Point","coordinates":[-77.459979760903053,38.992871221397834]},"properties":{"NAME":"LOUDOUN GATEWAY NORTH ELEVATOR","EXIT_TO_ST":"NORTH SIDE OF DULLES TOLL ROAD","LINE":"silver","DESCRIPTION":"Metro Station Elevator","CAPTUREYEAR":1669611600000,"GIS_ID":"MetroEntFullPt_253"}},{"type":"Feature","geometry":{"type":"Point","coordinates":[-77.45928169548084,38.992893998756813]},"properties":{"NAME":"LOUDOUN GATEWAY NORTH ELEVATOR","EXIT_TO_ST":"NORTH SIDE OF DULLES TOLL ROAD","LINE":"silver","DESCRIPTION":"Metro Station Elevator","CAPTUREYEAR":1669611600000,"GIS_ID":"MetroEntFullPt_254"}},{"type":"Feature","geometry":{"type":"Point","coordinates":[-77.490095679599179,39.004867081319126]},"properties":{"NAME":"ASHBURN NORTH ELEVATOR","EXIT_TO_ST":"NORTH SIDE OF DULLES TOLL ROAD","LINE":"silver","DESCRIPTION":"Metro Station Elevator","CAPTUREYEAR":1669611600000,"GIS_ID":"MetroEntFullPt_256"}},{"type":"Feature","geometry":{"type":"Point","coordinates":[-77.017357506544485,38.876636173374671]},"properties":{"NAME":"WATERFRONT ELEVATOR","EXIT_TO_ST":"NE CORNER OF M STREET SW AND 4TH STREET SW","LINE":"green","DESCRIPTION":"Metro Station Elevator","CAPTUREYEAR":1452229200000,"GIS_ID":"MetroEntFullPt_44"}},{"type":"Feature","geometry":{"type":"Point","coordinates":[-76.99444384930959,38.933753910494204]},"properties":{"NAME":"BROOKLAND-CUA ELEVATOR","EXIT_TO_ST":"NW CORNER OF BUS BAY AND BUNKER HILL RD NE","LINE":"red","DESCRIPTION":"Metro Station Elevator","CAPTUREYEAR":1452229200000,"GIS_ID":"MetroEntFullPt_49"}},{"type":"Feature","geometry":{"type":"Point","coordinates":[-77.222568574321912,38.920662150227145]},"properties":{"NAME":"TYSONS ELEVATOR","EXIT_TO_ST":"NW CORNER OF TYSONS BLVD AND CHAIN BRIDGE RD ","LINE":"silver","DESCRIPTION":"Metro Station Elevator","CAPTUREYEAR":1452229200000,"GIS_ID":"MetroEntFullPt_50"}},{"type":"Feature","geometry":{"type":"Point","coordinates":[-77.053613706973536,39.061964666612425]},"properties":{"NAME":"GLENMONT ELEVATOR","EXIT_TO_ST":"WEST SIDE OF GEORGIA AVE ","LINE":"red","DESCRIPTION":"Metro Station Elevator","CAPTUREYEAR":1452229200000,"GIS_ID":"MetroEntFullPt_52"}},{"type":"Feature","geometry":{"type":"Point","coordinates":[-77.017464555114969,38.896827057427089]},"properties":{"NAME":"JUDICIARY SQUARE NE ELEVATOR","EXIT_TO_ST":"SOUTH SIDE OF F STREET NW BETWEEN 4TH STREET NW AND 5TH STREET NW","LINE":"red","DESCRIPTION":"Metro Station Elevator","CAPTUREYEAR":1452229200000,"GIS_ID":"MetroEntFullPt_53"}},{"type":"Feature","geometry":{"type":"Point","coordinates":[-77.017649130987152,38.896665536711801]},"properties":{"NAME":"JUDICIARY SQUARE SW ELEVATOR","EXIT_TO_ST":"SOUTH SIDE OF F STREET NW BETWEEN 4TH STREET NW AND 5TH STREET NW","LINE":"red","DESCRIPTION":"Metro Station Elevator","CAPTUREYEAR":1452229200000,"GIS_ID":"MetroEntFullPt_54"}},{"type":"Feature","geometry":{"type":"Point","coordinates":[-77.222012274511911,38.919782560792356]},"properties":{"NAME":"TYSONS ELEVATOR","EXIT_TO_ST":"SW CORNER OF TYSONS BLVD AND CHAIN BRIDGE RD ","LINE":"silver","DESCRIPTION":"Metro Station Elevator","CAPTUREYEAR":1452229200000,"GIS_ID":"MetroEntFullPt_57"}},{"type":"Feature","geometry":{"type":"Point","coordinates":[-77.241007419064601,38.92915798887401]},"properties":{"NAME":"SPRING HILL ELEVATOR","EXIT_TO_ST":"WESTBOUND LEESBURG PIKE","LINE":"silver","DESCRIPTION":"Metro Station Elevator","CAPTUREYEAR":1452229200000,"GIS_ID":"MetroEntFullPt_58"}},{"type":"Feature","geometry":{"type":"Point","coordinates":[-77.340160735749905,38.947000702593918]},"properties":{"NAME":"WIEHLE-RESTON EAST ELEVATOR","EXIT_TO_ST":"WEST SIDE OF WIEHIE AVE ","LINE":"silver","DESCRIPTION":"Metro Station Elevator","CAPTUREYEAR":1452229200000,"GIS_ID":"MetroEntFullPt_59"}},{"type":"Feature","geometry":{"type":"Point","coordinates":[-76.996040455047378,38.884258153265819]},"properties":{"NAME":"EASTERN MARKET ELEVATOR","EXIT_TO_ST":"SOUTH SIDE OF PENNSYLVANIA AVENUE SE BETWEEN 7TH STREET SE AND 8TH STREET SE","LINE":"blue, orange, silver","DESCRIPTION":"Metro Station Elevator","CAPTUREYEAR":1452229200000,"GIS_ID":"MetroEntFullPt_64"}},{"type":"Feature","geometry":{"type":"Point","coordinates":[-77.085002305667231,38.891707786120328]},"properties":{"NAME":"COURT HOUSE ELEVATOR","EXIT_TO_ST":"NW CORNER OF N UHLE ST AND WILSON BLVD","LINE":"orange, silver","DESCRIPTION":"Metro Station Elevator","CAPTUREYEAR":1452229200000,"GIS_ID":"MetroEntFullPt_66"}},{"type":"Feature","geometry":{"type":"Point","coordinates":[-77.022369725533693,38.905512008386367]},"properties":{"NAME":"MT VERNON SQ 7TH ST-CONVENTION CENTER ELEV","EXIT_TO_ST":"SW CORNER OF 7TH STREET NW AND M STREET NW","LINE":"green, yellow","DESCRIPTION":"Metro Station Elevator","CAPTUREYEAR":1452229200000,"GIS_ID":"MetroEntFullPt_68"}},{"type":"Feature","geometry":{"type":"Point","coordinates":[-77.103300533185987,38.883025149792644]},"properties":{"NAME":"VIRGINIA SQUARE-GMU ELEVATOR","EXIT_TO_ST":"SOUTH SIDE OF N FAIRFAX DR BETWEEN N NELSON ST AND N MONROE ST ","LINE":"orange, silver","DESCRIPTION":"Metro Station Elevator","CAPTUREYEAR":1452229200000,"GIS_ID":"MetroEntFullPt_70"}},{"type":"Feature","geometry":{"type":"Point","coordinates":[-77.112101901228868,38.882061729362626]},"properties":{"NAME":"BALLSTON-MU ELEVATOR","EXIT_TO_ST":"SW CORNER OF N FAIRFAX DR AND N STUART ST ","LINE":"orange, silver","DESCRIPTION":"Metro Station Elevator","CAPTUREYEAR":1452229200000,"GIS_ID":"MetroEntFullPt_74"}},{"type":"Feature","geometry":{"type":"Point","coordinates":[-77.095707573288266,38.886737931352641]},"properties":{"NAME":"CLARENDON ELEVATOR","EXIT_TO_ST":"WEST SIDE OF N HIGHLAND ST BETWEEN WILSON BLVD AND CLARENDON BLVD","LINE":"orange, silver","DESCRIPTION":"Metro Station Elevator","CAPTUREYEAR":1452229200000,"GIS_ID":"MetroEntFullPt_76"}},{"type":"Feature","geometry":{"type":"Point","coordinates":[-76.937547578047983,38.890558454638501]},"properties":{"NAME":"BENNING ROAD ELEVATOR","EXIT_TO_ST":"NE CORNER OF BENNING ROAD NE AND CENTRAL AVENUE NE","LINE":"blue, silver","DESCRIPTION":"Metro Station Elevator","CAPTUREYEAR":1452229200000,"GIS_ID":"MetroEntFullPt_77"}},{"type":"Feature","geometry":{"type":"Point","coordinates":[-77.086102306514803,38.89050778510385]},"properties":{"NAME":"COURT HOUSE ELEVATOR","EXIT_TO_ST":"SE CORNER OF CLARENDON BLVD AND 15TH ST N","LINE":"orange, silver","DESCRIPTION":"Metro Station Elevator","CAPTUREYEAR":1452229200000,"GIS_ID":"MetroEntFullPt_78"}},{"type":"Feature","geometry":{"type":"Point","coordinates":[-77.084902303590994,38.890607782711839]},"properties":{"NAME":"COURT HOUSE ELEVATOR","EXIT_TO_ST":"SE CORNER OF 15TH ST N AND N UHLE ST","LINE":"orange, silver","DESCRIPTION":"Metro Station Elevator","CAPTUREYEAR":1452229200000,"GIS_ID":"MetroEntFullPt_79"}},{"type":"Feature","geometry":{"type":"Point","coordinates":[-76.912902257668506,38.889407793533408]},"properties":{"NAME":"CAPITOL HEIGHTS ELEVATOR","EXIT_TO_ST":"NORTH SIDE OF DAVEY ST BETWEEN SOUTHERN AVE AND EAST CAPITOL ST ","LINE":"silver, blue","DESCRIPTION":"Metro Station Elevator","CAPTUREYEAR":1452229200000,"GIS_ID":"MetroEntFullPt_2"}},{"type":"Feature","geometry":{"type":"Point","coordinates":[-77.233132140406823,38.920958782369617]},"properties":{"NAME":"GREENSBORO ELEVATOR","EXIT_TO_ST":"NORTH SIDE OF VA-7 W AND LEESBURG PIKE","LINE":"silver","DESCRIPTION":"Metro Station Elevator","CAPTUREYEAR":1452229200000,"GIS_ID":"MetroEntFullPt_16"}},{"type":"Feature","geometry":{"type":"Point","coordinates":[-76.916524596878347,38.916262141619498]},"properties":{"NAME":"CHEVERLY ELEVATOR","EXIT_TO_ST":"SW CORNER OF JOHN HANSON HWY AND COLUMBIA PARK RD","LINE":"orange","DESCRIPTION":"Metro Station Elevator","CAPTUREYEAR":1452229200000,"GIS_ID":"MetroEntFullPt_19"}},{"type":"Feature","geometry":{"type":"Point","coordinates":[-76.928744854350825,38.978364580444897]},"properties":{"NAME":"COLLEGE PARK-U OF MD ELEVATOR","EXIT_TO_ST":"NORTH SIDE OF CALVERT RD BETWEEN COLUMBIA AVE AND PAINT BRANCH PKY","LINE":"green","DESCRIPTION":"Metro Station Elevator","CAPTUREYEAR":1452229200000,"GIS_ID":"MetroEntFullPt_29"}},{"type":"Feature","geometry":{"type":"Point","coordinates":[-76.928021190685286,38.978140544083672]},"properties":{"NAME":"COLLEGE PARK-U OF MD ELEVATOR","EXIT_TO_ST":"WEST SIDE OF RIVER RD BETWEEN COLUMBIA AVE AND PAINT BRANCH PKY","LINE":"green","DESCRIPTION":"Metro Station Elevator","CAPTUREYEAR":1452229200000,"GIS_ID":"MetroEntFullPt_30"}},{"type":"Feature","geometry":{"type":"Point","coordinates":[-76.987807442682254,38.845115559523357]},"properties":{"NAME":"CONGRESS HEIGHTS ELEVATOR","EXIT_TO_ST":"NORTH SIDE OF ALABAMA AVENUE SE AT 13TH STREET SE","LINE":"green","DESCRIPTION":"Metro Station Elevator","CAPTUREYEAR":1452229200000,"GIS_ID":"MetroEntFullPt_32"}},{"type":"Feature","geometry":{"type":"Point","coordinates":[-76.934847535562497,38.908204877553665]},"properties":{"NAME":"DEANWOOD ELEVATOR","EXIT_TO_ST":"SOUTH SIDE OF POLK STREET NE AT OLIVE STREET NE","LINE":"orange","DESCRIPTION":"Metro Station Elevator","CAPTUREYEAR":1452229200000,"GIS_ID":"MetroEntFullPt_33"}},{"type":"Feature","geometry":{"type":"Point","coordinates":[-77.022110736872634,38.885989979778806]},"properties":{"NAME":"L'ENFANT PLAZA ELEVATOR","EXIT_TO_ST":"SW CORNER OF 7TH STREET SW AND MARYLAND AVENUE SW","LINE":"green, yellow, orange, blue, silver","DESCRIPTION":"Metro Station Elevator","CAPTUREYEAR":1452229200000,"GIS_ID":"MetroEntFullPt_132"}},{"type":"Feature","geometry":{"type":"Point","coordinates":[-77.028548595699036,38.887755586610133]},"properties":{"NAME":"SMITHSONIAN ELEVATOR","EXIT_TO_ST":"NW CORNER OF INDEPENDENCE AVENUE SW AND 12TH STREET SW","LINE":"blue, orange, silver","DESCRIPTION":"Metro Station Elevator","CAPTUREYEAR":1452229200000,"GIS_ID":"MetroEntFullPt_134"}},{"type":"Feature","geometry":{"type":"Point","coordinates":[-77.097121848284388,38.999056709363607]},"properties":{"NAME":"MEDICAL CENTER ELEVATOR","EXIT_TO_ST":"SW SIDE OF SOUTH DR AND ROCKVILLE PIKE ","LINE":"red","DESCRIPTION":"Metro Station Elevator","CAPTUREYEAR":1452229200000,"GIS_ID":"MetroEntFullPt_139"}},{"type":"Feature","geometry":{"type":"Point","coordinates":[-77.112124260440382,38.882399180404768]},"properties":{"NAME":"BALLSTON-MU ELEVATOR","EXIT_TO_ST":"NW CORNER OF N FAIRFAX DR AND N STUART ST ","LINE":"orange, silver","DESCRIPTION":"Metro Station Elevator","CAPTUREYEAR":1452229200000,"GIS_ID":"MetroEntFullPt_142"}},{"type":"Feature","geometry":{"type":"Point","coordinates":[-77.11213974685208,38.882352844368711]},"properties":{"NAME":"BALLSTON-MU ELEVATOR","EXIT_TO_ST":"NW CORNER OF N FAIRFAX DR AND N STUART ST ","LINE":"orange, silver","DESCRIPTION":"Metro Station Elevator","CAPTUREYEAR":1452229200000,"GIS_ID":"MetroEntFullPt_143"}},{"type":"Feature","geometry":{"type":"Point","coordinates":[-77.085019217720088,38.958526220729709]},"properties":{"NAME":"FRIENDSHIP HEIGHTS ELEVATOR","EXIT_TO_ST":"WEST SIDE OF WISCONSIN AVENUE NW BETWEEN JENIFER STREET NW AND INGOMAR STREET NW","LINE":"red","DESCRIPTION":"Metro Station Elevator","CAPTUREYEAR":1452229200000,"GIS_ID":"MetroEntFullPt_147"}},{"type":"Feature","geometry":{"type":"Point","coordinates":[-77.028322926582462,38.893772209436783]},"properties":{"NAME":"FEDERAL TRIANGLE ELEVATOR","EXIT_TO_ST":"RONALD REAGAN BUILDING - WEST SIDE OF 12TH STREET NW BETWEEN PENNSYLVANIA AVENUE NW AND CONSTITUTION AVENUE NW","LINE":"blue, orange, silver","DESCRIPTION":"Metro Station Elevator","CAPTUREYEAR":1452229200000,"GIS_ID":"MetroEntFullPt_149"}},{"type":"Feature","geometry":{"type":"Point","coordinates":[-77.017991560691598,38.975779226377952]},"properties":{"NAME":"TAKOMA ELEVATOR","EXIT_TO_ST":"NE SIDE OF CEDAR STREET NW AND BLAIR ROAD NW","LINE":"red","DESCRIPTION":"Metro Station Elevator","CAPTUREYEAR":1452229200000,"GIS_ID":"MetroEntFullPt_163"}},{"type":"Feature","geometry":{"type":"Point","coordinates":[-77.129687063175581,38.799715578249092]},"properties":{"NAME":"VAN DORN STREET","EXIT_TO_ST":"NW CORNER OF EISENHOWER AVE ","LINE":"blue","DESCRIPTION":"Metro Station Entrance","CAPTUREYEAR":1452229200000,"GIS_ID":"MetroEntFullPt_42"}},{"type":"Feature","geometry":{"type":"Point","coordinates":[-77.103283458061242,38.882837934449682]},"properties":{"NAME":"VIRGINIA SQUARE-GMU","EXIT_TO_ST":"SOUTHWEST CORNER OF N FAIRFAX DR AND N MONROE ST ","LINE":"orange, silver","DESCRIPTION":"Metro Station Entrance","CAPTUREYEAR":1452229200000,"GIS_ID":"MetroEntFullPt_43"}},{"type":"Feature","geometry":{"type":"Point","coordinates":[-76.87180224077602,38.947907801227835]},"properties":{"NAME":"NEW CARROLLTON","EXIT_TO_ST":"WEST SIDE OF GARDEN CITY DR ","LINE":"orange","DESCRIPTION":"Metro Station Entrance","CAPTUREYEAR":1452229200000,"GIS_ID":"MetroEntFullPt_45"}},{"type":"Feature","geometry":{"type":"Point","coordinates":[-77.003828521869508,38.905717640226868]},"properties":{"NAME":"NOMA-GALLAUDET U","EXIT_TO_ST":"NORTH SIDE OF M STREET NE AT INTERSECTION WITH DELAWARE AVENUE NE","LINE":"red","DESCRIPTION":"Metro Station Entrance","CAPTUREYEAR":1452229200000,"GIS_ID":"MetroEntFullPt_51"}},{"type":"Feature","geometry":{"type":"Point","coordinates":[-77.075202303624977,38.79480776074017]},"properties":{"NAME":"HUNTINGTON","EXIT_TO_ST":"THE CLOSEST EXIT TO HUNTINGTON AVE","LINE":"yellow","DESCRIPTION":"Metro Station Entrance","CAPTUREYEAR":1452229200000,"GIS_ID":"MetroEntFullPt_55"}},{"type":"Feature","geometry":{"type":"Point","coordinates":[-76.995815290224726,38.884252866505676]},"properties":{"NAME":"EASTERN MARKET","EXIT_TO_ST":"SOUTH SIDE OF PENNSYLVANIA AVENUE SE BETWEEN 7TH STREET SE AND 8TH STREET SE","LINE":"blue, orange, silver","DESCRIPTION":"Metro Station Entrance","CAPTUREYEAR":1452229200000,"GIS_ID":"MetroEntFullPt_56"}},{"type":"Feature","geometry":{"type":"Point","coordinates":[-77.026671889954258,38.898434770322417]},"properties":{"NAME":"METRO CENTER","EXIT_TO_ST":"NE CORNER OF G STREET NW AND 11TH STREET NW","LINE":"red, blue, orange, silver","DESCRIPTION":"Metro Station Entrance","CAPTUREYEAR":1452229200000,"GIS_ID":"MetroEntFullPt_60"}},{"type":"Feature","geometry":{"type":"Point","coordinates":[-77.029407507592666,38.898440194310396]},"properties":{"NAME":"METRO CENTER","EXIT_TO_ST":"NE CORNER OF G STREET NW AND 13TH STREET NW","LINE":"red, blue, orange, silver","DESCRIPTION":"Metro Station Entrance","CAPTUREYEAR":1452229200000,"GIS_ID":"MetroEntFullPt_61"}},{"type":"Feature","geometry":{"type":"Point","coordinates":[-77.028233754898679,38.898992237116801]},"properties":{"NAME":"METRO CENTER","EXIT_TO_ST":"12TH STREET BETWEEN G ST NW AND H ST NW","LINE":"red, blue, orange, silver","DESCRIPTION":"Metro Station Entrance","CAPTUREYEAR":1452229200000,"GIS_ID":"MetroEntFullPt_62"}},{"type":"Feature","geometry":{"type":"Point","coordinates":[-77.222402357565215,38.919807781104701]},"properties":{"NAME":"TYSONS","EXIT_TO_ST":"SW CORNER OF TYSONS BLVD AND CHAIN BRIDGE RD ","LINE":"silver","DESCRIPTION":"Metro Station Entrance","CAPTUREYEAR":1452229200000,"GIS_ID":"MetroEntFullPt_63"}},{"type":"Feature","geometry":{"type":"Point","coordinates":[-77.240802361661721,38.929307787904953]},"properties":{"NAME":"SPRING HILL","EXIT_TO_ST":"WESTBOUND LEESBURG PIKE","LINE":"silver","DESCRIPTION":"Metro Station Entrance","CAPTUREYEAR":1452229200000,"GIS_ID":"MetroEntFullPt_65"}},{"type":"Feature","geometry":{"type":"Point","coordinates":[-77.063343593723388,38.884726405340267]},"properties":{"NAME":"ARLINGTON CEMETERY ELEVATOR","EXIT_TO_ST":"NW CORNER OF MEMORIAL AVE AND JEFFERSON DAVIS HWY","LINE":"blue","DESCRIPTION":"Metro Station Elevator","CAPTUREYEAR":1452229200000,"GIS_ID":"MetroEntFullPt_170"}},{"type":"Feature","geometry":{"type":"Point","coordinates":[-77.063080328753003,38.884824171711777]},"properties":{"NAME":"ARLINGTON CEMETERY ELEVATOR","EXIT_TO_ST":"NW CORNER OF MEMORIAL AVE AND JEFFERSON DAVIS HWY","LINE":"blue","DESCRIPTION":"Metro Station Elevator","CAPTUREYEAR":1452229200000,"GIS_ID":"MetroEntFullPt_171"}},{"type":"Feature","geometry":{"type":"Point","coordinates":[-76.985108154843331,38.881057104440934]},"properties":{"NAME":"POTOMAC AVE ELEVATOR","EXIT_TO_ST":"SE CORNER OF 14TH STREET SE ANDG STREET SE","LINE":"blue, orange, silver","DESCRIPTION":"Metro Station Elevator","CAPTUREYEAR":1452229200000,"GIS_ID":"MetroEntFullPt_174"}},{"type":"Feature","geometry":{"type":"Point","coordinates":[-77.058969543614182,38.862817465813855]},"properties":{"NAME":"PENTAGON CITY ELEVATOR","EXIT_TO_ST":"SE CORNER OF S HAYES ST AND 12TH ST S ","LINE":"blue, yellow","DESCRIPTION":"Metro Station Elevator","CAPTUREYEAR":1452229200000,"GIS_ID":"MetroEntFullPt_177"}},{"type":"Feature","geometry":{"type":"Point","coordinates":[-77.050783960902677,38.857944864286381]},"properties":{"NAME":"CRYSTAL CITY ELEVATOR","EXIT_TO_ST":"NW CORNER OF 18TH ST AND S BELL ST","LINE":"blue, yellow","DESCRIPTION":"Metro Station Elevator","CAPTUREYEAR":1452229200000,"GIS_ID":"MetroEntFullPt_180"}},{"type":"Feature","geometry":{"type":"Point","coordinates":[-77.044091097750737,38.853470781330238]},"properties":{"NAME":"RONALD REAGAN WASHINGTON NATIONAL AIRPORT ELEV","EXIT_TO_ST":"WEST SIDE OF S SMITH BLVD","LINE":"blue, yellow","DESCRIPTION":"Metro Station Elevator","CAPTUREYEAR":1452229200000,"GIS_ID":"MetroEntFullPt_183"}},{"type":"Feature","geometry":{"type":"Point","coordinates":[-77.208592785027605,38.924434198247766]},"properties":{"NAME":"MCLEAN ELEVATOR","EXIT_TO_ST":"SW CORNER OF DOLLEY MADISON BLVD AND COLSHIRE DR","LINE":"silver","DESCRIPTION":"Metro Station Elevator","CAPTUREYEAR":1452229200000,"GIS_ID":"MetroEntFullPt_184"}},{"type":"Feature","geometry":{"type":"Point","coordinates":[-77.022149957565304,38.905436073823843]},"properties":{"NAME":"MT VERNON SQ 7TH ST-CONVENTION CENTER","EXIT_TO_ST":"SW CORNER OF 7TH STREET NW AND M STREET NW","LINE":"green, yellow","DESCRIPTION":"Metro Station Entrance","CAPTUREYEAR":1452229200000,"GIS_ID":"MetroEntFullPt_67"}},{"type":"Feature","geometry":{"type":"Point","coordinates":[-77.169102327954278,38.76670775261875]},"properties":{"NAME":"FRANCONIA-SPRINGFIELD","EXIT_TO_ST":"SOUTH SIDE OF FRANCONIA-SPRINGFIELD PKWY","LINE":"blue","DESCRIPTION":"Metro Station Entrance","CAPTUREYEAR":1452229200000,"GIS_ID":"MetroEntFullPt_69"}},{"type":"Feature","geometry":{"type":"Point","coordinates":[-77.103602328674739,39.028907809372107]},"properties":{"NAME":"GROSVENOR-STRATHMORE","EXIT_TO_ST":"SE OF TUCKERMAN LN AND ROCKVILLE PIKE ","LINE":"red","DESCRIPTION":"Metro Station Entrance","CAPTUREYEAR":1452229200000,"GIS_ID":"MetroEntFullPt_71"}},{"type":"Feature","geometry":{"type":"Point","coordinates":[-77.104502328214778,39.028807811628212]},"properties":{"NAME":"GROSVENOR-STRATHMORE","EXIT_TO_ST":"SW OF TUCKERMAN LN AND ROCKVILLE PIKE ","LINE":"red","DESCRIPTION":"Metro Station Entrance","CAPTUREYEAR":1452229200000,"GIS_ID":"MetroEntFullPt_72"}},{"type":"Feature","geometry":{"type":"Point","coordinates":[-77.043319287245396,38.90868288613067]},"properties":{"NAME":"DUPONT CIRCLE","EXIT_TO_ST":"SE CORNER OF 19TH STREET NW AND DUPONT CIRCLE NW","LINE":"red","DESCRIPTION":"Metro Station Entrance","CAPTUREYEAR":1452229200000,"GIS_ID":"MetroEntFullPt_73"}},{"type":"Feature","geometry":{"type":"Point","coordinates":[-77.095202314872736,38.887107778190106]},"properties":{"NAME":"CLARENDON","EXIT_TO_ST":"WEST SIDE OF N HIGHLAND ST BETWEEN WILSON BLVD AND CLARENDON BLVD","LINE":"orange, silver","DESCRIPTION":"Metro Station Entrance","CAPTUREYEAR":1452229200000,"GIS_ID":"MetroEntFullPt_75"}},{"type":"Feature","geometry":{"type":"Point","coordinates":[-77.209496085622945,38.924809950941402]},"properties":{"NAME":"MCLEAN ELEVATOR","EXIT_TO_ST":"NE CORNER OF DOLLEY MADISON BLVD AND CAPITAL ONE DR","LINE":"silver","DESCRIPTION":"Metro Station Elevator","CAPTUREYEAR":1452229200000,"GIS_ID":"MetroEntFullPt_187"}},{"type":"Feature","geometry":{"type":"Point","coordinates":[-77.234009488526766,38.920508763959027]},"properties":{"NAME":"GREENSBORO ELEVATOR","EXIT_TO_ST":"EAST BOUND VA-7 ELEESBURG PIKE","LINE":"silver","DESCRIPTION":"Metro Station Elevator","CAPTUREYEAR":1452229200000,"GIS_ID":"MetroEntFullPt_191"}},{"type":"Feature","geometry":{"type":"Point","coordinates":[-77.241846386288557,38.9285739654133]},"properties":{"NAME":"SPRING HILL ELEVATOR","EXIT_TO_ST":"EASTBOUND LEESBURG PIKE","LINE":"silver","DESCRIPTION":"Metro Station Elevator","CAPTUREYEAR":1452229200000,"GIS_ID":"MetroEntFullPt_192"}},{"type":"Feature","geometry":{"type":"Point","coordinates":[-77.021718791478449,38.897933895295871]},"properties":{"NAME":"GALLERY PL-CHINATOWN ELEVATOR","EXIT_TO_ST":"NE CORNER OF 7TH STREET NW AND F STREET NW","LINE":"red, green, yellow","DESCRIPTION":"Metro Station Elevator","CAPTUREYEAR":1452229200000,"GIS_ID":"MetroEntFullPt_197"}},{"type":"Feature","geometry":{"type":"Point","coordinates":[-76.977174803656709,38.885926135855321]},"properties":{"NAME":"STADIUM-ARMORY ELEVATOR","EXIT_TO_ST":"19TH STREET SE BETWEEN BURKE STREET SE AND C ST SE","LINE":"blue, orange, silver","DESCRIPTION":"Metro Station Elevator","CAPTUREYEAR":1452229200000,"GIS_ID":"MetroEntFullPt_206"}},{"type":"Feature","geometry":{"type":"Point","coordinates":[-77.022127936103288,38.9059533195135]},"properties":{"NAME":"MT VERNON SQ 7TH ST-CONVENTION CENTER ELEV","EXIT_TO_ST":"NW CORNER OF 7TH STREET NW AND M STREET NW","LINE":"green, yellow","DESCRIPTION":"Metro Station Elevator","CAPTUREYEAR":1452229200000,"GIS_ID":"MetroEntFullPt_209"}},{"type":"Feature","geometry":{"type":"Point","coordinates":[-77.039303862202843,38.903034285850545]},"properties":{"NAME":"FARRAGUT NORTH ELEVATOR","EXIT_TO_ST":"NE CORNER OF 17TH STREET NW AND K STREET NW","LINE":"red","DESCRIPTION":"Metro Station Elevator","CAPTUREYEAR":1452229200000,"GIS_ID":"MetroEntFullPt_211"}},{"type":"Feature","geometry":{"type":"Point","coordinates":[-77.027910482772342,38.89892557184713]},"properties":{"NAME":"METRO CENTER ELEVATOR","EXIT_TO_ST":"12TH STREET BETWEEN G ST NW AND H ST NW","LINE":"red, blue, orange, silver","DESCRIPTION":"Metro Station Elevator","CAPTUREYEAR":1452229200000,"GIS_ID":"MetroEntFullPt_86"}},{"type":"Feature","geometry":{"type":"Point","coordinates":[-77.085302312679261,38.890307782486772]},"properties":{"NAME":"COURT HOUSE","EXIT_TO_ST":"NORTHEN SIDE OF ARLINGTON COUNTY DMV SELECT BUILDING ","LINE":"orange, silver","DESCRIPTION":"Metro Station Entrance","CAPTUREYEAR":1452229200000,"GIS_ID":"MetroEntFullPt_80"}},{"type":"Feature","geometry":{"type":"Point","coordinates":[-77.085002313201244,38.891307787115387]},"properties":{"NAME":"COURT HOUSE","EXIT_TO_ST":"SW OF N UHLE ST AND CLARENDON BLVD","LINE":"orange, silver","DESCRIPTION":"Metro Station Entrance","CAPTUREYEAR":1452229200000,"GIS_ID":"MetroEntFullPt_81"}},{"type":"Feature","geometry":{"type":"Point","coordinates":[-76.994346040097369,38.933511321173761]},"properties":{"NAME":"BROOKLAND-CUA","EXIT_TO_ST":"9TH STREET NE BETWEEN BUNKER HILL RD NE AND MONROE ST NE","LINE":"red","DESCRIPTION":"Metro Station Entrance","CAPTUREYEAR":1452229200000,"GIS_ID":"MetroEntFullPt_1"}},{"type":"Feature","geometry":{"type":"Point","coordinates":[-76.995044654758047,38.9338343185985]},"properties":{"NAME":"BROOKLAND-CUA","EXIT_TO_ST":"NE CORNER OF JOHN MCCORMICK ROAD NE AND MICHIGAN AVENUE NE","LINE":"red","DESCRIPTION":"Metro Station Entrance","CAPTUREYEAR":1452229200000,"GIS_ID":"MetroEntFullPt_4"}},{"type":"Feature","geometry":{"type":"Point","coordinates":[-76.995070071124147,38.862298360887927]},"properties":{"NAME":"ANACOSTIA","EXIT_TO_ST":"INTERSECTION OF HOWARD ROAD SE AND SHANNON PLACE SE","LINE":"green","DESCRIPTION":"Metro Station Entrance","CAPTUREYEAR":1452229200000,"GIS_ID":"MetroEntFullPt_6"}},{"type":"Feature","geometry":{"type":"Point","coordinates":[-76.995466451261905,38.862169457455856]},"properties":{"NAME":"ANACOSTIA","EXIT_TO_ST":"INTERSECTION OF HOWARD ROAD SE AND SHANNON PLACE SE","LINE":"green","DESCRIPTION":"Metro Station Entrance","CAPTUREYEAR":1452229200000,"GIS_ID":"MetroEntFullPt_7"}},{"type":"Feature","geometry":{"type":"Point","coordinates":[-76.987777593877922,38.845397673861463]},"properties":{"NAME":"CONGRESS HEIGHTS","EXIT_TO_ST":"NORTH SIDE OF ALABAMA AVENUE SE AT 13TH STREET SE","LINE":"green","DESCRIPTION":"Metro Station Entrance","CAPTUREYEAR":1452229200000,"GIS_ID":"MetroEntFullPt_8"}},{"type":"Feature","geometry":{"type":"Point","coordinates":[-77.032307893975158,38.901116749124313]},"properties":{"NAME":"MCPHERSON SQUARE ELEVATOR","EXIT_TO_ST":"SW CORNER OF 14TH STREET NW AND I STREET NW","LINE":"blue, orange, silver","DESCRIPTION":"Metro Station Elevator","CAPTUREYEAR":1452229200000,"GIS_ID":"MetroEntFullPt_87"}},{"type":"Feature","geometry":{"type":"Point","coordinates":[-77.041893733090902,38.90149905532035]},"properties":{"NAME":"FARRAGUT WEST ELEVATOR","EXIT_TO_ST":"NW CORNER OF 18TH STREET NW AND I STREET NW","LINE":"blue, orange, silver","DESCRIPTION":"Metro Station Elevator","CAPTUREYEAR":1452229200000,"GIS_ID":"MetroEntFullPt_88"}},{"type":"Feature","geometry":{"type":"Point","coordinates":[-77.047481743224523,38.832816907092237]},"properties":{"NAME":"POTOMAC YARD","EXIT_TO_ST":"EAST OF EAST GLEBE ROAD AND POTOMAC AVENUE INTERSECTION","LINE":"blue, yellow","DESCRIPTION":"Metro Station Entrance","CAPTUREYEAR":1684814400000,"GIS_ID":"MetroEntFullPt_260"}},{"type":"Feature","geometry":{"type":"Point","coordinates":[-77.047261146538133,38.834949696001139]},"properties":{"NAME":"POTOMAC YARD","EXIT_TO_ST":"EAST OF EVANS LANE AND UNIVERSITY DRIVE INTERSECTION","LINE":"blue, yellow","DESCRIPTION":"Metro Station Entrance","CAPTUREYEAR":1684814400000,"GIS_ID":"MetroEntFullPt_259"}},{"type":"Feature","geometry":{"type":"Point","coordinates":[-76.916709519363707,38.91616119101861]},"properties":{"NAME":"CHEVERLY","EXIT_TO_ST":"SW CORNER OF JOHN HANSON HWY AND COLUMBIA PARK RD","LINE":"orange","DESCRIPTION":"Metro Station Entrance","CAPTUREYEAR":1452229200000,"GIS_ID":"MetroEntFullPt_28"}},{"type":"Feature","geometry":{"type":"Point","coordinates":[-76.868407345271336,38.893558508015246]},"properties":{"NAME":"MORGAN BOULEVARD","EXIT_TO_ST":"WEST SIDE OF GARRET A MORGAN BLVD","LINE":"blue, silver","DESCRIPTION":"Metro Station Entrance","CAPTUREYEAR":1452229200000,"GIS_ID":"MetroEntFullPt_31"}},{"type":"Feature","geometry":{"type":"Point","coordinates":[-77.039179547856534,38.902781481060764]},"properties":{"NAME":"FARRAGUT NORTH","EXIT_TO_ST":"NE CORNER OF 17TH STREET NW AND K STREET NW","LINE":"red","DESCRIPTION":"Metro Station Entrance","CAPTUREYEAR":1452229200000,"GIS_ID":"MetroEntFullPt_131"}},{"type":"Feature","geometry":{"type":"Point","coordinates":[-77.028437433888897,38.889078278018211]},"properties":{"NAME":"SMITHSONIAN","EXIT_TO_ST":"JEFFERSON DRIVE SW BETWEEN 12TH ST SW and 13TH ST NW","LINE":"blue, orange, silver","DESCRIPTION":"Metro Station Entrance","CAPTUREYEAR":1452229200000,"GIS_ID":"MetroEntFullPt_133"}},{"type":"Feature","geometry":{"type":"Point","coordinates":[-77.079363388416084,38.94808512124898]},"properties":{"NAME":"TENLEYTOWN-AU","EXIT_TO_ST":"NE CORNER OF ABLEMARLE STREET NW AND WISCONSIN AVENUE NW","LINE":"red","DESCRIPTION":"Metro Station Entrance","CAPTUREYEAR":1452229200000,"GIS_ID":"MetroEntFullPt_135"}},{"type":"Feature","geometry":{"type":"Point","coordinates":[-77.080171144192903,38.94831678559045]},"properties":{"NAME":"TENLEYTOWN-AU","EXIT_TO_ST":"WISCONSIN AVENUE NW BETWEEN RIVER RD NW AND ALBEMARLE ST NW","LINE":"red","DESCRIPTION":"Metro Station Entrance","CAPTUREYEAR":1452229200000,"GIS_ID":"MetroEntFullPt_136"}},{"type":"Feature","geometry":{"type":"Point","coordinates":[-77.063574352748319,38.944630818401201]},"properties":{"NAME":"VAN NESS-UDC","EXIT_TO_ST":"NE CORNER OF CONNECTICUT AVENUE NW AND VEAZEY TERRACE NW","LINE":"red","DESCRIPTION":"Metro Station Entrance","CAPTUREYEAR":1452229200000,"GIS_ID":"MetroEntFullPt_137"}},{"type":"Feature","geometry":{"type":"Point","coordinates":[-77.05236528696048,38.924468116993957]},"properties":{"NAME":"WOODLEY PARK-ZOO/ADAMS MORGAN","EXIT_TO_ST":"SW CORNER OF CONNECTICUT AVENUE NW AND 24TH STREET NW","LINE":"red","DESCRIPTION":"Metro Station Entrance","CAPTUREYEAR":1452229200000,"GIS_ID":"MetroEntFullPt_138"}},{"type":"Feature","geometry":{"type":"Point","coordinates":[-77.111362954666447,38.881876097633629]},"properties":{"NAME":"BALLSTON-MU","EXIT_TO_ST":"SE CORNER OF N STUART ST AND N FAIRFAX DR","LINE":"orange, silver","DESCRIPTION":"Metro Station Entrance","CAPTUREYEAR":1452229200000,"GIS_ID":"MetroEntFullPt_140"}},{"type":"Feature","geometry":{"type":"Point","coordinates":[-77.064032526508825,38.944539368413672]},"properties":{"NAME":"VAN NESS-UDC","EXIT_TO_ST":"NW CORNER OF CONNECTICUT AVENUE AND VEAZEY TERRACE NW","LINE":"red","DESCRIPTION":"Metro Station Entrance","CAPTUREYEAR":1452229200000,"GIS_ID":"MetroEntFullPt_141"}},{"type":"Feature","geometry":{"type":"Point","coordinates":[-77.129227651678391,38.799543097514025]},"properties":{"NAME":"VAN DORN STREET","EXIT_TO_ST":"SE CORNER OF EISENHOWER AVE ","LINE":"blue","DESCRIPTION":"Metro Station Entrance","CAPTUREYEAR":1452229200000,"GIS_ID":"MetroEntFullPt_144"}},{"type":"Feature","geometry":{"type":"Point","coordinates":[-77.059006883585013,38.936145516846743]},"properties":{"NAME":"CLEVELAND PARK","EXIT_TO_ST":"WEST SIDE OF CONNECTICUT AVENUE NW BETWEEN PORTER STREET NW AND ORDWAY STREET NW","LINE":"red","DESCRIPTION":"Metro Station Entrance","CAPTUREYEAR":1452229200000,"GIS_ID":"MetroEntFullPt_145"}},{"type":"Feature","geometry":{"type":"Point","coordinates":[-77.086102308801927,38.960907798412244]},"properties":{"NAME":"FRIENDSHIP HEIGHTS","EXIT_TO_ST":"NE SIDE OF WESTERN AVE AND MD-355 S","LINE":"red","DESCRIPTION":"Metro Station Entrance","CAPTUREYEAR":1452229200000,"GIS_ID":"MetroEntFullPt_146"}},{"type":"Feature","geometry":{"type":"Point","coordinates":[-77.032227534047067,38.900922325887954]},"properties":{"NAME":"MCPHERSON SQUARE","EXIT_TO_ST":"SW CORNER OF 14TH STREET NW AND I STREET NW","LINE":"blue, orange, silver","DESCRIPTION":"Metro Station Entrance","CAPTUREYEAR":1452229200000,"GIS_ID":"MetroEntFullPt_148"}},{"type":"Feature","geometry":{"type":"Point","coordinates":[-77.028715371755638,38.893834478567584]},"properties":{"NAME":"FEDERAL TRIANGLE","EXIT_TO_ST":"RONALD REAGAN BUILDING - WEST SIDE OF 12TH STREET NW BETWEEN PENNSYLVANIA AVENUE NW AND CONSTITUTION AVENUE NW","LINE":"blue, orange, silver","DESCRIPTION":"Metro Station Entrance","CAPTUREYEAR":1452229200000,"GIS_ID":"MetroEntFullPt_150"}},{"type":"Feature","geometry":{"type":"Point","coordinates":[-77.058537419833428,38.935984684470398]},"properties":{"NAME":"CLEVELAND PARK","EXIT_TO_ST":"EAST SIDE OF CONNECTICUT AVENUE NW BETWEEN PORTER STREET NW AND ORDWAY STREET NW","LINE":"red","DESCRIPTION":"Metro Station Entrance","CAPTUREYEAR":1452229200000,"GIS_ID":"MetroEntFullPt_151"}},{"type":"Feature","geometry":{"type":"Point","coordinates":[-76.912002264915657,39.010807814772605]},"properties":{"NAME":"GREENBELT","EXIT_TO_ST":"NE CORNER OF 53RD AVE AND LACKAWANNA ST","LINE":"green","DESCRIPTION":"Metro Station Entrance","CAPTUREYEAR":1452229200000,"GIS_ID":"MetroEntFullPt_152"}},{"type":"Feature","geometry":{"type":"Point","coordinates":[-76.910902254910653,39.010907810776459]},"properties":{"NAME":"GREENBELT","EXIT_TO_ST":"NE CORNER OF 53RD AVE AND LACKAWANNA ST","LINE":"green","DESCRIPTION":"Metro Station Entrance","CAPTUREYEAR":1452229200000,"GIS_ID":"MetroEntFullPt_153"}},{"type":"Feature","geometry":{"type":"Point","coordinates":[-76.932102254286647,38.844407782083429]},"properties":{"NAME":"SUITLAND","EXIT_TO_ST":"NORTH SIDE OF SILVER HILL RD","LINE":"green","DESCRIPTION":"Metro Station Entrance","CAPTUREYEAR":1452229200000,"GIS_ID":"MetroEntFullPt_154"}},{"type":"Feature","geometry":{"type":"Point","coordinates":[-77.097892000560137,38.999066489926292]},"properties":{"NAME":"MEDICAL CENTER","EXIT_TO_ST":"SW SIDE OF SOUTH DR AND ROCKVILLE PIKE ","LINE":"red","DESCRIPTION":"Metro Station Entrance","CAPTUREYEAR":1452229200000,"GIS_ID":"MetroEntFullPt_155"}},{"type":"Feature","geometry":{"type":"Point","coordinates":[-77.085402126844784,38.960748045962795]},"properties":{"NAME":"FRIENDSHIP HEIGHTS","EXIT_TO_ST":"NE CORNER OF WISCONSIN AVENUE NW AND WESTERN AVENUE NW","LINE":"red","DESCRIPTION":"Metro Station Entrance","CAPTUREYEAR":1452229200000,"GIS_ID":"MetroEntFullPt_156"}},{"type":"Feature","geometry":{"type":"Point","coordinates":[-77.085602321505831,38.961207798302027]},"properties":{"NAME":"FRIENDSHIP HEIGHTS","EXIT_TO_ST":"NW SIDE OF WESTERN AVE AND MD-355 N ","LINE":"red","DESCRIPTION":"Metro Station Entrance","CAPTUREYEAR":1452229200000,"GIS_ID":"MetroEntFullPt_157"}},{"type":"Feature","geometry":{"type":"Point","coordinates":[-77.146579370124229,39.084478485386008]},"properties":{"NAME":"ROCKVILLE","EXIT_TO_ST":"SOUTH SIDE OF PARK RD BETWEEN MD-355 N AND S STONESTREET AVE","LINE":"red","DESCRIPTION":"Metro Station Entrance","CAPTUREYEAR":1452229200000,"GIS_ID":"MetroEntFullPt_158"}},{"type":"Feature","geometry":{"type":"Point","coordinates":[-77.00720206832635,38.897492192704988]},"properties":{"NAME":"UNION STATION","EXIT_TO_ST":"NE CORNER OF 1ST STREET NE AND MASSACHUSETTS AVENUE NE","LINE":"red","DESCRIPTION":"Metro Station Entrance","CAPTUREYEAR":1452229200000,"GIS_ID":"MetroEntFullPt_159"}},{"type":"Feature","geometry":{"type":"Point","coordinates":[-77.031202299398657,38.993907802470396]},"properties":{"NAME":"SILVER SPRING","EXIT_TO_ST":"COLESVILE RD BETWEEN EAST_WEST HWY AND WAYNE AVE","LINE":"red","DESCRIPTION":"Metro Station Entrance","CAPTUREYEAR":1452229200000,"GIS_ID":"MetroEntFullPt_160"}},{"type":"Feature","geometry":{"type":"Point","coordinates":[-77.031502294766923,38.994207803118023]},"properties":{"NAME":"SILVER SPRING","EXIT_TO_ST":"COLESVILE RD BETWEEN EAST_WEST HWY AND WAYNE AVE","LINE":"red","DESCRIPTION":"Metro Station Entrance","CAPTUREYEAR":1452229200000,"GIS_ID":"MetroEntFullPt_161"}},{"type":"Feature","geometry":{"type":"Point","coordinates":[-77.031902299466083,38.994107802813879]},"properties":{"NAME":"SILVER SPRING","EXIT_TO_ST":"NE CORNER OF EAST-WEST HWY AND COLESVILE RD","LINE":"red","DESCRIPTION":"Metro Station Entrance","CAPTUREYEAR":1452229200000,"GIS_ID":"MetroEntFullPt_162"}},{"type":"Feature","geometry":{"type":"Point","coordinates":[-77.017415561551189,38.975103948492787]},"properties":{"NAME":"TAKOMA","EXIT_TO_ST":"NE SIDE OF CEDAR STREET NW AND BLAIR ROAD NW","LINE":"red","DESCRIPTION":"Metro Station Entrance","CAPTUREYEAR":1452229200000,"GIS_ID":"MetroEntFullPt_164"}},{"type":"Feature","geometry":{"type":"Point","coordinates":[-77.085765323558888,38.960453083847433]},"properties":{"NAME":"FRIENDSHIP HEIGHTS","EXIT_TO_ST":"SW CORNER OF WISCONSIN AVENUE NW AND WESTERN AVENUE NW","LINE":"red","DESCRIPTION":"Metro Station Entrance","CAPTUREYEAR":1452229200000,"GIS_ID":"MetroEntFullPt_165"}},{"type":"Feature","geometry":{"type":"Point","coordinates":[-77.007228754905739,38.898399522449338]},"properties":{"NAME":"UNION STATION","EXIT_TO_ST":"NE CORNER OF MASSACHUSETTS AVE NE AND 1 ST NE","LINE":"red","DESCRIPTION":"Metro Station Entrance","CAPTUREYEAR":1452229200000,"GIS_ID":"MetroEntFullPt_166"}},{"type":"Feature","geometry":{"type":"Point","coordinates":[-77.072110379307091,38.895814662540054]},"properties":{"NAME":"ROSSLYN","EXIT_TO_ST":"N FORT MYER DR BETWEEN N NASH ST AND WILSON BLVD","LINE":"orange, silver, blue","DESCRIPTION":"Metro Station Entrance","CAPTUREYEAR":1452229200000,"GIS_ID":"MetroEntFullPt_167"}},{"type":"Feature","geometry":{"type":"Point","coordinates":[-77.063750183859838,38.884555304026563]},"properties":{"NAME":"ARLINGTON CEMETERY","EXIT_TO_ST":"NW CORNER OF MEMORIAL AVE AND JEFFERSON DAVIS HWY","LINE":"blue","DESCRIPTION":"Metro Station Entrance","CAPTUREYEAR":1452229200000,"GIS_ID":"MetroEntFullPt_168"}},{"type":"Feature","geometry":{"type":"Point","coordinates":[-77.063548649993336,38.884223986278208]},"properties":{"NAME":"ARLINGTON CEMETERY","EXIT_TO_ST":"SW CORNER OF MEMORIAL AVE AND JEFFERSON DAVIS HWY","LINE":"blue","DESCRIPTION":"Metro Station Entrance","CAPTUREYEAR":1452229200000,"GIS_ID":"MetroEntFullPt_169"}},{"type":"Feature","geometry":{"type":"Point","coordinates":[-77.050280047144824,39.038678373385785]},"properties":{"NAME":"WHEATON","EXIT_TO_ST":"SE CORNER OF REEDIE DR AND GEORGIA AVE ","LINE":"red","DESCRIPTION":"Metro Station Entrance","CAPTUREYEAR":1452229200000,"GIS_ID":"MetroEntFullPt_172"}},{"type":"Feature","geometry":{"type":"Point","coordinates":[-76.985204955172222,38.880775667591131]},"properties":{"NAME":"POTOMAC AVE","EXIT_TO_ST":"NE CORNER OF 14TH STREET SE AND POTOMAC AVENUE SE","LINE":"blue, orange, silver","DESCRIPTION":"Metro Station Entrance","CAPTUREYEAR":1452229200000,"GIS_ID":"MetroEntFullPt_173"}},{"type":"Feature","geometry":{"type":"Point","coordinates":[-77.006065391286057,38.885672676319786]},"properties":{"NAME":"CAPITOL SOUTH","EXIT_TO_ST":"WEST SIDE OF 1ST STREET SE BETWEEN C STREET SE AND D STREET SE","LINE":"blue, orange, silver","DESCRIPTION":"Metro Station Entrance","CAPTUREYEAR":1452229200000,"GIS_ID":"MetroEntFullPt_175"}},{"type":"Feature","geometry":{"type":"Point","coordinates":[-77.059110013156157,38.862556159598945]},"properties":{"NAME":"PENTAGON CITY","EXIT_TO_ST":"SE CORNER OF S HAYES ST AND 12TH ST S ","LINE":"blue, yellow","DESCRIPTION":"Metro Station Entrance","CAPTUREYEAR":1452229200000,"GIS_ID":"MetroEntFullPt_176"}},{"type":"Feature","geometry":{"type":"Point","coordinates":[-77.059902296445017,38.862607779437496]},"properties":{"NAME":"PENTAGON CITY","EXIT_TO_ST":"SW CORNER OF S HAYES ST AND 12TH ST S ","LINE":"blue, yellow","DESCRIPTION":"Metro Station Entrance","CAPTUREYEAR":1452229200000,"GIS_ID":"MetroEntFullPt_178"}},{"type":"Feature","geometry":{"type":"Point","coordinates":[-77.051402290868296,38.858007778794118]},"properties":{"NAME":"CRYSTAL CITY","EXIT_TO_ST":"NW CORNER OF 18TH ST AND S BELL ST","LINE":"blue, yellow","DESCRIPTION":"Metro Station Entrance","CAPTUREYEAR":1452229200000,"GIS_ID":"MetroEntFullPt_179"}},{"type":"Feature","geometry":{"type":"Point","coordinates":[-77.044702290755936,38.854607773428704]},"properties":{"NAME":"RONALD REAGAN WASHINGTON NATIONAL AIRPORT","EXIT_TO_ST":"WEST SIDE OF S SMITH BLVD PARKING GARAGE C AND TERMINAL C","LINE":"blue, yellow","DESCRIPTION":"Metro Station Entrance","CAPTUREYEAR":1452229200000,"GIS_ID":"MetroEntFullPt_181"}},{"type":"Feature","geometry":{"type":"Point","coordinates":[-77.043702296369261,38.852207773868244]},"properties":{"NAME":"RONALD REAGAN WASHINGTON NATIONAL AIRPORT","EXIT_TO_ST":"WEST SIDE OF S SMITH BLVD PARKING GARAGE B AND TERMINAL B","LINE":"blue, yellow","DESCRIPTION":"Metro Station Entrance","CAPTUREYEAR":1452229200000,"GIS_ID":"MetroEntFullPt_182"}},{"type":"Feature","geometry":{"type":"Point","coordinates":[-77.053802300946785,38.813707769143285]},"properties":{"NAME":"BRADDOCK ROAD","EXIT_TO_ST":"NW CORNER OF MT VERNON AVE AND E BRADDOCK RD ","LINE":"blue, yellow","DESCRIPTION":"Metro Station Entrance","CAPTUREYEAR":1452229200000,"GIS_ID":"MetroEntFullPt_185"}},{"type":"Feature","geometry":{"type":"Point","coordinates":[-77.156602324756875,38.885907778871854]},"properties":{"NAME":"EAST FALLS CHURCH","EXIT_TO_ST":"BY N SYCAMORE ST AND I 66 HWY","LINE":"orange, silver","DESCRIPTION":"Metro Station Entrance","CAPTUREYEAR":1452229200000,"GIS_ID":"MetroEntFullPt_186"}},{"type":"Feature","geometry":{"type":"Point","coordinates":[-77.20960836359167,38.924758987598082]},"properties":{"NAME":"MCLEAN","EXIT_TO_ST":"NE CORNER OF DOLLEY MADISON BLVD AND CAPITAL ONE DR","LINE":"silver","DESCRIPTION":"Metro Station Entrance","CAPTUREYEAR":1452229200000,"GIS_ID":"MetroEntFullPt_188"}},{"type":"Feature","geometry":{"type":"Point","coordinates":[-77.208270401698883,38.924595617206357]},"properties":{"NAME":"MCLEAN","EXIT_TO_ST":"SW CORNER OF DOLLEY MADISON BLVD AND COLSHIRE DR","LINE":"silver","DESCRIPTION":"Metro Station Entrance","CAPTUREYEAR":1452229200000,"GIS_ID":"MetroEntFullPt_189"}},{"type":"Feature","geometry":{"type":"Point","coordinates":[-77.234166350985234,38.92067345579035]},"properties":{"NAME":"GREENSBORO","EXIT_TO_ST":"EAST BOUND VA-7 ELEESBURG PIKE","LINE":"silver","DESCRIPTION":"Metro Station Entrance","CAPTUREYEAR":1452229200000,"GIS_ID":"MetroEntFullPt_190"}},{"type":"Feature","geometry":{"type":"Point","coordinates":[-77.241702365783922,38.92840778013511]},"properties":{"NAME":"SPRING HILL","EXIT_TO_ST":"EASTBOUND LEESBURG PIKE","LINE":"silver","DESCRIPTION":"Metro Station Entrance","CAPTUREYEAR":1452229200000,"GIS_ID":"MetroEntFullPt_193"}},{"type":"Feature","geometry":{"type":"Point","coordinates":[-76.996022899334108,38.864435986600654]},"properties":{"NAME":"ANACOSTIA","EXIT_TO_ST":"NE CORNER OF HOWARD ROAD SE AND I - 295 SE","LINE":"green","DESCRIPTION":"Metro Station Entrance","CAPTUREYEAR":1452229200000,"GIS_ID":"MetroEntFullPt_194"}},{"type":"Feature","geometry":{"type":"Point","coordinates":[-77.120410151911855,39.062340390228954]},"properties":{"NAME":"TWINBROOK","EXIT_TO_ST":"WEST SIDE OF CHAPMAN AVE ","LINE":"red","DESCRIPTION":"Metro Station Entrance","CAPTUREYEAR":1452229200000,"GIS_ID":"MetroEntFullPt_195"}},{"type":"Feature","geometry":{"type":"Point","coordinates":[-77.021567416589448,38.897544239525558]},"properties":{"NAME":"GALLERY PL-CHINATOWN","EXIT_TO_ST":"NE CORNER OF 7TH STREET NW AND F STREET NW","LINE":"red, green, yellow","DESCRIPTION":"Metro Station Entrance","CAPTUREYEAR":1452229200000,"GIS_ID":"MetroEntFullPt_196"}},{"type":"Feature","geometry":{"type":"Point","coordinates":[-77.165002351717561,39.119907827514815]},"properties":{"NAME":"SHADY GROVE","EXIT_TO_ST":"NE CORNER OF REDLAND RD AND SOMERVILLE DR ","LINE":"red","DESCRIPTION":"Metro Station Entrance","CAPTUREYEAR":1452229200000,"GIS_ID":"MetroEntFullPt_198"}},{"type":"Feature","geometry":{"type":"Point","coordinates":[-77.034952571236545,38.901137292532546]},"properties":{"NAME":"MCPHERSON SQUARE","EXIT_TO_ST":"SW CORNER OF VERMONT AVENUE NW AND I STREET NW","LINE":"blue, orange, silver","DESCRIPTION":"Metro Station Entrance","CAPTUREYEAR":1452229200000,"GIS_ID":"MetroEntFullPt_199"}},{"type":"Feature","geometry":{"type":"Point","coordinates":[-77.02679404541307,38.898080812773564]},"properties":{"NAME":"METRO CENTER","EXIT_TO_ST":"SE CORNER OF G STREET NW AND 11TH STREET NW","LINE":"red, blue, orange, silver","DESCRIPTION":"Metro Station Entrance","CAPTUREYEAR":1452229200000,"GIS_ID":"MetroEntFullPt_200"}},{"type":"Feature","geometry":{"type":"Point","coordinates":[-77.027893876246907,38.898526550385029]},"properties":{"NAME":"METRO CENTER","EXIT_TO_ST":"NE CORNER OF G STREET NW AND 12TH STREET NW ","LINE":"red, blue, orange, silver","DESCRIPTION":"Metro Station Entrance","CAPTUREYEAR":1452229200000,"GIS_ID":"MetroEntFullPt_201"}},{"type":"Feature","geometry":{"type":"Point","coordinates":[-77.028572358133559,38.897154971048451]},"properties":{"NAME":"METRO CENTER","EXIT_TO_ST":"SW CORNER OF 12TH ST NW AND F ST NW","LINE":"red, blue, orange, silver","DESCRIPTION":"Metro Station Entrance","CAPTUREYEAR":1452229200000,"GIS_ID":"MetroEntFullPt_202"}},{"type":"Feature","geometry":{"type":"Point","coordinates":[-77.029383961512778,38.898033796920281]},"properties":{"NAME":"METRO CENTER","EXIT_TO_ST":"SE CORNER OF G STREET NW AND 13TH STREET NW ","LINE":"red, blue, orange, silver","DESCRIPTION":"Metro Station Entrance","CAPTUREYEAR":1452229200000,"GIS_ID":"MetroEntFullPt_203"}},{"type":"Feature","geometry":{"type":"Point","coordinates":[-76.977065181291252,38.888290778401263]},"properties":{"NAME":"STADIUM-ARMORY","EXIT_TO_ST":"NE CORNER OF 19TH STREET SE AND INDEPENDENCE AVENUE SE","LINE":"blue, orange, silver","DESCRIPTION":"Metro Station Entrance","CAPTUREYEAR":1452229200000,"GIS_ID":"MetroEntFullPt_204"}},{"type":"Feature","geometry":{"type":"Point","coordinates":[-76.977045774901612,38.885663092806602]},"properties":{"NAME":"STADIUM-ARMORY","EXIT_TO_ST":"NE CORNER OF 19TH STREET SE AND C STREET SE","LINE":"blue, orange, silver","DESCRIPTION":"Metro Station Entrance","CAPTUREYEAR":1452229200000,"GIS_ID":"MetroEntFullPt_205"}},{"type":"Feature","geometry":{"type":"Point","coordinates":[-76.935172471456454,38.908560834024257]},"properties":{"NAME":"DEANWOOD","EXIT_TO_ST":"NORTH SIDE OF MINNESOTA AVENUE NE AT 48TH STREET NE","LINE":"orange","DESCRIPTION":"Metro Station Entrance","CAPTUREYEAR":1452229200000,"GIS_ID":"MetroEntFullPt_208"}},{"type":"Feature","geometry":{"type":"Point","coordinates":[-77.031353204249598,38.993746092001352]},"properties":{"NAME":"SILVER SPRING","EXIT_TO_ST":"SE CORNER OF EAST-WEST HWY AND COLESVILE RD","LINE":"red","DESCRIPTION":"Metro Station Entrance","CAPTUREYEAR":1452229200000,"GIS_ID":"MetroEntFullPt_210"}},{"type":"Feature","geometry":{"type":"Point","coordinates":[-77.22840235237129,38.882807773871875]},"properties":{"NAME":"DUNN LORING-MERRIFIELD","EXIT_TO_ST":"BY GALLOWS ROAD AND I 66 HWY ","LINE":"orange","DESCRIPTION":"Metro Station Entrance","CAPTUREYEAR":1452229200000,"GIS_ID":"MetroEntFullPt_82"}},{"type":"Feature","geometry":{"type":"Point","coordinates":[-77.271544195657938,38.878308450243637]},"properties":{"NAME":"VIENNA/FAIRFAX-GMU","EXIT_TO_ST":"WEST SIDE OF VADEN DR BETWEEN I - 66 W AND I - 66 E","LINE":"orange","DESCRIPTION":"Metro Station Entrance","CAPTUREYEAR":1452229200000,"GIS_ID":"MetroEntFullPt_83"}},{"type":"Feature","geometry":{"type":"Point","coordinates":[-77.146280634102837,39.084683881552252]},"properties":{"NAME":"ROCKVILLE","EXIT_TO_ST":"SOUTH SIDE OF PARK RD BETWEEN MD-355 N AND S STONESTREET AVE","LINE":"red","DESCRIPTION":"Metro Station Entrance","CAPTUREYEAR":1452229200000,"GIS_ID":"MetroEntFullPt_105"}},{"type":"Feature","geometry":{"type":"Point","coordinates":[-77.017525270955176,38.897059761435948]},"properties":{"NAME":"JUDICIARY SQUARE","EXIT_TO_ST":"SOUTH SIDE OF F STREET NW BETWEEN 4TH STREET NW AND 5TH STREET NW","LINE":"red","DESCRIPTION":"Metro Station Entrance","CAPTUREYEAR":1452229200000,"GIS_ID":"MetroEntFullPt_106"}},{"type":"Feature","geometry":{"type":"Point","coordinates":[-77.071712361196063,38.895956429050926]},"properties":{"NAME":"ROSSLYN","EXIT_TO_ST":"N MOORE ST BETWEEN 19TH ST N AND WILSON BLVD","LINE":"orange, silver, blue","DESCRIPTION":"Metro Station Entrance","CAPTUREYEAR":1452229200000,"GIS_ID":"MetroEntFullPt_107"}},{"type":"Feature","geometry":{"type":"Point","coordinates":[-77.094602322724256,38.98470780213556]},"properties":{"NAME":"BETHESDA","EXIT_TO_ST":"SW CORNER OF EAST-WEST HWY AND WISCONSIN AVE","LINE":"red","DESCRIPTION":"Metro Station Entrance","CAPTUREYEAR":1452229200000,"GIS_ID":"MetroEntFullPt_109"}},{"type":"Feature","geometry":{"type":"Point","coordinates":[-77.023547837316272,38.884457003379943]},"properties":{"NAME":"L'ENFANT PLAZA","EXIT_TO_ST":"SE CORNER OF 9TH STREET SW AND D STREET SW","LINE":"green, yellow, orange, blue, silver","DESCRIPTION":"Metro Station Entrance","CAPTUREYEAR":1452229200000,"GIS_ID":"MetroEntFullPt_110"}},{"type":"Feature","geometry":{"type":"Point","coordinates":[-77.007133281248869,38.876278315014886]},"properties":{"NAME":"NAVY YARD-BALLPARK","EXIT_TO_ST":"NW CORNER OF HALF STREET SE AND M STREET SE","LINE":"green","DESCRIPTION":"Metro Station Entrance","CAPTUREYEAR":1452229200000,"GIS_ID":"MetroEntFullPt_111"}},{"type":"Feature","geometry":{"type":"Point","coordinates":[-77.004497477143232,38.876676752608702]},"properties":{"NAME":"NAVY YARD-BALLPARK","EXIT_TO_ST":"NW CORNER OF NEW JERSEY AVENUE SE AND M STREET SE","LINE":"green","DESCRIPTION":"Metro Station Entrance","CAPTUREYEAR":1452229200000,"GIS_ID":"MetroEntFullPt_112"}},{"type":"Feature","geometry":{"type":"Point","coordinates":[-77.017538826506325,38.876989770910953]},"properties":{"NAME":"WATERFRONT","EXIT_TO_ST":"NE CORNER OF M STREET SW AND 4TH STREET SW","LINE":"green","DESCRIPTION":"Metro Station Entrance","CAPTUREYEAR":1452229200000,"GIS_ID":"MetroEntFullPt_116"}},{"type":"Feature","geometry":{"type":"Point","coordinates":[-76.912602251599552,38.827007776202102]},"properties":{"NAME":"BRANCH AVENUE","EXIT_TO_ST":"WEST SIDE OF OLD SOPER RD BETWEEN AUTH WAY AND CAPITAL GATEWAY DR","LINE":"green","DESCRIPTION":"Metro Station Entrance","CAPTUREYEAR":1452229200000,"GIS_ID":"MetroEntFullPt_117"}},{"type":"Feature","geometry":{"type":"Point","coordinates":[-76.928904043071398,38.978370730849974]},"properties":{"NAME":"COLLEGE PARK-U OF MD","EXIT_TO_ST":"NORTH SIDE OF CALVERT RD BETWEEN COLUMBIA AVE AND PAINT BRANCH PKY","LINE":"green","DESCRIPTION":"Metro Station Entrance","CAPTUREYEAR":1452229200000,"GIS_ID":"MetroEntFullPt_118"}},{"type":"Feature","geometry":{"type":"Point","coordinates":[-76.927902263509665,38.978207807340638]},"properties":{"NAME":"COLLEGE PARK-U OF MD","EXIT_TO_ST":"WEST SIDE OF RIVER RD BETWEEN COLUMBIA AVE AND PAINT BRANCH PKY","LINE":"green","DESCRIPTION":"Metro Station Entrance","CAPTUREYEAR":1452229200000,"GIS_ID":"MetroEntFullPt_119"}},{"type":"Feature","geometry":{"type":"Point","coordinates":[-77.003430473843537,38.907286970184408]},"properties":{"NAME":"NOMA-GALLAUDET U","EXIT_TO_ST":"EAST SIDE OF 2ND STREET NE AT INTERSECTION WITH N STREET NE ","LINE":"red","DESCRIPTION":"Metro Station Entrance","CAPTUREYEAR":1452229200000,"GIS_ID":"MetroEntFullPt_120"}},{"type":"Feature","geometry":{"type":"Point","coordinates":[-76.996074677042699,38.920478494095086]},"properties":{"NAME":"RHODE ISLAND AVE-BRENTWOOD","EXIT_TO_ST":"SOUTH SIDE OF RHODE ISLAND AVENUE NE AT RHODE ISLAND PLACE SHOPPING CENTER","LINE":"red","DESCRIPTION":"Metro Station Entrance","CAPTUREYEAR":1452229200000,"GIS_ID":"MetroEntFullPt_121"}},{"type":"Feature","geometry":{"type":"Point","coordinates":[-77.028566462273702,38.887383716291339]},"properties":{"NAME":"SMITHSONIAN","EXIT_TO_ST":"SW CORNER OF INDEPENDENCE AVENUE SW AND 12TH STREET SW","LINE":"blue, orange, silver","DESCRIPTION":"Metro Station Entrance","CAPTUREYEAR":1452229200000,"GIS_ID":"MetroEntFullPt_122"}},{"type":"Feature","geometry":{"type":"Point","coordinates":[-77.02087064959268,38.884490257976708]},"properties":{"NAME":"L'ENFANT PLAZA","EXIT_TO_ST":"SOUTH SIDE OF D STREET SW BETWEEN 6TH STREET SW AND 7TH STREET SW","LINE":"green, yellow, orange, blue, silver","DESCRIPTION":"Metro Station Entrance","CAPTUREYEAR":1452229200000,"GIS_ID":"MetroEntFullPt_123"}},{"type":"Feature","geometry":{"type":"Point","coordinates":[-76.955602271416254,38.964807803310904]},"properties":{"NAME":"HYATTSVILLE CROSSING","EXIT_TO_ST":"SW CORNER OF EAST-WEST HWY AND BELCREST CENTER DR ","LINE":"green","DESCRIPTION":"Metro Station Entrance","CAPTUREYEAR":1452229200000,"GIS_ID":"MetroEntFullPt_125"}},{"type":"Feature","geometry":{"type":"Point","coordinates":[-77.044332189690394,39.015827592352622]},"properties":{"NAME":"FOREST GLEN","EXIT_TO_ST":"SW CORNER OF FOREST GLEN RD AND GEORGIA AVE","LINE":"red","DESCRIPTION":"Metro Station Entrance","CAPTUREYEAR":1452229200000,"GIS_ID":"MetroEntFullPt_35"}},{"type":"Feature","geometry":{"type":"Point","coordinates":[-77.053184008722553,39.062319627166382]},"properties":{"NAME":"GLENMONT","EXIT_TO_ST":"EAST SIDE OF GEORGIA AVE ","LINE":"red","DESCRIPTION":"Metro Station Entrance","CAPTUREYEAR":1452229200000,"GIS_ID":"MetroEntFullPt_36"}},{"type":"Feature","geometry":{"type":"Point","coordinates":[-76.891202255603758,38.933407799416855]},"properties":{"NAME":"LANDOVER","EXIT_TO_ST":"EAST SIDE OF US-50 E","LINE":"orange","DESCRIPTION":"Metro Station Entrance","CAPTUREYEAR":1452229200000,"GIS_ID":"MetroEntFullPt_126"}},{"type":"Feature","geometry":{"type":"Point","coordinates":[-77.120702328982574,39.062107816315887]},"properties":{"NAME":"TWINBROOK","EXIT_TO_ST":"WEST SIDE OF CHAPMAN AVE ","LINE":"red","DESCRIPTION":"Metro Station Entrance","CAPTUREYEAR":1452229200000,"GIS_ID":"MetroEntFullPt_127"}},{"type":"Feature","geometry":{"type":"Point","coordinates":[-77.015987025909382,38.895321817777116]},"properties":{"NAME":"JUDICIARY SQUARE","EXIT_TO_ST":"NE CORNER OF 4TH STREET NW AND INDIANA AVENUE NW","LINE":"red","DESCRIPTION":"Metro Station Entrance","CAPTUREYEAR":1452229200000,"GIS_ID":"MetroEntFullPt_128"}},{"type":"Feature","geometry":{"type":"Point","coordinates":[-77.0536044013528,39.061790211684489]},"properties":{"NAME":"GLENMONT","EXIT_TO_ST":"WEST SIDE OF GEORGIA AVE ","LINE":"red","DESCRIPTION":"Metro Station Entrance","CAPTUREYEAR":1452229200000,"GIS_ID":"MetroEntFullPt_129"}},{"type":"Feature","geometry":{"type":"Point","coordinates":[-77.112552752602284,39.04742610788751]},"properties":{"NAME":"NORTH BETHESDA","EXIT_TO_ST":"NE CORNER OF ROCKVILLE PIKE AND MARINELLI RD ","LINE":"red","DESCRIPTION":"Metro Station Entrance","CAPTUREYEAR":1452229200000,"GIS_ID":"MetroEntFullPt_212"}},{"type":"Feature","geometry":{"type":"Point","coordinates":[-77.113202325414505,39.047207818847795]},"properties":{"NAME":"NORTH BETHESDA","EXIT_TO_ST":"NW CORNER OF ROCKVILLE PIKE AND MARINELLI RD ","LINE":"red","DESCRIPTION":"Metro Station Entrance","CAPTUREYEAR":1452229200000,"GIS_ID":"MetroEntFullPt_213"}},{"type":"Feature","geometry":{"type":"Point","coordinates":[-76.955602271575842,38.965807800149967]},"properties":{"NAME":"HYATTSVILLE CROSSING","EXIT_TO_ST":"SW CORNER OF EAST-WEST HWY AND BELCREST CENTER DR ","LINE":"green","DESCRIPTION":"Metro Station Entrance","CAPTUREYEAR":1452229200000,"GIS_ID":"MetroEntFullPt_221"}},{"type":"Feature","geometry":{"type":"Point","coordinates":[-76.844922195093204,38.899872841731195]},"properties":{"NAME":"DOWNTOWN LARGO","EXIT_TO_ST":"WEST SIDE OF LOTTSFORD RD BETWEEN GRAND BLVD AND N HARRY S TRUMAN DR","LINE":"silver, blue","DESCRIPTION":"Metro Station Entrance","CAPTUREYEAR":1452229200000,"GIS_ID":"MetroEntFullPt_222"}},{"type":"Feature","geometry":{"type":"Point","coordinates":[-77.164302355476991,39.120307827314363]},"properties":{"NAME":"SHADY GROVE","EXIT_TO_ST":"NE CORNER OF REDLAND RD AND SOMERVILLE DR ","LINE":"red","DESCRIPTION":"Metro Station Entrance","CAPTUREYEAR":1452229200000,"GIS_ID":"MetroEntFullPt_223"}},{"type":"Feature","geometry":{"type":"Point","coordinates":[-77.051102303100564,39.038307810913516]},"properties":{"NAME":"WHEATON","EXIT_TO_ST":"SW CORNER OF REEDIE DR AND GEORGIA AVE ","LINE":"red","DESCRIPTION":"Metro Station Entrance","CAPTUREYEAR":1452229200000,"GIS_ID":"MetroEntFullPt_224"}},{"type":"Feature","geometry":{"type":"Point","coordinates":[-77.044725729442163,38.911005806635607]},"properties":{"NAME":"DUPONT CIRCLE","EXIT_TO_ST":"SE CORNER OF 20TH STREET NW AND Q STREET NW","LINE":"red","DESCRIPTION":"Metro Station Entrance","CAPTUREYEAR":1452229200000,"GIS_ID":"MetroEntFullPt_226"}},{"type":"Feature","geometry":{"type":"Point","coordinates":[-77.039169086287728,38.90117667262993]},"properties":{"NAME":"FARRAGUT WEST","EXIT_TO_ST":"SE CORNER OF 17TH STREET NW AND I STREET NW","LINE":"blue, orange, silver","DESCRIPTION":"Metro Station Entrance","CAPTUREYEAR":1452229200000,"GIS_ID":"MetroEntFullPt_227"}},{"type":"Feature","geometry":{"type":"Point","coordinates":[-77.041970416454902,38.901629730071917]},"properties":{"NAME":"FARRAGUT WEST","EXIT_TO_ST":"NW CORNER OF 18TH STREET NW AND I STREET NW","LINE":"blue, orange, silver","DESCRIPTION":"Metro Station Entrance","CAPTUREYEAR":1452229200000,"GIS_ID":"MetroEntFullPt_228"}},{"type":"Feature","geometry":{"type":"Point","coordinates":[-77.01537732538344,38.884882182493627]},"properties":{"NAME":"FEDERAL CENTER SW","EXIT_TO_ST":"SE CORNER OF 3RD ST SW AND D ST SW","LINE":"blue, orange, silver","DESCRIPTION":"Metro Station Entrance","CAPTUREYEAR":1452229200000,"GIS_ID":"MetroEntFullPt_229"}},{"type":"Feature","geometry":{"type":"Point","coordinates":[-77.040130216697406,38.903589847487517]},"properties":{"NAME":"FARRAGUT NORTH","EXIT_TO_ST":"SW CORNER OF L STREET NW AND CONNECTICUT AVENUE NW","LINE":"red","DESCRIPTION":"Metro Station Entrance","CAPTUREYEAR":1452229200000,"GIS_ID":"MetroEntFullPt_230"}},{"type":"Feature","geometry":{"type":"Point","coordinates":[-77.039833840669999,38.903930455732905]},"properties":{"NAME":"FARRAGUT NORTH","EXIT_TO_ST":"NE CORNER OF L STREET NW AND CONNECTICUT AVENUE NW","LINE":"red","DESCRIPTION":"Metro Station Entrance","CAPTUREYEAR":1452229200000,"GIS_ID":"MetroEntFullPt_231"}},{"type":"Feature","geometry":{"type":"Point","coordinates":[-77.050464740231533,38.900902890117649]},"properties":{"NAME":"FOGGY BOTTOM-GWU","EXIT_TO_ST":"NW CORNER OF 23RD STREET NW AND I STREET NW","LINE":"blue, orange, silver","DESCRIPTION":"Metro Station Entrance","CAPTUREYEAR":1452229200000,"GIS_ID":"MetroEntFullPt_233"}},{"type":"Feature","geometry":{"type":"Point","coordinates":[-77.361163479222526,38.952303595676646]},"properties":{"NAME":"RESTON TOWN CENTER","EXIT_TO_ST":"SOUTH SIDE OF DULLES TOLL ROAD","LINE":"silver","DESCRIPTION":"Metro Station Entrance","CAPTUREYEAR":1669611600000,"GIS_ID":"MetroEntFullPt_235"}},{"type":"Feature","geometry":{"type":"Point","coordinates":[-77.359855800416497,38.953569525537617]},"properties":{"NAME":"RESTON TOWN CENTER","EXIT_TO_ST":"NORTH SIDE OF DULLES TOLL ROAD","LINE":"silver","DESCRIPTION":"Metro Station Entrance","CAPTUREYEAR":1669611600000,"GIS_ID":"MetroEntFullPt_236"}},{"type":"Feature","geometry":{"type":"Point","coordinates":[-77.384550364104967,38.951760420856424]},"properties":{"NAME":"HERNDON","EXIT_TO_ST":"SOUTH SIDE OF DULLES TOLL ROAD","LINE":"silver","DESCRIPTION":"Metro Station Entrance","CAPTUREYEAR":1669611600000,"GIS_ID":"MetroEntFullPt_238"}},{"type":"Feature","geometry":{"type":"Point","coordinates":[-77.384559967033368,38.953540403485157]},"properties":{"NAME":"HERNDON","EXIT_TO_ST":"NORTH SIDE OF DULLES TOLL ROAD","LINE":"silver","DESCRIPTION":"Metro Station Entrance","CAPTUREYEAR":1669611600000,"GIS_ID":"MetroEntFullPt_241"}},{"type":"Feature","geometry":{"type":"Point","coordinates":[-77.416833727454858,38.962039355366699]},"properties":{"NAME":"INNOVATION CENTER","EXIT_TO_ST":"NORTH SIDE OF DULLES TOLL ROAD","LINE":"silver","DESCRIPTION":"Metro Station Entrance","CAPTUREYEAR":1669611600000,"GIS_ID":"MetroEntFullPt_243"}},{"type":"Feature","geometry":{"type":"Point","coordinates":[-77.417216089243098,38.959946784065039]},"properties":{"NAME":"INNOVATION CENTER","EXIT_TO_ST":"SOUTH SIDE OF DULLES TOLL ROAD","LINE":"silver","DESCRIPTION":"Metro Station Entrance","CAPTUREYEAR":1669611600000,"GIS_ID":"MetroEntFullPt_244"}},{"type":"Feature","geometry":{"type":"Point","coordinates":[-77.459986501451638,38.993119599115801]},"properties":{"NAME":"LOUDOUN GATEWAY","EXIT_TO_ST":"NORTH SIDE OF DULLES TOLL ROAD","LINE":"silver","DESCRIPTION":"Metro Station Entrance","CAPTUREYEAR":1669611600000,"GIS_ID":"MetroEntFullPt_252"}},{"type":"Feature","geometry":{"type":"Point","coordinates":[-77.489925112834428,39.004953266497921]},"properties":{"NAME":"ASHBURN","EXIT_TO_ST":"NORTH SIDE OF DULLES TOLL ROAD","LINE":"silver","DESCRIPTION":"Metro Station Entrance","CAPTUREYEAR":1669611600000,"GIS_ID":"MetroEntFullPt_255"}},{"type":"Feature","geometry":{"type":"Point","coordinates":[-77.491928317392407,39.004549558384298]},"properties":{"NAME":"ASHBURN","EXIT_TO_ST":"SOUTH SIDE OF DULLES TOLL ROAD","LINE":"silver","DESCRIPTION":"Metro Station Entrance","CAPTUREYEAR":1669611600000,"GIS_ID":"MetroEntFullPt_258"}},{"type":"Feature","geometry":{"type":"Point","coordinates":[-76.895802249842419,38.886707788157253]},"properties":{"NAME":"ADDISON ROAD-SEAT PLEASANT","EXIT_TO_ST":"SW CORNER OF CENTRAL AVENUE AND ADDISON RD S ","LINE":"silver, blue","DESCRIPTION":"Metro Station Entrance","CAPTUREYEAR":1452229200000,"GIS_ID":"MetroEntFullPt_3"}},{"type":"Feature","geometry":{"type":"Point","coordinates":[-76.987620425593832,38.844654667790358]},"properties":{"NAME":"CONGRESS HEIGHTS","EXIT_TO_ST":"SOUTH SIDE OF ALABAMA AVENUE SE AT 13TH STREET SE","LINE":"green","DESCRIPTION":"Metro Station Entrance","CAPTUREYEAR":1452229200000,"GIS_ID":"MetroEntFullPt_9"}},{"type":"Feature","geometry":{"type":"Point","coordinates":[-76.975691477972944,38.84044612709507]},"properties":{"NAME":"SOUTHERN AVENUE","EXIT_TO_ST":"SW CORNER OF SOUTHERN AVE SE AND VALLEY TERRACE SE","LINE":"green","DESCRIPTION":"Metro Station Entrance","CAPTUREYEAR":1452229200000,"GIS_ID":"MetroEntFullPt_10"}},{"type":"Feature","geometry":{"type":"Point","coordinates":[-76.975802764446044,38.840599906469819]},"properties":{"NAME":"SOUTHERN AVENUE","EXIT_TO_ST":"SW CORNER OF SOUTHERN AVE SE AND VALLEY TERRACE SE","LINE":"green","DESCRIPTION":"Metro Station Entrance","CAPTUREYEAR":1452229200000,"GIS_ID":"MetroEntFullPt_11"}},{"type":"Feature","geometry":{"type":"Point","coordinates":[-76.956802265507591,38.851007778249617]},"properties":{"NAME":"NAYLOR ROAD","EXIT_TO_ST":"EAST SIDE OF NAYLOR RD BETWEEN SUITLAND PKY AND BRANCH AVE MD-5 N ","LINE":"green","DESCRIPTION":"Metro Station Entrance","CAPTUREYEAR":1452229200000,"GIS_ID":"MetroEntFullPt_12"}},{"type":"Feature","geometry":{"type":"Point","coordinates":[-76.937449251545928,38.890405232582786]},"properties":{"NAME":"BENNING ROAD","EXIT_TO_ST":"NE CORNER OF BENNING ROAD NE AND CENTRAL AVENUE NE","LINE":"blue, silver","DESCRIPTION":"Metro Station Entrance","CAPTUREYEAR":1452229200000,"GIS_ID":"MetroEntFullPt_13"}},{"type":"Feature","geometry":{"type":"Point","coordinates":[-76.913302250864703,38.889207789738677]},"properties":{"NAME":"CAPITOL HEIGHTS","EXIT_TO_ST":"NORTH SIDE OF DAVEY ST BETWEEN SOUTHERN AVE AND EAST CAPITOL ST ","LINE":"silver, blue","DESCRIPTION":"Metro Station Entrance","CAPTUREYEAR":1452229200000,"GIS_ID":"MetroEntFullPt_14"}},{"type":"Feature","geometry":{"type":"Point","coordinates":[-77.233005548174503,38.921114654188472]},"properties":{"NAME":"GREENSBORO","EXIT_TO_ST":"NORTH SIDE OF VA-7 W AND LEESBURG PIKE","LINE":"silver","DESCRIPTION":"Metro Station Entrance","CAPTUREYEAR":1452229200000,"GIS_ID":"MetroEntFullPt_15"}},{"type":"Feature","geometry":{"type":"Point","coordinates":[-77.188883445636534,38.900326403179712]},"properties":{"NAME":"WEST FALLS CHURCH","EXIT_TO_ST":"WEST SIDE OF DULLES TOLL RD BETWEEN I - 66 W AND I -66 E ","LINE":"orange","DESCRIPTION":"Metro Station Entrance","CAPTUREYEAR":1452229200000,"GIS_ID":"MetroEntFullPt_17"}},{"type":"Feature","geometry":{"type":"Point","coordinates":[-77.189002343451307,38.901107777794699]},"properties":{"NAME":"WEST FALLS CHURCH","EXIT_TO_ST":"WEST SIDE OF DULLES TOLL RD BETWEEN I - 66 W AND I -66 E ","LINE":"orange","DESCRIPTION":"Metro Station Entrance","CAPTUREYEAR":1452229200000,"GIS_ID":"MetroEntFullPt_18"}},{"type":"Feature","geometry":{"type":"Point","coordinates":[-76.946927004768128,38.898614873325585]},"properties":{"NAME":"MINNESOTA AVE","EXIT_TO_ST":"NW SIDE OF MINNESOTA AVENUE NE","LINE":"orange","DESCRIPTION":"Metro Station Entrance","CAPTUREYEAR":1452229200000,"GIS_ID":"MetroEntFullPt_20"}},{"type":"Feature","geometry":{"type":"Point","coordinates":[-76.946828576576522,38.899576975817496]},"properties":{"NAME":"MINNESOTA AVE","EXIT_TO_ST":"SW SIDE OF KENILWORTH AVENUE NE","LINE":"orange","DESCRIPTION":"Metro Station Entrance","CAPTUREYEAR":1452229200000,"GIS_ID":"MetroEntFullPt_21"}},{"type":"Feature","geometry":{"type":"Point","coordinates":[-77.05457957918658,38.869163272390203]},"properties":{"NAME":"PENTAGON","EXIT_TO_ST":"NW CORNER OF N ROTARY RD AND S EADS ST","LINE":"blue, yellow","DESCRIPTION":"Metro Station Entrance","CAPTUREYEAR":1452229200000,"GIS_ID":"MetroEntFullPt_22"}},{"type":"Feature","geometry":{"type":"Point","coordinates":[-77.053654826747874,38.869864510211237]},"properties":{"NAME":"PENTAGON","EXIT_TO_ST":"NW CORNER OF N ROTARY RD AND S EADS ST","LINE":"blue, yellow","DESCRIPTION":"Metro Station Entrance","CAPTUREYEAR":1452229200000,"GIS_ID":"MetroEntFullPt_23"}},{"type":"Feature","geometry":{"type":"Point","coordinates":[-77.070902298153968,38.800607765578867]},"properties":{"NAME":"EISENHOWER AVENUE","EXIT_TO_ST":"SOUTH SIDE OF EISENHOWER AVE","LINE":"yellow","DESCRIPTION":"Metro Station Entrance","CAPTUREYEAR":1452229200000,"GIS_ID":"MetroEntFullPt_24"}},{"type":"Feature","geometry":{"type":"Point","coordinates":[-77.075502299873406,38.792707762174309]},"properties":{"NAME":"HUNTINGTON","EXIT_TO_ST":"THE CLOSEST EXIT TO N KINGS HWY","LINE":"yellow","DESCRIPTION":"Metro Station Entrance","CAPTUREYEAR":1452229200000,"GIS_ID":"MetroEntFullPt_25"}},{"type":"Feature","geometry":{"type":"Point","coordinates":[-77.06120229432986,38.806307768279765]},"properties":{"NAME":"KING ST-OLD TOWN","EXIT_TO_ST":"NE CORNER OF CALLAHAN DR AND KING ST ","LINE":"blue, yellow","DESCRIPTION":"Metro Station Entrance","CAPTUREYEAR":1452229200000,"GIS_ID":"MetroEntFullPt_26"}},{"type":"Feature","geometry":{"type":"Point","coordinates":[-77.44934791095595,38.952924982270417]},"properties":{"NAME":"WASHINGTON DULLES INTERNATIONAL AIRPORT SOUTH ELEVATOR","EXIT_TO_ST":"DULLES AIRPORT MAIN TERMINAL","LINE":"silver","DESCRIPTION":"Metro Station Elevator","CAPTUREYEAR":1669611600000,"GIS_ID":"MetroEntFullPt_248"}},{"type":"Feature","geometry":{"type":"Point","coordinates":[-77.024673584586239,38.936810684078885]},"properties":{"NAME":"GEORGIA AVE-PETWORTH ELEVATOR","EXIT_TO_ST":"WEST SIDE OF GEORGIA AVENUE NW BETWEEN QUINCY STREET NW AND NEW HAMPSHIRE AVENUE NW","LINE":"green","DESCRIPTION":"Metro Station Elevator","CAPTUREYEAR":1452229200000,"GIS_ID":"MetroEntFullPt_47"}},{"type":"Feature","geometry":{"type":"Point","coordinates":[-77.032429688580365,38.92887625491305]},"properties":{"NAME":"COLUMBIA HEIGHTS","EXIT_TO_ST":"NE CORNER OF IRVING STREET NW AND 14TH STREET NW","LINE":"green","DESCRIPTION":"Metro Station Entrance","CAPTUREYEAR":1452229200000,"GIS_ID":"MetroEntFullPt_207"}},{"type":"Feature","geometry":{"type":"Point","coordinates":[-77.021619956872968,38.914229605575642]},"properties":{"NAME":"SHAW-HOWARD U ELEVATOR","EXIT_TO_ST":"NE CORNER OF S STREET NW AND 7TH STREET NW","LINE":"green","DESCRIPTION":"Metro Station Elevator","CAPTUREYEAR":1452229200000,"GIS_ID":"MetroEntFullPt_40"}},{"type":"Feature","geometry":{"type":"Point","coordinates":[-77.448282700295195,38.956141134459173]},"properties":{"NAME":"WASHINGTON DULLES INTERNATIONAL AIRPORT NORTH ELEVATOR","EXIT_TO_ST":"AIRPORT PARKING GARAGE","LINE":"silver","DESCRIPTION":"Metro Station Elevator","CAPTUREYEAR":1669611600000,"GIS_ID":"MetroEntFullPt_246"}},{"type":"Feature","geometry":{"type":"Point","coordinates":[-77.03282136259746,38.928564475940611]},"properties":{"NAME":"COLUMBIA HEIGHTS ELEVATOR","EXIT_TO_ST":"SW CORNER OF IRVING STREET NW AND 14TH STREET NW","LINE":"green","DESCRIPTION":"Metro Station Elevator","CAPTUREYEAR":1452229200000,"GIS_ID":"MetroEntFullPt_27"}},{"type":"Feature","geometry":{"type":"Point","coordinates":[-77.021684150448124,38.914505924419323]},"properties":{"NAME":"SHAW-HOWARD U","EXIT_TO_ST":"7TH ST NW BETWEEN S ST NW AND T ST NW","LINE":"green","DESCRIPTION":"Metro Station Entrance","CAPTUREYEAR":1452229200000,"GIS_ID":"MetroEntFullPt_114"}},{"type":"Feature","geometry":{"type":"Point","coordinates":[-77.029198356273909,38.916830744820913]},"properties":{"NAME":"U ST/AFRICAN AMER CIVIL WAR MEM/CARDOZO","EXIT_TO_ST":"SE CORNER  OF U STREET NW AND 13TH STREET NW","LINE":"green","DESCRIPTION":"Metro Station Entrance","CAPTUREYEAR":1452229200000,"GIS_ID":"MetroEntFullPt_124"}},{"type":"Feature","geometry":{"type":"Point","coordinates":[-77.44608418749236,38.952929625614523]},"properties":{"NAME":"WASHINGTON DULLES INTERNATIONAL AIRPORT","EXIT_TO_ST":"DULLES AIRPORT MAIN TERMINAL","LINE":"silver","DESCRIPTION":"Metro Station Entrance","CAPTUREYEAR":1669611600000,"GIS_ID":"MetroEntFullPt_251"}},{"type":"Feature","geometry":{"type":"Point","coordinates":[-77.024714767965804,38.937128794451731]},"properties":{"NAME":"GEORGIA AVE-PETWORTH","EXIT_TO_ST":"WEST SIDE OF GEORGIA AVENUE NW BETWEEN QUINCY STREET NW AND NEW HAMPSHIRE AVENUE NW","LINE":"green","DESCRIPTION":"Metro Station Entrance","CAPTUREYEAR":1452229200000,"GIS_ID":"MetroEntFullPt_48"}},{"type":"Feature","geometry":{"type":"Point","coordinates":[-77.446128499111794,38.952927528737277]},"properties":{"NAME":"WASHINGTON DULLES INTERNATIONAL AIRPORT SOUTH ELEVATOR","EXIT_TO_ST":"DULLES AIRPORT MAIN TERMINAL","LINE":"silver","DESCRIPTION":"Metro Station Elevator","CAPTUREYEAR":1669611600000,"GIS_ID":"MetroEntFullPt_249"}},{"type":"Feature","geometry":{"type":"Point","coordinates":[-77.024108151281254,38.937030739704305]},"properties":{"NAME":"GEORGIA AVE-PETWORTH","EXIT_TO_ST":"NE CORNER OF GEORGIA AVENUE NW AND NEW HAMPSHIRE AVE NW","LINE":"green","DESCRIPTION":"Metro Station Entrance","CAPTUREYEAR":1452229200000,"GIS_ID":"MetroEntFullPt_46"}},{"type":"Feature","geometry":{"type":"Point","coordinates":[-77.022598079568667,38.912781330066785]},"properties":{"NAME":"SHAW-HOWARD U","EXIT_TO_ST":"R ST NW BETWEEN 7TH ST NW AND 8TH ST NW","LINE":"green","DESCRIPTION":"Metro Station Entrance","CAPTUREYEAR":1452229200000,"GIS_ID":"MetroEntFullPt_113"}},{"type":"Feature","geometry":{"type":"Point","coordinates":[-77.028923033141524,38.916775258906682]},"properties":{"NAME":"U ST/AFRICAN AMER CIVIL WAR MEM/CARDOZO ELEV","EXIT_TO_ST":"U STREET NW BETWEEN 12TH ST NW AND 13TH STREET NW","LINE":"green","DESCRIPTION":"Metro Station Elevator","CAPTUREYEAR":1452229200000,"GIS_ID":"MetroEntFullPt_41"}},{"type":"Feature","geometry":{"type":"Point","coordinates":[-77.002491009070255,38.952653872494942]},"properties":{"NAME":"FORT TOTTEN","EXIT_TO_ST":"NORTH SIDE OF GALLOWAY STREET NE","LINE":"red, green","DESCRIPTION":"Metro Station Entrance","CAPTUREYEAR":1452229200000,"GIS_ID":"MetroEntFullPt_5"}},{"type":"Feature","geometry":{"type":"Point","coordinates":[-77.025975263862705,38.916721288840805]},"properties":{"NAME":"U ST/AFRICAN AMER CIVIL WAR MEM/CARDOZO","EXIT_TO_ST":"SW CORNER OF U STREET NW AND VERMONT AVENUE NW","LINE":"green","DESCRIPTION":"Metro Station Entrance","CAPTUREYEAR":1452229200000,"GIS_ID":"MetroEntFullPt_115"}},{"type":"Feature","geometry":{"type":"Point","coordinates":[-77.033032034666377,38.928618916880701]},"properties":{"NAME":"COLUMBIA HEIGHTS","EXIT_TO_ST":"SW CORNER OF IRVING STREET NW AND 14TH STREET NW","LINE":"green","DESCRIPTION":"Metro Station Entrance","CAPTUREYEAR":1452229200000,"GIS_ID":"MetroEntFullPt_99"}},{"type":"Feature","geometry":{"type":"Point","coordinates":[-77.448027717510101,38.956138355354277]},"properties":{"NAME":"WASHINGTON DULLES INTERNATIONAL AIRPORT NORTH ELEVATOR","EXIT_TO_ST":"AIRPORT PARKING GARAGE","LINE":"silver","DESCRIPTION":"Metro Station Elevator","CAPTUREYEAR":1669611600000,"GIS_ID":"MetroEntFullPt_247"}},{"type":"Feature","geometry":{"type":"Point","coordinates":[-77.449268802900576,38.952926880780858]},"properties":{"NAME":"WASHINGTON DULLES INTERNATIONAL AIRPORT","EXIT_TO_ST":"DULLES AIRPORT MAIN TERMINAL","LINE":"silver","DESCRIPTION":"Metro Station Entrance","CAPTUREYEAR":1669611600000,"GIS_ID":"MetroEntFullPt_250"}}]}