{"type":"FeatureCollection","features":[{"type":"Feature","id":1,"geometry":{"type":"MultiPolygon","coordinates":[[[[-77.003601241164787,38.892110390495354],[-77.00383070648131,38.892090177411028],[-77.003969133175573,38.89208923591621],[-77.004088529127685,38.892091799182381],[-77.004108509045409,38.89255735117721],[-77.003519295379888,38.892559054991104],[-77.003462558807968,38.893493801346345],[-77.003458684432431,38.893705552219792],[-77.003457521517603,38.894446094302772],[-77.003459205674687,38.894707832414412],[-77.003458822419944,38.894886648543611],[-77.00345780528275,38.895068068104308],[-77.003457230100011,38.895330274689115],[-77.003457007399888,38.89572988587728],[-77.003458981842684,38.896034260520331],[-77.00345833429266,38.896230534829215],[-77.003456257951399,38.896677737204158],[-77.003457856441216,38.896835942072059],[-77.003447639444374,38.897240976484298],[-77.003605052561454,38.89727459995526],[-77.004563932235826,38.897290754443191],[-77.004703081510726,38.897256120767643],[-77.004914754596413,38.896761723964154],[-77.004977203236606,38.89664300907701],[-77.005165870286675,38.896559610440939],[-77.005285824104831,38.896521896053144],[-77.005399550412577,38.896451625595333],[-77.005461736201724,38.896376808223074],[-77.005565264692478,38.896216643591139],[-77.005628022646789,38.896093234970742],[-77.005729272216527,38.895843310927127],[-77.006129005169441,38.895762107227355],[-77.00624894757145,38.895746777638138],[-77.006414896934899,38.895739661038412],[-77.006665321291493,38.895748222979279],[-77.006965549900187,38.895811570311942],[-77.007044966556307,38.895847833233724],[-77.007128071784948,38.895880915922703],[-77.007237035081772,38.895931049791294],[-77.007371546760183,38.896012017587388],[-77.007569893781422,38.896158147630821],[-77.007696435194831,38.896294895370239],[-77.007774044117483,38.896447834270596],[-77.007893849184526,38.896746732819857],[-77.008039209245169,38.896917098119609],[-77.00815153310586,38.897000291594971],[-77.008250942879329,38.897054974398742],[-77.008458290853426,38.897142791124807],[-77.008795067449896,38.897279981662074],[-77.009150416768449,38.89741854805132],[-77.009149739925391,38.897264523086143],[-77.009149391833901,38.897157053320988],[-77.009149397728237,38.897023279099976],[-77.009149451559225,38.896903738089243],[-77.009149009611065,38.896783503470637],[-77.009149616448809,38.896661458085788],[-77.009149683773742,38.896557249305047],[-77.009149705217965,38.896454833190738],[-77.009149397764432,38.896304672759285],[-77.009154029322957,38.896015467797838],[-77.009154535178396,38.895286411581878],[-77.009505038733167,38.895029996416767],[-77.009617074265051,38.894950497402299],[-77.009711242728102,38.894875395850121],[-77.010724668723881,38.89485886691417],[-77.010818616647384,38.894858227663669],[-77.011090293841264,38.894859967822335],[-77.01102880837712,38.894720560130182],[-77.010802165617378,38.894087301955913],[-77.011288006514917,38.893737776290436],[-77.011359945515082,38.893651892519557],[-77.011614826402564,38.893461898928742],[-77.012048907578404,38.893142670348062],[-77.012268700505786,38.892976244827857],[-77.012269990730033,38.893105577882473],[-77.012445144449046,38.892971839082726],[-77.013150470831135,38.892456086544833],[-77.013340513308009,38.89231794862355],[-77.013593103451257,38.892317955532206],[-77.013579380200227,38.892224963696393],[-77.01373660471026,38.892209712151811],[-77.015039309758464,38.892208993151563],[-77.015058802068822,38.891937217031327],[-77.015053136805307,38.891583134628306],[-77.01504314727255,38.89122059389625],[-77.01505738975888,38.890761894622514],[-77.015038683334254,38.888362876125875],[-77.01504416757048,38.888133395968175],[-77.015057954613127,38.887704198948583],[-77.015053479242809,38.887470540159114],[-77.01492904254934,38.887469808436741],[-77.01476583185709,38.887469252649822],[-77.014661335667327,38.887469608133429],[-77.013993805736078,38.887452871381072],[-77.01392497098746,38.887391397412138],[-77.013646946789407,38.887081046472375],[-77.013396983194667,38.886852091373171],[-77.013188202222054,38.886677361544344],[-77.013036613377707,38.886560350677676],[-77.012828379720233,38.886407069093529],[-77.012501678175155,38.886160518076977],[-77.012372417189695,38.886042864350408],[-77.012251654200057,38.885942478657022],[-77.012151746397819,38.885868395146886],[-77.011858121120056,38.885644314777295],[-77.011671668369388,38.885511622057855],[-77.011334624210704,38.88526173567044],[-77.011207298012337,38.885184987520255],[-77.011088234782093,38.885099896682284],[-77.010933076451948,38.884961398396285],[-77.011225234546075,38.88490716722935],[-77.011506570502632,38.884859035074179],[-77.011632710215238,38.884800107742194],[-77.011785465654185,38.884689721696866],[-77.011870864107721,38.884577531630697],[-77.011912722419808,38.884490290167854],[-77.01193130951269,38.884398393733491],[-77.011980011987873,38.884025306461851],[-77.012015529462246,38.883656625603912],[-77.01202617139721,38.883542713461615],[-77.011808047567371,38.883524250512068],[-77.011110008040262,38.883626483120963],[-77.010637034236979,38.883705008223941],[-77.010172132244534,38.88381824001933],[-77.009810746289318,38.883892076647378],[-77.009700541951545,38.883832171078851],[-77.00961293733441,38.883756579947111],[-77.009539520678672,38.883679591290644],[-77.009467440000506,38.883593981452819],[-77.009237563217411,38.88332853171817],[-77.009226135043605,38.883457262468411],[-77.009200687107239,38.883996659618617],[-77.009197472773323,38.884096220550916],[-77.009162930071511,38.884182820877186],[-77.009140665819601,38.885017971965546],[-77.00914701937343,38.885130098825101],[-77.00897748045621,38.885082160353988],[-77.007351440203294,38.885028097623596],[-77.007382870042306,38.88513025071618],[-77.007166680721937,38.885129975916939],[-77.007106460284248,38.885032644007516],[-77.006825404231222,38.885032813917284],[-77.006026206735115,38.885031326474675],[-77.005996041466034,38.885140933036645],[-77.005815699161943,38.885163012699465],[-77.005796968150008,38.885994307241219],[-77.005703298276572,38.886011535881842],[-77.004563763607379,38.886010694156063],[-77.003598419812604,38.885997872940891],[-77.003463127550631,38.885980103494141],[-77.003465210656515,38.886153749013594],[-77.003436119448807,38.887834479559729],[-77.003095294401561,38.887697012210232],[-77.002988318589487,38.887671187972678],[-77.002891936102614,38.887661902760726],[-77.002761908958277,38.887660248368057],[-77.002568015157209,38.887659072697545],[-77.0021204762769,38.887674449983848],[-77.002118595963495,38.889173705491281],[-77.002388061205622,38.88917344805364],[-77.002623615738798,38.889175812199433],[-77.003092557707305,38.889176557420441],[-77.003464539326146,38.889179519737596],[-77.003467113200429,38.889251019153704],[-77.00346523224087,38.890867076858378],[-77.003464110993079,38.891039371067755],[-77.003456576795088,38.891841269720224],[-77.003433420001414,38.892095216443245],[-77.003447865963821,38.892151761574311],[-77.003519295379888,38.892559054991104],[-77.003601241164787,38.892110390495354]],[[-77.010796890577979,38.894725824670694],[-77.009926422040607,38.894695012201012],[-77.0100703585411,38.894575341713775],[-77.010391867835224,38.894343816476088],[-77.010591004843008,38.894210267525807],[-77.010796890577979,38.894725824670694]],[[-77.005845196363296,38.891243306817117],[-77.005844480153385,38.891365055030789],[-77.005844843117686,38.891855741130819],[-77.005820021961156,38.891950600541286],[-77.005381424717413,38.891965071009125],[-77.005237730304202,38.891963474052773],[-77.004917686087026,38.891964433849829],[-77.004791662403818,38.89196262840666],[-77.00458795761439,38.891939692262191],[-77.004526323877826,38.891766896050086],[-77.004558963101076,38.891690909149261],[-77.00465964431028,38.891601415990408],[-77.004779992141863,38.891543460256813],[-77.004935150450564,38.891480854611551],[-77.005271723403396,38.891343543271581],[-77.005565059533041,38.891224204733994],[-77.005813628520357,38.891151071647528],[-77.005845196363296,38.891243306817117]]],[[[-77.0175821557783,38.816134223126518],[-77.017412045529554,38.816164201854058],[-77.017132577152879,38.816228897131488],[-77.016680968820822,38.816364603345818],[-77.01635087750816,38.816467166640834],[-77.015951926937149,38.816620221987968],[-77.015735235939502,38.816694382240065],[-77.015525633809716,38.816751181794743],[-77.015407161534441,38.816765385864187],[-77.01521729777167,38.816779986511612],[-77.015105417589865,38.816875842323611],[-77.014961628545024,38.817131458592733],[-77.014755067828276,38.817483329275809],[-77.014471542459404,38.817964579979026],[-77.014234607870804,38.818354316112632],[-77.01333796569044,38.819882458781123],[-77.014416993824312,38.819892320844282],[-77.015059340876988,38.819904644382298],[-77.016571874277076,38.82006735773075],[-77.017627753025181,38.817110564907146],[-77.017960867298385,38.816340928211169],[-77.018017562393553,38.816236790380898],[-77.017980287084498,38.816136162333613],[-77.01785353410267,38.816091616817673],[-77.0175821557783,38.816134223126518]]],[[[-77.014919735650835,38.886121894514012],[-77.015296288421396,38.886121368356541],[-77.015294281281427,38.885952506486106],[-77.015283400449746,38.885197632406211],[-77.015267158644519,38.88497310055498],[-77.015268155885892,38.884139590593335],[-77.015267514860142,38.88399862745657],[-77.015118122650136,38.883957199308334],[-77.014584446441631,38.883814114914301],[-77.014029252015462,38.883660130517988],[-77.013773048540273,38.88359055321375],[-77.013623555979194,38.883557798239202],[-77.013609861285858,38.883726707081372],[-77.013428691687452,38.883730817862364],[-77.013304336304103,38.883760208443675],[-77.01321079196066,38.883807296889714],[-77.013122335101016,38.883880608100704],[-77.0130516558323,38.883982852193711],[-77.013028041745258,38.88405627317492],[-77.013015284589912,38.884191967910525],[-77.013012973806852,38.884413709573998],[-77.013019747000371,38.884518620472079],[-77.013032078858103,38.884641331316189],[-77.013045213807004,38.884743520966381],[-77.013109147607679,38.884934815860895],[-77.013212457335371,38.88502042891114],[-77.013108994151835,38.885040556293028],[-77.013129760774689,38.88515042922127],[-77.013177039870811,38.885276748464086],[-77.013285924584906,38.885526052153175],[-77.013431857808612,38.885732813889689],[-77.013543886635745,38.885717937118656],[-77.013566186135407,38.885822891201528],[-77.013561282509912,38.885977871989908],[-77.013554658623704,38.886117736907721],[-77.013739010742754,38.886149091561315],[-77.013817025917476,38.886128282001941],[-77.014083758294831,38.886121953280032],[-77.014378891797307,38.886121710122168],[-77.014577587361472,38.886120054971805],[-77.014750834197216,38.88612122232427],[-77.014919735650835,38.886121894514012]],[[-77.013541271808037,38.885118888919109],[-77.013444276456624,38.885088001368302],[-77.013328008426143,38.885048242679517],[-77.013524876225659,38.885026933233526],[-77.013541271808037,38.885118888919109]]],[[[-77.008912004210302,38.883158730907638],[-77.008920847188293,38.882352767797173],[-77.008756093955427,38.882271578654425],[-77.006076506908897,38.881533592444029],[-77.006259415280823,38.882096120653252],[-77.00658478837407,38.882994734507243],[-77.006660768329823,38.883163187038669],[-77.006756028374184,38.883184243174497],[-77.006962553430071,38.883184348150934],[-77.007771503854912,38.883185747461539],[-77.007951831472951,38.883185573169349],[-77.008366956111814,38.883185174817442],[-77.008772645597972,38.883219079637172],[-77.008912004210302,38.883158730907638]]],[[[-77.008003836217071,38.881557970044071],[-77.007994943129106,38.8810828681654],[-77.007989566116777,38.879380192420996],[-77.007326840329867,38.879380046713109],[-77.007385600000418,38.880439015545619],[-77.007413258251844,38.880975886867589],[-77.007572001284373,38.881372579160605],[-77.007655188849313,38.881468558129825],[-77.008003836217071,38.881557970044071]]],[[[-77.003405320184598,38.884189589771083],[-77.003396406063345,38.883362854403615],[-77.002182493251652,38.883353073283807],[-77.002167823773917,38.884192952419916],[-77.00282645727529,38.884211477583897],[-77.003405320184598,38.884189589771083]]],[[[-77.007501051088624,38.88377287773735],[-77.007488611157484,38.884175463298483],[-77.0077937887378,38.884191262052553],[-77.007954260303194,38.884191854793173],[-77.008070784091188,38.88418793715806],[-77.008169377707389,38.884116007351594],[-77.008270251985437,38.884033627572009],[-77.008356294025333,38.883963581246725],[-77.008612471183937,38.883752397056298],[-77.008681327324624,38.88367728904128],[-77.00826477159687,38.883387384347451],[-77.008080495535324,38.883536233809075],[-77.008044125889271,38.883682271272278],[-77.007801017419112,38.883683557949581],[-77.00779877217559,38.883493210894208],[-77.007800451668487,38.883358238124252],[-77.00759387828748,38.883341991603409],[-77.00741680176543,38.883354668777358],[-77.007401905040368,38.883521189750184],[-77.007501051088624,38.88377287773735]]],[[[-77.005952956997746,38.882090263211325],[-77.005952498577528,38.88267374555398],[-77.00595252435987,38.882982688205871],[-77.005970681243127,38.88317181836851],[-77.006403636201,38.883176732021582],[-77.006458446909676,38.883127471141897],[-77.006416535167617,38.882942252001598],[-77.006336909456593,38.882722730952715],[-77.00611035803766,38.882090219046233],[-77.005952956997746,38.882090263211325]]],[[[-76.998354541995894,38.889711891650478],[-76.998313128372317,38.889172604560862],[-76.998149349157345,38.889170620240634],[-76.997965767549417,38.889167572359341],[-76.997684221240306,38.889209735337211],[-76.997683870209173,38.889371219503843],[-76.997681395919017,38.889606022803974],[-76.997682913959068,38.88971265499066],[-76.998085063211974,38.889710923651933],[-76.998354541995894,38.889711891650478]]],[[[-77.000705314146828,38.893698754981138],[-77.00068569570206,38.89378281220192],[-77.000699633469836,38.893924585848559],[-77.000768474560161,38.893977518596913],[-77.001220460075245,38.894160835066735],[-77.00129190394604,38.894048662076955],[-77.001428003599457,38.893929326613453],[-77.0015964389044,38.893913757966537],[-77.001582428189579,38.893681765598387],[-77.000796413054658,38.893665567557292],[-77.000705314146828,38.893698754981138]]],[[[-77.002782931021045,38.891454639317224],[-77.002794244296226,38.891006031013163],[-77.002368077239808,38.890995311463563],[-77.002107630977278,38.891009882999739],[-77.002119660007907,38.891233092285525],[-77.002256379570809,38.891247070719103],[-77.002490836254296,38.891303215147516],[-77.002584769036432,38.891330004009937],[-77.002585511331915,38.891456301398115],[-77.002782931021045,38.891454639317224]]],[[[-77.010804169183984,38.878548419104476],[-77.010792823908005,38.878820473656177],[-77.011575909322019,38.878821110312686],[-77.011576322559975,38.87852681504328],[-77.010804169183984,38.878548419104476]]],[[[-77.008772645597972,38.883219079637172],[-77.008396173317152,38.883284093817835],[-77.008880657461631,38.883642042252831],[-77.008939873368803,38.883531081438399],[-77.008925687757824,38.883273298528692],[-77.008772645597972,38.883219079637172]]]]},"properties":{"GIS_ID":"AOCPly_1","WEB_URL":"https://www.aoc.gov","SHAPE.AREA":0,"SHAPE.LEN":0,"GLOBALID":"{7FBD3C43-D513-457B-A4F4-CBBE263A5F23}","CREATED":null,"EDITED":null,"OBJECTID":1}}]}