{
 "type": "FeatureCollection",
 "features": [
  {
   "type": "Feature",
   "properties": {
    "name": "National Mall",
    "source": "OpenStreetMap way 1558212097",
    "licence": "ODbL 1.0, (c) OpenStreetMap contributors"
   },
   "geometry": {
    "type": "MultiPolygon",
    "coordinates": [
     [
      [
       [
        -77.0317707,
        38.8919863
       ],
       [
        -77.0317687,
        38.888201
       ],
       [
        -77.0303548,
        38.8882013
       ],
       [
        -77.0303547,
        38.8882636
       ],
       [
        -77.030267,
        38.8882637
       ],
       [
        -77.0302668,
        38.8882949
       ],
       [
        -77.0298001,
        38.8882948
       ],
       [
        -77.0297997,
        38.888267
       ],
       [
        -77.0297003,
        38.8882668
       ],
       [
        -77.0297001,
        38.8882077
       ],
       [
        -77.0282226,
        38.8882082
       ],
       [
        -77.0282222,
        38.8877252
       ],
       [
        -77.0197614,
        38.8877269
       ],
       [
        -77.019761,
        38.8876858
       ],
       [
        -77.0177554,
        38.887686
       ],
       [
        -77.0173687,
        38.8877253
       ],
       [
        -77.0162431,
        38.8879651
       ],
       [
        -77.0151462,
        38.8883436
       ],
       [
        -77.0149897,
        38.888439
       ],
       [
        -77.0127328,
        38.8890719
       ],
       [
        -77.0126943,
        38.8905135
       ],
       [
        -77.0173693,
        38.8918096
       ],
       [
        -77.017756,
        38.8919656
       ],
       [
        -77.0194011,
        38.8919655
       ],
       [
        -77.0194954,
        38.8919655
       ],
       [
        -77.0199179,
        38.8919697
       ],
       [
        -77.0216929,
        38.8919732
       ],
       [
        -77.0221493,
        38.8919249
       ],
       [
        -77.0238708,
        38.8919246
       ],
       [
        -77.0240458,
        38.8919762
       ],
       [
        -77.0317707,
        38.8919863
       ]
      ]
     ]
    ]
   }
  },
  {
   "type": "Feature",
   "properties": {
    "name": "The White House and President's Park",
    "source": "OpenStreetMap relation 7399196",
    "licence": "ODbL 1.0, (c) OpenStreetMap contributors"
   },
   "geometry": {
    "type": "MultiPolygon",
    "coordinates": [
     [
      [
       [
        -77.0393256,
        38.8963344
       ],
       [
        -77.039324,
        38.8922072
       ],
       [
        -77.0338211,
        38.8922091
       ],
       [
        -77.0338232,
        38.8965057
       ],
       [
        -77.0349713,
        38.8965054
       ],
       [
        -77.0349724,
        38.8985357
       ],
       [
        -77.0380699,
        38.8985348
       ],
       [
        -77.0380689,
        38.8964702
       ],
       [
        -77.0378666,
        38.8964701
       ],
       [
        -77.0378699,
        38.896428
       ],
       [
        -77.0378711,
        38.896387
       ],
       [
        -77.0378705,
        38.8963445
       ],
       [
        -77.0378669,
        38.8962931
       ],
       [
        -77.0378643,
        38.8962693
       ],
       [
        -77.0378597,
        38.896237
       ],
       [
        -77.037858,
        38.8962264
       ],
       [
        -77.0378507,
        38.8961883
       ],
       [
        -77.0378416,
        38.8961496
       ],
       [
        -77.0378302,
        38.8961103
       ],
       [
        -77.0378174,
        38.8960709
       ],
       [
        -77.0378014,
        38.8960295
       ],
       [
        -77.0377866,
        38.8959947
       ],
       [
        -77.037768,
        38.8959561
       ],
       [
        -77.03775,
        38.895922
       ],
       [
        -77.037732,
        38.8958909
       ],
       [
        -77.0377218,
        38.895874
       ],
       [
        -77.037701,
        38.895842
       ],
       [
        -77.0376807,
        38.8958125
       ],
       [
        -77.0376534,
        38.895777
       ],
       [
        -77.0376323,
        38.8957504
       ],
       [
        -77.0376093,
        38.8957237
       ],
       [
        -77.0375774,
        38.8956889
       ],
       [
        -77.0375434,
        38.8956547
       ],
       [
        -77.0375115,
        38.8956248
       ],
       [
        -77.0374664,
        38.8955857
       ],
       [
        -77.0377046,
        38.8955857
       ],
       [
        -77.0377627,
        38.8956478
       ],
       [
        -77.0378229,
        38.8957207
       ],
       [
        -77.0378666,
        38.8957804
       ],
       [
        -77.0379038,
        38.8958374
       ],
       [
        -77.0379281,
        38.8958797
       ],
       [
        -77.0379508,
        38.8959207
       ],
       [
        -77.037981,
        38.8959835
       ],
       [
        -77.038006,
        38.8960435
       ],
       [
        -77.0380293,
        38.8961092
       ],
       [
        -77.0380438,
        38.8961588
       ],
       [
        -77.038055,
        38.8962033
       ],
       [
        -77.0380605,
        38.8962164
       ],
       [
        -77.0380736,
        38.8962392
       ],
       [
        -77.0380912,
        38.8962605
       ],
       [
        -77.0381131,
        38.8962805
       ],
       [
        -77.0381251,
        38.8962889
       ],
       [
        -77.0381498,
        38.896304
       ],
       [
        -77.0381782,
        38.8963166
       ],
       [
        -77.0382082,
        38.8963259
       ],
       [
        -77.0382398,
        38.8963319
       ],
       [
        -77.0382715,
        38.8963346
       ],
       [
        -77.0393256,
        38.8963344
       ]
      ]
     ]
    ]
   }
  },
  {
   "type": "Feature",
   "properties": {
    "name": "Washington Monument Grounds",
    "source": "OpenStreetMap way 1552426509",
    "licence": "ODbL 1.0, (c) OpenStreetMap contributors"
   },
   "geometry": {
    "type": "MultiPolygon",
    "coordinates": [
     [
      [
       [
        -77.0393237,
        38.8919873
       ],
       [
        -77.0393219,
        38.8888103
       ],
       [
        -77.0393228,
        38.8887862
       ],
       [
        -77.039323,
        38.8887778
       ],
       [
        -77.0393228,
        38.8887497
       ],
       [
        -77.0393208,
        38.8887168
       ],
       [
        -77.0393185,
        38.8886921
       ],
       [
        -77.0393151,
        38.8886666
       ],
       [
        -77.0393071,
        38.8886234
       ],
       [
        -77.0392998,
        38.8885939
       ],
       [
        -77.0392845,
        38.888543
       ],
       [
        -77.0392715,
        38.8885088
       ],
       [
        -77.0392614,
        38.8884845
       ],
       [
        -77.0392461,
        38.8884528
       ],
       [
        -77.0392263,
        38.8884155
       ],
       [
        -77.0392129,
        38.8883936
       ],
       [
        -77.0392014,
        38.8883746
       ],
       [
        -77.0391798,
        38.8883437
       ],
       [
        -77.0391557,
        38.8883117
       ],
       [
        -77.0391277,
        38.888278
       ],
       [
        -77.0391095,
        38.8882582
       ],
       [
        -77.0391034,
        38.8882516
       ],
       [
        -77.0390899,
        38.8882376
       ],
       [
        -77.039076,
        38.8882238
       ],
       [
        -77.0390505,
        38.8882
       ],
       [
        -77.0390264,
        38.8881789
       ],
       [
        -77.0389943,
        38.8881528
       ],
       [
        -77.0389705,
        38.8881349
       ],
       [
        -77.0389587,
        38.8881266
       ],
       [
        -77.0389403,
        38.8881137
       ],
       [
        -77.0389114,
        38.8880947
       ],
       [
        -77.0388822,
        38.8880766
       ],
       [
        -77.0388541,
        38.8880606
       ],
       [
        -77.0388215,
        38.8880431
       ],
       [
        -77.0387851,
        38.8880251
       ],
       [
        -77.0387552,
        38.8880116
       ],
       [
        -77.0387551,
        38.8878783
       ],
       [
        -77.0387446,
        38.8878765
       ],
       [
        -77.0387584,
        38.8878271
       ],
       [
        -77.0387445,
        38.8878035
       ],
       [
        -77.0387117,
        38.8877835
       ],
       [
        -77.0383497,
        38.8877028
       ],
       [
        -77.038103,
        38.8876223
       ],
       [
        -77.0379257,
        38.8875539
       ],
       [
        -77.0378555,
        38.8875109
       ],
       [
        -77.0378078,
        38.8874627
       ],
       [
        -77.0377753,
        38.8873993
       ],
       [
        -77.0377725,
        38.8873333
       ],
       [
        -77.0377962,
        38.887262
       ],
       [
        -77.0378383,
        38.8872039
       ],
       [
        -77.037902,
        38.8871586
       ],
       [
        -77.0379965,
        38.8871196
       ],
       [
        -77.0380677,
        38.8870944
       ],
       [
        -77.0381052,
        38.887056
       ],
       [
        -77.0381145,
        38.8870414
       ],
       [
        -77.0381196,
        38.8870052
       ],
       [
        -77.0381195,
        38.8869893
       ],
       [
        -77.038119,
        38.8868766
       ],
       [
        -77.0381188,
        38.8868485
       ],
       [
        -77.0381178,
        38.8868386
       ],
       [
        -77.0381075,
        38.8867991
       ],
       [
        -77.0380824,
        38.8867583
       ],
       [
        -77.0380013,
        38.8866946
       ],
       [
        -77.0378746,
        38.886618
       ],
       [
        -77.0377595,
        38.8865611
       ],
       [
        -77.0375459,
        38.8864884
       ],
       [
        -77.0374758,
        38.8864454
       ],
       [
        -77.0370847,
        38.8861024
       ],
       [
        -77.0370062,
        38.8860011
       ],
       [
        -77.0369406,
        38.8858812
       ],
       [
        -77.0368783,
        38.8857277
       ],
       [
        -77.0367823,
        38.8854476
       ],
       [
        -77.0366584,
        38.8852519
       ],
       [
        -77.0365599,
        38.8851502
       ],
       [
        -77.0364566,
        38.8850718
       ],
       [
        -77.0363084,
        38.8849901
       ],
       [
        -77.0361836,
        38.8849635
       ],
       [
        -77.0360804,
        38.8849469
       ],
       [
        -77.0358765,
        38.8849515
       ],
       [
        -77.0355335,
        38.8849673
       ],
       [
        -77.0353046,
        38.8849644
       ],
       [
        -77.0351807,
        38.8849554
       ],
       [
        -77.0349941,
        38.8849101
       ],
       [
        -77.03476,
        38.8848314
       ],
       [
        -77.0346287,
        38.884773
       ],
       [
        -77.0345887,
        38.8847552
       ],
       [
        -77.0343668,
        38.884649
       ],
       [
        -77.0343047,
        38.8846182
       ],
       [
        -77.0342319,
        38.8845644
       ],
       [
        -77.0340848,
        38.8844492
       ],
       [
        -77.033972,
        38.8843527
       ],
       [
        -77.0338503,
        38.8842276
       ],
       [
        -77.0337195,
        38.8840864
       ],
       [
        -77.0336362,
        38.8839888
       ],
       [
        -77.0335517,
        38.8838707
       ],
       [
        -77.0334682,
        38.8837365
       ],
       [
        -77.033353,
        38.8835387
       ],
       [
        -77.0331483,
        38.8831659
       ],
       [
        -77.0330582,
        38.8829418
       ],
       [
        -77.0330646,
        38.8829324
       ],
       [
        -77.0328505,
        38.8828396
       ],
       [
        -77.0327985,
        38.8827977
       ],
       [
        -77.0325861,
        38.883092
       ],
       [
        -77.032386,
        38.8834446
       ],
       [
        -77.0322875,
        38.8837203
       ],
       [
        -77.0330334,
        38.8841557
       ],
       [
        -77.0333866,
        38.8844061
       ],
       [
        -77.0334706,
        38.88454
       ],
       [
        -77.0335569,
        38.8879115
       ],
       [
        -77.0334694,
        38.887912
       ],
       [
        -77.0333348,
        38.8879085
       ],
       [
        -77.0332333,
        38.8879064
       ],
       [
        -77.0331069,
        38.8878977
       ],
       [
        -77.0329804,
        38.8878869
       ],
       [
        -77.0328653,
        38.8878733
       ],
       [
        -77.0322006,
        38.8877115
       ],
       [
        -77.0321036,
        38.8877267
       ],
       [
        -77.0320832,
        38.8877703
       ],
       [
        -77.0320714,
        38.8903734
       ],
       [
        -77.0330943,
        38.8900838
       ],
       [
        -77.0331769,
        38.8902199
       ],
       [
        -77.0333027,
        38.8903348
       ],
       [
        -77.0335667,
        38.8906725
       ],
       [
        -77.0335811,
        38.8907973
       ],
       [
        -77.0337313,
        38.8911285
       ],
       [
        -77.0337454,
        38.8919917
       ],
       [
        -77.0393237,
        38.8919873
       ]
      ]
     ]
    ]
   }
  }
 ]
}