{
 "type": "FeatureCollection",
 "name": "national-zoo",
 "features": [
  {
   "type": "Feature",
   "properties": {
    "name": "National Zoological Park",
    "tourism": "zoo",
    "osmium_area_id": 21022241,
    "operator": "Smithsonian Institute",
    "source": "OpenStreetMap, ODbL; the standard extract of 2026-10-03"
   },
   "geometry": {
    "type": "Polygon",
    "coordinates": [
     [
      [
       -77.0555222,
       38.9307215
      ],
      [
       -77.0554106,
       38.9305145
      ],
      [
       -77.0551789,
       38.9300672
      ],
      [
       -77.0546038,
       38.9291191
      ],
      [
       -77.0540459,
       38.929266
      ],
      [
       -77.0539153,
       38.9291452
      ],
      [
       -77.0538253,
       38.9290101
      ],
      [
       -77.0537012,
       38.9288752
      ],
      [
       -77.0534807,
       38.9286919
      ],
      [
       -77.0532265,
       38.9285031
      ],
      [
       -77.052355,
       38.9280174
      ],
      [
       -77.0521147,
       38.9280374
      ],
      [
       -77.0517714,
       38.9279639
      ],
      [
       -77.0514624,
       38.9277837
      ],
      [
       -77.0514967,
       38.9274698
      ],
      [
       -77.0511448,
       38.9271493
      ],
      [
       -77.05075,
       38.9264816
      ],
      [
       -77.0501749,
       38.9255334
      ],
      [
       -77.0497801,
       38.9248323
      ],
      [
       -77.0495913,
       38.924218
      ],
      [
       -77.049557,
       38.9236237
      ],
      [
       -77.0492823,
       38.923617
      ],
      [
       -77.0490763,
       38.9237906
      ],
      [
       -77.0488532,
       38.9240043
      ],
      [
       -77.0485527,
       38.9242514
      ],
      [
       -77.0484412,
       38.9243182
      ],
      [
       -77.0478833,
       38.9247922
      ],
      [
       -77.0475829,
       38.9250527
      ],
      [
       -77.0471966,
       38.9253064
      ],
      [
       -77.046819,
       38.9254867
      ],
      [
       -77.0463211,
       38.9257137
      ],
      [
       -77.0460722,
       38.9259341
      ],
      [
       -77.0458405,
       38.9261144
      ],
      [
       -77.0454285,
       38.9263881
      ],
      [
       -77.045274,
       38.9264549
      ],
      [
       -77.0449736,
       38.9266018
      ],
      [
       -77.0448062,
       38.9270224
      ],
      [
       -77.0447982,
       38.9274189
      ],
      [
       -77.0441249,
       38.9275816
      ],
      [
       -77.0440759,
       38.927984
      ],
      [
       -77.0440674,
       38.9280943
      ],
      [
       -77.043813,
       38.9280788
      ],
      [
       -77.0437162,
       38.9280675
      ],
      [
       -77.0437022,
       38.9280687
      ],
      [
       -77.0436848,
       38.9280721
      ],
      [
       -77.043669,
       38.9280769
      ],
      [
       -77.0436531,
       38.9280849
      ],
      [
       -77.0436389,
       38.9280954
      ],
      [
       -77.0436287,
       38.9281128
      ],
      [
       -77.043621,
       38.9281311
      ],
      [
       -77.0436169,
       38.9281527
      ],
      [
       -77.0436171,
       38.9281686
      ],
      [
       -77.04362,
       38.9281849
      ],
      [
       -77.0436438,
       38.9283151
      ],
      [
       -77.043657,
       38.9283336
      ],
      [
       -77.043664,
       38.9283357
      ],
      [
       -77.0437136,
       38.9285336
      ],
      [
       -77.0437409,
       38.9286537
      ],
      [
       -77.0437847,
       38.9287938
      ],
      [
       -77.0438406,
       38.9289157
      ],
      [
       -77.0439193,
       38.9290581
      ],
      [
       -77.0439836,
       38.9291603
      ],
      [
       -77.0440816,
       38.9292968
      ],
      [
       -77.0441901,
       38.929422
      ],
      [
       -77.0442919,
       38.9295368
      ],
      [
       -77.0443291,
       38.9296008
      ],
      [
       -77.0443409,
       38.9296345
      ],
      [
       -77.044348,
       38.9296713
      ],
      [
       -77.0443637,
       38.9297726
      ],
      [
       -77.0443441,
       38.9297776
      ],
      [
       -77.0443595,
       38.9298192
      ],
      [
       -77.0443929,
       38.9298843
      ],
      [
       -77.0444363,
       38.9299436
      ],
      [
       -77.0453979,
       38.9310109
      ],
      [
       -77.0454711,
       38.931092
      ],
      [
       -77.0457697,
       38.931397
      ],
      [
       -77.0458703,
       38.9315338
      ],
      [
       -77.0461246,
       38.9318144
      ],
      [
       -77.0464204,
       38.9321393
      ],
      [
       -77.0466248,
       38.9323592
      ],
      [
       -77.0467172,
       38.9324406
      ],
      [
       -77.0467863,
       38.9324854
      ],
      [
       -77.0468781,
       38.9325196
      ],
      [
       -77.0469693,
       38.9325268
      ],
      [
       -77.0478176,
       38.9325288
      ],
      [
       -77.0484405,
       38.9325316
      ],
      [
       -77.0486835,
       38.9325376
      ],
      [
       -77.0488512,
       38.9325546
      ],
      [
       -77.0490237,
       38.932585
      ],
      [
       -77.049208,
       38.9326273
      ],
      [
       -77.0494011,
       38.9326872
      ],
      [
       -77.0494944,
       38.9327227
      ],
      [
       -77.0496582,
       38.9327893
      ],
      [
       -77.0498149,
       38.9328655
      ],
      [
       -77.0499263,
       38.9329205
      ],
      [
       -77.0499538,
       38.9329201
      ],
      [
       -77.0501808,
       38.9330308
      ],
      [
       -77.0502429,
       38.9330626
      ],
      [
       -77.0504576,
       38.9331671
      ],
      [
       -77.0509538,
       38.9332841
      ],
      [
       -77.0514367,
       38.9334055
      ],
      [
       -77.0516214,
       38.9334352
      ],
      [
       -77.0517932,
       38.9334516
      ],
      [
       -77.0519726,
       38.9334429
      ],
      [
       -77.0522508,
       38.9334091
      ],
      [
       -77.0524614,
       38.9334048
      ],
      [
       -77.0527746,
       38.9334479
      ],
      [
       -77.0529722,
       38.9334534
      ],
      [
       -77.0531122,
       38.9334366
      ],
      [
       -77.0535516,
       38.9333003
      ],
      [
       -77.0539601,
       38.9331385
      ],
      [
       -77.0544493,
       38.932798
      ],
      [
       -77.0548184,
       38.932611
      ],
      [
       -77.0549557,
       38.9324575
      ],
      [
       -77.0550244,
       38.9322305
      ],
      [
       -77.0551102,
       38.9318899
      ],
      [
       -77.055136,
       38.9315895
      ],
      [
       -77.0550845,
       38.9311555
      ],
      [
       -77.0550244,
       38.9309886
      ],
      [
       -77.0550244,
       38.9308818
      ],
      [
       -77.0555222,
       38.9307215
      ]
     ]
    ]
   }
  }
 ]
}
